{"type":"FeatureCollection","name":"arbeitsflaechen","source":"G:\\Unidades compartidas\\DE\\02_Projekt Laufend\\11_Karben\\12 Engineering_Planung\\12.02 Bautechnik-Statik\\05. Zuwegungen\\01_Datos_Proyecto\\Seilzugflächen.gpkg","features":[{"type":"Feature","properties":{"fid":1,"id":"058","arbeits_id":null,"mast_nr":null,"tipo":null,"anchura_m":null,"estado":null,"comentario":null},"geometry":{"type":"Polygon","coordinates":[[[8.870815479355937,50.14472857108349],[8.870893622757535,50.14493092550987],[8.871102002970014,50.14489843721384],[8.87103776881908,50.14468717480425],[8.870810866681966,50.14472261690753],[8.870815479355937,50.14472857108349]]]}},{"type":"Feature","properties":{"fid":2,"id":null,"arbeits_id":"Supertendido2","mast_nr":48,"tipo":"Contratiro M048-M042","anchura_m":15.0,"estado":"Propuesta AGZ","comentario":null},"geometry":{"type":"Polygon","coordinates":[[[8.844766293249185,50.16365974520445],[8.844996602906628,50.163720313606504],[8.844795296924074,50.16380785345746],[8.84463478068276,50.1637146650018],[8.844766293249185,50.16365974520445]]]}},{"type":"Feature","properties":{"fid":3,"id":null,"arbeits_id":"Superfreno","mast_nr":42,"tipo":"Freno M042-M048","anchura_m":15.0,"estado":"Aprobada","comentario":null},"geometry":{"type":"Polygon","coordinates":[[[8.819826035473032,50.1753829327397],[8.81975580862225,50.17520617731812],[8.819327735997389,50.17517637476187],[8.819375317182885,50.17534216864844],[8.819826035473032,50.1753829327397]]]}},{"type":"Feature","properties":{"fid":5,"id":null,"arbeits_id":null,"mast_nr":51,"tipo":"Freno M051-M048","anchura_m":15.0,"estado":"Aprobado","comentario":null},"geometry":{"type":"Polygon","coordinates":[[[8.853617455498684,50.15651540136209],[8.853985353475487,50.15656177750612],[8.854071857599637,50.15631625125972],[8.853693269951412,50.156260679307024],[8.853617455498684,50.15651540136209]]]}},{"type":"Feature","properties":{"fid":6,"id":null,"arbeits_id":null,"mast_nr":48,"tipo":"kran System 1 + Hubsteiger","anchura_m":null,"estado":null,"comentario":null},"geometry":{"type":"Polygon","coordinates":[[[8.84283439516169,50.16419709588017],[8.843324397724933,50.16418928943765],[8.842988284722853,50.16433879687877],[8.842728665740989,50.164277402594635],[8.84283439516169,50.16419709588017]]]}},{"type":"Feature","properties":{"fid":7,"id":null,"arbeits_id":null,"mast_nr":48,"tipo":"Kran + Hubsteiger System 3","anchura_m":null,"estado":null,"comentario":null},"geometry":{"type":"Polygon","coordinates":[[[8.844137417800418,50.16417274070719],[8.84452634320173,50.16416655777329],[8.844145605363693,50.16435764513301],[8.843895353926113,50.16428673907385],[8.844137417800418,50.16417274070719]]]}},{"type":"Feature","properties":{"fid":8,"id":null,"arbeits_id":null,"mast_nr":47,"tipo":"verankerung","anchura_m":null,"estado":null,"comentario":null},"geometry":{"type":"Polygon","coordinates":[[[8.838970119402049,50.166189468874556],[8.839028220661227,50.16622238091284],[8.838977019204242,50.16624875755037],[8.838913251031315,50.16621218968336],[8.838970119402049,50.166189468874556]]]}},{"type":"Feature","properties":{"fid":9,"id":null,"arbeits_id":"","mast_nr":51,"tipo":"Rollenleine 1","anchura_m":null,"estado":null,"comentario":null},"geometry":{"type":"Polygon","coordinates":[[[8.853567618997857,50.15700821917247],[8.853718071177763,50.15704871652172],[8.853753525103436,50.15694396095851],[8.853603063375342,50.156906688264144],[8.853567618997857,50.15700821917247]]]}},{"type":"Feature","properties":{"fid":10,"id":null,"arbeits_id":null,"mast_nr":50,"tipo":"rollenleine 2","anchura_m":null,"estado":null,"comentario":null},"geometry":{"type":"Polygon","coordinates":[[[8.850365136231401,50.15949676984488],[8.850462849185822,50.15955010191997],[8.850394875445682,50.15961773141963],[8.850304676483741,50.1595692459027],[8.850365136231401,50.15949676984488]]]}}]}