{"type":"FeatureCollection","name":"beschilderung","source":"G:\\Unidades compartidas\\DE\\02_Projekt Laufend\\11_Karben\\12 Engineering_Planung\\12.02 Bautechnik-Statik\\05. Zuwegungen\\01_Datos_Proyecto\\Beschilderung.gpkg","features":[{"type":"Feature","properties":{"fid":1,"id":"071","Beschilderung Mast":null},"geometry":{"type":"MultiPoint","coordinates":[[8.876947140565981,50.10654036453472]]}},{"type":"Feature","properties":{"fid":2,"id":"070","Beschilderung Mast":null},"geometry":{"type":"MultiPoint","coordinates":[[8.874374475434207,50.109554366525]]}},{"type":"Feature","properties":{"fid":3,"id":"Schild Mast 71-72","Beschilderung Mast":null},"geometry":{"type":"MultiPoint","coordinates":[[8.87756776164081,50.100487655105475]]}},{"type":"Feature","properties":{"fid":4,"id":"069","Beschilderung Mast":null},"geometry":{"type":"MultiPoint","coordinates":[[8.872157306301467,50.112234609633404]]}},{"type":"Feature","properties":{"fid":5,"id":"069","Beschilderung Mast":null},"geometry":{"type":"MultiPoint","coordinates":[[8.862245288622802,50.11752464484114]]}},{"type":"Feature","properties":{"fid":6,"id":"068","Beschilderung Mast":null},"geometry":{"type":"MultiPoint","coordinates":[[8.86486124558149,50.11843792650824]]}},{"type":"Feature","properties":{"fid":7,"id":"072","Beschilderung Mast":null},"geometry":{"type":"MultiPoint","coordinates":[[8.885961143285554,50.102397113850564]]}},{"type":"Feature","properties":{"fid":8,"id":"074","Beschilderung Mast":null},"geometry":{"type":"MultiPoint","coordinates":[[8.894532775759512,50.0991635219124]]}},{"type":"Feature","properties":{"fid":9,"id":"076","Beschilderung Mast":null},"geometry":{"type":"MultiPoint","coordinates":[[8.894251819847852,50.097919651655154]]}},{"type":"Feature","properties":{"fid":10,"id":"076","Beschilderung Mast":null},"geometry":{"type":"MultiPoint","coordinates":[[8.894826348955855,50.09586689451947]]}}]}