{"type":"FeatureCollection","name":"buffer_leitung_800m","source":"G:\\Unidades compartidas\\DE\\02_Projekt Laufend\\11_Karben\\12 Engineering_Planung\\12.02 Bautechnik-Statik\\05. Zuwegungen\\01_Datos_Proyecto\\buffer_leitung_800m.gpkg","features":[{"type":"Feature","properties":{"fid":1,"distance_m":800.0},"geometry":{"type":"Polygon","coordinates":[[[8.799841934612703,50.203360003843855],[8.79983511067142,50.20356828427851],[8.799850549008424,50.20392129209261],[8.799892956727202,50.20427338846328],[8.799962232254083,50.20462372513099],[8.800058209276784,50.20497145805728],[8.8001806571395,50.20531574945843],[8.80032928139316,50.205655769824496],[8.800503724499613,50.20599069991836],[8.800703566688016,50.20631973275037],[8.800928326961525,50.206642075523526],[8.80117746425179,50.20695695154454],[8.801450378718599,50.20726360209649],[8.801746413191545,50.207561288267954],[8.802064854750263,50.207849292734764],[8.802404936439482,50.208126921489715],[8.802765839114775,50.20839350551627],[8.80314669341458,50.20864840240203],[8.803546581853748,50.20889099788815],[8.803964541033588,50.20912070735102],[8.804399563963086,50.209336977212445],[8.804850602485716,50.209539286275124],[8.805316569805962,50.20972714698007],[8.805796343109456,50.20990010658275],[8.806288766270455,50.21005774824564],[8.806792652639992,50.21019969204383],[8.807306787908104,50.2103255958819],[8.807829933033082,50.21043515631926],[8.808360827230723,50.210528109302516],[8.808898191016306,50.210604230802666],[8.809440729291943,50.210663337355676],[8.809987134471793,50.210705286505274],[8.81053608963759,50.21072997714678],[8.811086271716805,50.21073734977108],[8.811636354675738,50.21072738660827],[8.812185012719809,50.21070011167053],[8.812730923493254,50.210655590694195],[8.813272771270498,50.21059393098109],[8.813809250131419,50.210515281139635],[8.814339067112837,50.21041983072614],[8.814860945328567,50.21030780978737],[8.815373627050471,50.21017948830549],[8.815875876743036,50.210035175546416],[8.81736635141545,50.20957839366053],[8.81746084232143,50.209547584531705],[8.817556738853753,50.20951861931866],[8.817667814793042,50.20948069016563],[8.817780425678215,50.20944467339126],[8.817818264617868,50.209431044540274],[8.817856949063732,50.20941843111117],[8.817948969848524,50.20938468327214],[8.81804253556195,50.20935273285938],[8.81815057687245,50.209311351257064],[8.818260297508282,50.20927183138899],[8.818297048536666,50.20925702728565],[8.818334721697862,50.209243210752796],[8.818424050615103,50.20920660553631],[8.818515060038782,50.20917174692575],[8.818619806372052,50.20912701260418],[8.818726372362937,50.20908408488637],[8.818761946922503,50.20906814120833],[8.818798518017624,50.20905315487005],[8.81888493981511,50.20901378049456],[8.818973173646969,50.20897609769576],[8.81907437260459,50.20892811846382],[8.819177527166469,50.20888188635207],[8.819211839537406,50.20886484152323],[8.819247220444849,50.208848721496445],[8.819330526885159,50.20880667285253],[8.819415772519143,50.20876625668064],[8.81951318026097,50.208715148166156],[8.819612674840835,50.20866572307835],[8.819645642348892,50.20864761817563],[8.819679747818185,50.208630403309115],[8.819759738178968,50.20858578173142],[8.819841790219407,50.20854272958734],[8.819935172051851,50.20848861495783],[8.820030766926514,50.208436116005345],[8.820062310141731,50.208416994659906],[8.820095057999614,50.208398726440294],[8.820171539558489,50.20835163946262],[8.820250200314158,50.208306055098404],[8.820339331255857,50.20824906476396],[8.820430796109795,50.20819361846434],[8.820460839037738,50.20817352675636],[8.82049215038642,50.20815424920806],[8.820564938885598,50.20810481030369],[8.820640018846014,50.20805680357242],[8.820724684168997,50.20799707487176],[8.82081179865037,50.20793881484291],[8.82084026891607,50.20791780119],[8.820870068322531,50.20789756076934],[8.8209389884122,50.20784588907779],[8.821010306704837,50.20779557566828],[8.821090302453113,50.20773325253666],[8.821172856703415,50.207672319175266],[8.82119968572478,50.20765043421628],[8.82122790140344,50.20762927969894],[8.82129278706427,50.207575499738454],[8.821360171890172,50.20752300089618],[8.821435305370485,50.207458233518516],[8.821513100530513,50.20739477366116],[8.821538223684106,50.2073720701336],[8.821564787669121,50.20735005249737],[8.821625482612333,50.20729429386448],[8.821688771659602,50.207239736099346],[8.821758861905233,50.20717268054817],[8.82183171059415,50.20710684711694],[8.821855067370516,50.20708337973002],[8.821879915679693,50.20706055203161],[8.821936273723157,50.207002949088626],[8.821995314557908,50.20694646386975],[8.82206019276444,50.20687728172871],[8.822127919530697,50.20680923336257],[8.822149453680115,50.20678505866511],[8.822172526468806,50.206761475912366],[8.822224411888863,50.20670216746334],[8.822279062322092,50.20664389090202],[8.822338572253804,50.20657274887599],[8.822401013997169,50.206502649548376],[8.822420673664839,50.20647782579266],[8.82244191537009,50.20645354481165],[8.822489203227946,50.206392673767866],[8.822539331657755,50.20633274628922],[8.822593330023128,50.206259815802596],[8.82265033638731,50.20618783442576],[8.822668074238226,50.206162421426804],[8.822687433712261,50.20613750072512],[8.822730010154627,50.20607521376019],[8.822775495882516,50.20601377976471],[8.82282385267884,50.20593923654801],[8.822875286412922,50.205865546565846],[8.822891059745578,50.205839605557294],[8.822908490378834,50.20581410518282],[8.82294625291137,50.205750552379335],[8.822986986432571,50.2056877598946],[8.825349107000443,50.20177839255718],[8.827203153288409,50.198709768013714],[8.828907521557444,50.19655227136609],[8.831156037165092,50.193705649612205],[8.833307525772684,50.19098163762968],[8.833360445307095,50.19091034576492],[8.833416358258447,50.1908400019578],[8.833478748234917,50.19075097017863],[8.833544166788668,50.190662838964194],[8.833591573109207,50.19058996583227],[8.833642041698793,50.19051794531269],[8.833697551099597,50.190427055284246],[8.833756154265117,50.19033696932454],[8.833797933257676,50.19026269051435],[8.83384283599251,50.19018916681712],[8.833891331209557,50.19009663753814],[8.833942977924492,50.19000481389475],[8.833979029040679,50.18992930837867],[8.834018257845662,50.189854458656846],[8.834059622179185,50.18976051307142],[8.834104188150723,50.18966717298817],[8.834134424649276,50.18959062269036],[8.834167885126444,50.18951462728843],[8.834202019064987,50.189419491748545],[8.834239397067966,50.18932486011826],[8.834263746222488,50.18924744947651],[8.834291357877564,50.1891704914954],[8.834318179336446,50.18907439521508],[8.834348279470253,50.18897870003777],[8.834366682743422,50.18890061555867],[8.834388379178515,50.188822880414634],[8.834407823696049,50.188726054917865],[8.834430573599912,50.18862952675089],[8.834442986783271,50.18855095656052],[8.83445871585571,50.18847263153818],[8.834470736747091,50.18837531010079],[8.834486081772852,50.18827818150342],[8.834492475092105,50.188199314894],[8.834502199038841,50.188120588695035],[8.834506767507062,50.188023005782526],[8.834514670849325,50.18792551075557],[8.834515029034815,50.18784653772929],[8.834518724562134,50.18776760001774],[8.834515829765795,50.18766999072047],[8.834516272549038,50.18757236414236],[8.83451059487126,50.18749347495361],[8.834508253209627,50.18741451589893],[8.83449790228747,50.187317115365666],[8.834490883609933,50.187219592426594],[8.83447918388,50.18714097712367],[8.834470810803914,50.18706218694258],[8.834453028856032,50.186965229813985],[8.834438565790295,50.18686804544933],[8.834420872325394,50.18678989341651],[8.83440648813818,50.186711461914754],[8.83438131816397,50.18661518175821],[8.834359445714263,50.186518570082654],[8.83433580126816,50.18644106958415],[8.834315440751793,50.186363185699236],[8.833396028884216,50.18330739544018],[8.83236712361557,50.17988706569905],[8.832367122776361,50.17988706323545],[8.832367122126405,50.17988706074836],[8.831768883421312,50.17789814945822],[8.833630781801054,50.177106451611074],[8.83801607599527,50.17524164337711],[8.841987600964325,50.173552545426396],[8.841987685959369,50.173552507315456],[8.841987773762892,50.17355247192777],[8.846603060793205,50.171589180629645],[8.851249085495803,50.16961252844762],[8.851429943522813,50.16953140436674],[8.85161201766895,50.1694514106737],[8.851655313248978,50.16943031373015],[8.851699868587414,50.16941032812379],[8.85187430972842,50.16932360123312],[8.852050051886383,50.16923796503636],[8.85209168322664,50.16921552885685],[8.8521346577124,50.16919416296858],[8.85230226166075,50.16910204227408],[8.852471248389973,50.16901096995242],[8.85251111518527,50.16898724860623],[8.852552405275528,50.16896455392641],[8.8527127682176,50.16886726143047],[8.852874592376173,50.16877097245976],[8.852912598578206,50.16874602311239],[8.852952104793456,50.16872205433307],[8.853104840383097,50.168619824498386],[8.853259112107743,50.16851855092263],[8.853295166156123,50.16849243369817],[8.853332793320329,50.16846724858082],[8.853477533610308,50.16836032776443],[8.853623881255201,50.168254313636396],[8.856481518349176,50.16607881642225],[8.856481532391598,50.16607880518274],[8.856481547275699,50.166078794399276],[8.859052918780428,50.16412098321755],[8.859052982683847,50.16412093206332],[8.859053050416245,50.164120882984186],[8.862173735387932,50.16174445076229],[8.862333506567499,50.16161653247397],[8.862493971946932,50.16148897349673],[8.862505516513165,50.16147881439657],[8.862517769835332,50.16146900385417],[8.862667576053436,50.161336203081234],[8.862818103115492,50.16120373930299],[8.862828857667672,50.16119322851341],[8.862840346743837,50.1611830435189],[8.862979827185834,50.16104568027519],[8.863120053385819,50.160908630895484],[8.863129992023374,50.1608977937441],[8.863140689182256,50.16088725884049],[8.863269507935254,50.160745664127894],[8.863399095568903,50.160604359390625],[8.863408194358493,50.16059322199127],[8.863418073838805,50.16058236256403],[8.863535920700171,50.160436877573645],[8.863654557715815,50.16029165797135],[8.863662794749295,50.16028024716069],[8.863671832761314,50.16026908937689],[8.86377842398274,50.16012006466861],[8.863885824733723,50.15997128011923],[8.863893180180693,50.15995962339216],[8.863901354963593,50.15994819413735],[8.863996433934208,50.15979598879362],[8.864092339864431,50.15964399779774],[8.86409879601987,50.159632123241195],[8.86410608789403,50.15962045005445],[8.864189425757901,50.159465430812915],[8.86427360602197,50.1593105995911],[8.864279147348624,50.15929853581648],[8.864285538763028,50.15928664682393],[8.86435693496728,50.15912918719506],[8.864429186985998,50.15897188880338],[8.864433800151906,50.15895966487713],[8.86443927572601,50.158947588724466],[8.864498558501852,50.158788068091894],[8.864558708448198,50.15862868152191],[8.865230360939258,50.15663653325093],[8.865990845635661,50.154381068584264],[8.86599086741721,50.15438099533655],[8.865990894764153,50.15438092286338],[8.866175182990817,50.15383426852407],[8.870604426607487,50.152854613355515],[8.874872817567578,50.15191035761207],[8.87495877466002,50.15188981064498],[8.875045731505649,50.15187108080586],[8.875216306606303,50.1518282503697],[8.875387950239263,50.15178722037766],[8.875472234221773,50.15176398778899],[8.875557655534218,50.15174253861487],[8.875724753387157,50.151694381251495],[8.875893055981992,50.151647988470366],[8.875975463737332,50.15162212625201],[8.876059143657153,50.151598009437606],[8.876222361574392,50.15154464120912],[8.876386917540968,50.1514929974492],[8.87646725047879,50.15146456793029],[8.876548987349166,50.15143784159889],[8.876707932005102,50.15137939112473],[8.876868344793852,50.1513226208505],[8.87694640932996,50.15129169254689],[8.877026006182883,50.151262421110204],[8.877180294562445,50.15119902925693],[8.877336177621425,50.15113726928651],[8.877411785645288,50.15110391673525],[8.877489050675996,50.15107217073823],[8.877638310998183,50.15100399027978],[8.877789288705465,50.15093738945472],[8.87786225803291,50.1509016930346],[8.877937005063366,50.15086754898482],[8.878080877679112,50.15079474423331],[8.878226586247145,50.15072346306003],[8.878296741059952,50.15068550879748],[8.878368789987409,50.15064904898075],[8.878506928244965,50.15057179539077],[8.878647016599338,50.15049600565266],[8.87871418786968,50.15045588501398],[8.878783365100261,50.15041719729601],[8.87891543618142,50.15033568104114],[8.879049566806476,50.150255565384256],[8.879113592703403,50.15021337505539],[8.879179731571403,50.15017255266941],[8.879305417294184,50.15008697019281],[8.879433267045819,50.15000272168569],[8.879493993325655,50.149958563338735],[8.879556934494738,50.14991570466089],[8.879675932079197,50.14982626220177],[8.879797192964284,50.14973808386923],[8.879854473342322,50.14969206391714],[8.87991406518927,50.14964727222916],[8.880026087987062,50.14955418532539],[8.88014046790513,50.14946228965889],[8.88019416440767,50.149414518999045],[8.880250263387868,50.14936790223897],[8.880355041573072,50.14927139520667],[8.880462265019213,50.14917600365221],[8.88051224831575,50.14912659739891],[8.880564719308833,50.149078267900784],[8.880662000526893,50.148978573293896],[8.880761809255674,50.1488799157175],[8.880807958970532,50.14882899292409],[8.880856675605305,50.14877906714727],[8.880946225580328,50.14867642519685],[8.881038379227302,50.148574739330066],[8.881080584229025,50.148522422702015],[8.881125429187785,50.14847102095018],[8.881207032286682,50.14836567898445],[8.881291308946098,50.148261209851725],[8.881329467614517,50.148207625451064],[8.881370332915445,50.14815487158186],[8.881443792666145,50.148047083430185],[8.881519989424868,50.14794008275773],[8.88155400989578,50.14788535969854],[8.881590797152166,50.147831380825394],[8.881655936715623,50.147721406206536],[8.881723870141023,50.14761213181519],[8.881753670526656,50.14755640195264],[8.881786291183563,50.147501328138055],[8.881842953778683,50.14738943203384],[8.881902460359088,50.147278147217634],[8.88192796894476,50.147221544830074],[8.881956344491629,50.14716550877211],[8.882004393771622,50.14705196078851],[8.882055330308772,50.14693893368015],[8.882076485724857,50.146881595145466],[8.882100547883983,50.146824731857805],[8.882139868263232,50.14670980557511],[8.882182112215803,50.146595308499535],[8.882198863584852,50.14653737196637],[8.882218554475006,50.14647981845294],[8.882249051405854,50.146363790766635],[8.88228250118308,50.14624809958453],[8.882294808241507,50.146189704639276],[8.882310080516586,50.1461315995641],[8.882331680715435,50.14601475001729],[8.882356255920074,50.1458981434603],[8.882364089114281,50.1458394307908],[8.882374906076473,50.145780914143735],[8.882387557698552,50.14566352425353],[8.882403199318777,50.145546283252656],[8.882406539875406,50.14548739430923],[8.882412875562718,50.14542860706862],[8.882416548325116,50.1453109596477],[8.88242321887483,50.14519336665637],[8.882422058845084,50.14513444331087],[8.88242389809292,50.14507552710389],[8.882418583345643,50.14495790557932],[8.882416266952923,50.14484024389265],[8.882410609230744,50.14478142809672],[8.882407947707508,50.144722524858146],[8.882393658452417,50.144605212588274],[8.882382360895823,50.1444877656608],[8.882372219209975,50.14442919910388],[8.882365063426537,50.14437045073413],[8.88234183428411,50.144253730326184],[8.882321582976871,50.144136781088804],[8.882306981856903,50.144078604856816],[8.882295349149972,50.14402015288016],[8.88226323627405,50.1439043055095],[8.882234080196094,50.143788135687956],[8.882215054912308,50.14373048992345],[8.882198973401723,50.14367247514712],[8.882158054342293,50.14355777987976],[8.882120063920464,50.14344266931636],[8.882096660398071,50.14338569288115],[8.882076168918104,50.14332825505604],[8.882026542432724,50.143214988176766],[8.881979809369271,50.14310121415617],[8.881952084076817,50.14304504429667],[8.881927232081777,50.142988321781054],[8.881869017895951,50.142876756128125],[8.881813654945855,50.142764592709554],[8.88178167475835,50.142709364726436],[8.88175252220258,50.14265349415261],[8.881685860719667,50.14254389846071],[8.881622001417366,50.14243361581812],[8.881585843454381,50.14237946274047],[8.881552460647029,50.14232457868583],[8.880312175894971,50.14042426967296],[8.8805580355799,50.13990378833139],[8.880558047942992,50.13990375964379],[8.880558062481073,50.13990373138051],[8.881834990947318,50.137200220947896],[8.881881913046342,50.13709132463997],[8.881931822634417,50.136982978438965],[8.881955226833213,50.13692117775005],[8.881981639025941,50.13685987993296],[8.882020190534059,50.136749634954],[8.882061767946121,50.13663984519816],[8.88208042562366,50.13657738082275],[8.882102126053613,50.13651532384609],[8.882132214267465,50.136403995813204],[8.882165359510312,50.136293027022425],[8.882179225817318,50.136230049456195],[8.882196162303963,50.13616738283453],[8.882217714916472,50.13605523996857],[8.882242348318218,50.13594335949771],[8.882251389951826,50.13588002046966],[8.882263521795265,50.13581689518299],[8.882276487068102,50.1357042076621],[8.882292549468414,50.135591685056724],[8.882296744751482,50.135528137163305],[8.88230404282945,50.13546470529348],[8.882308389715892,50.13535174460224],[8.882315842606744,50.13523885094893],[8.882386378791738,50.13270096841194],[8.882386376706684,50.13270076782117],[8.882386389919027,50.13270056740581],[8.882443286394308,50.130646826569595],[8.882532823606589,50.12742056723534],[8.882624643861567,50.12411426512995],[8.882624642571939,50.12411414124849],[8.882624650732128,50.1241140174754],[8.882716012886135,50.12081738346592],[8.882771588165843,50.118815050172934],[8.884140843464094,50.11694627169612],[8.884140867686485,50.11694623641483],[8.884140894571518,50.11694620194002],[8.886470458660462,50.11376631909375],[8.888807119045547,50.11057636371294],[8.889917824607908,50.1090599338334],[8.892100988295452,50.10789296082452],[8.892101029397036,50.10789293773338],[8.892101072210364,50.1078929159669],[8.895899293919753,50.10586236716718],[8.899803825817141,50.103774786129954],[8.899803846466256,50.10377477452611],[8.899803867975692,50.103774763587836],[8.902816893959336,50.102163600942724],[8.904796580529075,50.101509854681346],[8.909736851601625,50.09987843735627],[8.90973699283731,50.09987838785759],[8.909737137677048,50.099878342873424],[8.914385628351576,50.09834287737327],[8.914385652863713,50.09834286878039],[8.914385678001704,50.098342860971464],[8.917597021505891,50.09728192717268],[8.920062265827452,50.09715223746574],[8.924606555243138,50.09691306289815],[8.929816294267264,50.09663868667347],[8.929816498001586,50.09663867269361],[8.929816702556373,50.096638665156384],[8.934444040251307,50.09639465324808],[8.934614630277814,50.09638293653479],[8.934785526642473,50.09637324180654],[8.934887536334514,50.09636419186933],[8.934989929502441,50.09635715878293],[8.935159419987269,50.09634007086375],[8.935329370677637,50.096324992822844],[8.935430566943472,50.096312733466036],[8.9355323000796,50.09630247642414],[8.935700282528012,50.096280058482755],[8.935868877939951,50.09625963347011],[8.935969016884451,50.096244194240036],[8.936069844799313,50.09623073796404],[8.936235914355107,50.09620304403016],[8.936402748156096,50.09617732127345],[8.936501588435453,50.09615873938022],[8.93660126812451,50.096142116301976],[8.936765024548057,50.096109213120826],[8.9369296946567,50.09607825461576],[8.93702699806116,50.096056574843495],[8.937125289290854,50.09603682502706],[8.937286337924226,50.095998791898424],[8.937448447481126,50.09596267225907],[8.937543979508987,50.09593794685795],[8.937640645397199,50.09591511790282],[8.937798598116508,50.09587204648968],[8.937957756441762,50.09583085276837],[8.938051286866509,50.09580314132824],[8.93814609445275,50.09577728825471],[8.938300570604873,50.09572928236194],[8.938456394140301,50.09568311383933],[8.941899479064084,50.094596231983765],[8.941899569475716,50.09459620164821],[8.94189966209183,50.09459617420187],[8.945757236460215,50.0933782139521],[8.945757265056082,50.09337820435553],[8.94575729434901,50.09337819567318],[8.950293780186835,50.091945616979295],[8.950381367736263,50.0919162175114],[8.950470347675193,50.09188860281546],[8.950624674395684,50.09183454913106],[8.950780460817064,50.09178225740371],[8.950865699934079,50.09175012810923],[8.950952465898796,50.091719737476964],[8.957144354635915,50.089422195632686],[8.95903540700766,50.08902564280445],[8.959143080289401,50.089001166193825],[8.959251799670158,50.08897868512823],[8.959318863083684,50.08896244149264],[8.959386797969069,50.088947773286996],[8.9594061417927,50.08894290497797],[8.959425808919994,50.08893860617535],[8.95948894399759,50.088922542582054],[8.959552958230306,50.088907990378544],[8.959658634523583,50.08888014364257],[8.959765507860508,50.0888542570183],[8.959831251292291,50.088835915531156],[8.959897985309334,50.088819120060485],[8.959916934438501,50.08881364686592],[8.959936249920029,50.08880873228392],[8.959998083487235,50.08879069465339],[8.960060910429613,50.08877413883353],[8.960164335061764,50.088742989084594],[8.960269104795913,50.0887137592912],[8.960333369809886,50.08869336415667],[8.960398742134913,50.08867448189963],[8.960417250903856,50.088668417010325],[8.960436168191235,50.08866289849346],[8.960496551236377,50.08864293029726],[8.960558039481224,50.08862441076217],[8.96065896321198,50.08859003307288],[8.960761376861576,50.08855753055638],[8.960824008589556,50.08853513092748],[8.960887861684316,50.088514207391796],[8.960905885490302,50.088507565424294],[8.960924358995578,50.088501456272674],[8.960983146006345,50.08847960563493],[8.961043147377532,50.08845916701783],[8.96114132700131,50.088421644239425],[8.96124113776972,50.08838594733267],[8.961301985283912,50.08836159719299],[8.961364165276636,50.08833868280536],[8.961381660686916,50.08833147976689],[8.961399645893156,50.08832479470384],[8.961456695208657,50.08830111428478],[8.961515065117442,50.088278805843636],[8.961610264049732,50.088238228406254],[8.961707231420931,50.088199423139756],[8.962806879051406,50.08773488462852],[8.96325817336253,50.087533864696624],[8.963693589688587,50.087318837909116],[8.964112078919975,50.08709032246714],[8.964512632782855,50.086848869071176],[8.964894286269125,50.086595059592504],[8.96525611996157,50.086329505669546],[8.965597262248618,50.08605284723264],[8.965916891423403,50.085765750960526],[8.966214237662008,50.08546890867253],[8.9664885848762,50.08516303566016],[8.966739272436199,50.08484886896219],[8.966965696759313,50.08452716558761],[8.967167312760706,50.08419870069033],[8.967343635162777,50.08386426570047],[8.967494239660065,50.08352466641646],[8.967618763936894,50.08318072106269],[8.967716908535385,50.08283325831737],[8.967788437571732,50.082483115315384],[8.967833179299133,50.08213113563091],[8.96785102651602,50.08177816724471],[8.967841936818672,50.08142506050093],[8.967805932697683,50.081072666058525],[8.967743101478066,50.0807218328419],[8.967653595103215,50.08037340599609],[8.967537629763305,50.0800282248511],[8.96739548536906,50.07968712090049],[8.967227504872238,50.07935091579899],[8.96703409343446,50.079020419384],[8.966815717446542,50.07869642772563],[8.966572903400591,50.078379721210105],[8.966306236617765,50.07807106266111],[8.966016359834704,50.07777119550353],[8.965703971652108,50.07748084197395],[8.96536982484923,50.077200701382466],[8.965238739655868,50.077101307191],[8.965105429368148,50.076992457653965],[8.96474500045538,50.07672615395348],[8.964364705014233,50.076471551084694],[8.963965459233291,50.07622926221923],[8.963548224896003,50.07599987086337],[8.963114007064004,50.075783929454104],[8.962663851656716,50.07558195803017],[8.962198842933088,50.07539444298092],[8.961720100881479,50.07522183587628],[8.961228778524019,50.07506455238049],[8.960726059141834,50.074922971252356],[8.960213153427876,50.074797433434235],[8.959691296574126,50.074688241231904],[8.959161745300163,50.074595657587636],[8.958625774830237,50.0745199054477],[8.958084675826063,50.07446116722628],[8.957720730156435,50.07443339504587],[8.957470723537531,50.07440686836066],[8.956925563926047,50.07436658528896],[8.956377990326354,50.07434356358684],[8.955829321303566,50.07433785869079],[8.95528087805702,50.07434948433819],[8.954733981243079,50.074378412534124],[8.95418994779927,50.07442457361873],[8.953650087777273,50.07448785643477],[8.953115701192417,50.07456810859494],[8.952588074897154,50.074665136848296],[8.952068479486055,50.07477870754507],[8.951558166239662,50.07490854719854],[8.951058364114582,50.07505434314279],[8.95057027678699,50.075215744284776],[8.950095079756622,50.07539236194863],[8.949633917518225,50.07558377081067],[8.949187900807228,50.0757895099224],[8.948758103926233,50.07600908381934],[8.948631718409196,50.076080428860465],[8.948587586779098,50.076090459237214],[8.948526658728978,50.07610651191739],[8.948464842550237,50.07612109070661],[8.94827276177326,50.07617340554976],[8.948079736711064,50.07622426091115],[8.948020105634647,50.076242217952824],[8.94795947513342,50.076258730919434],[8.947771613326575,50.076317047365315],[8.94758269709017,50.076373935901394],[8.947524506597272,50.07639375406172],[8.947465207789202,50.076412161441],[8.947282017384763,50.07647633905618],[8.947097664948318,50.07653912377286],[8.947041055183776,50.07656075532675],[8.946983230881644,50.07658101279163],[8.940104266780361,50.07913335066067],[8.935903875713823,50.08045970243101],[8.932047207495923,50.08167730096767],[8.930505917215863,50.082163830048046],[8.927990457874689,50.08229645416365],[8.922782394247244,50.082570742975065],[8.922782321709263,50.08257074794954],[8.922782248879226,50.08257075062836],[8.9182391834824,50.0828098615383],[8.918239132470452,50.08280986503496],[8.918239081253487,50.0828098669171],[8.913556517705906,50.083056159161664],[8.913555409431524,50.08305623509033],[8.913554296714645,50.08305627607872],[8.913282532426665,50.083074929756506],[8.913010762111275,50.083093547951904],[8.913009660959514,50.08309365877545],[8.913008552707133,50.083093734840986],[8.91273853770045,50.08312094517788],[8.912468513902839,50.08314812026796],[8.912467422525786,50.083148265719444],[8.912466321406132,50.08314837667899],[8.912198705852358,50.08318407815505],[8.911931078839183,50.08321974469777],[8.911929999864768,50.08321992442697],[8.911928908529577,50.083220070013354],[8.911664336867455,50.08326417665861],[8.911399751104023,50.08330824876669],[8.911398687130681,50.083308462340774],[8.911397608207821,50.083308642203406],[8.911136717578897,50.08336104780271],[8.910875810193634,50.08341341935216],[8.9108747637832,50.083413666256895],[8.910873699871212,50.083413879962634],[8.910617118549071,50.08347445831673],[8.91036051783943,50.08353500319635],[8.910359491512134,50.0835352828371],[8.910358445172829,50.083535529871355],[8.910106791023773,50.08360413511021],[8.909855114973043,50.08367270751518],[8.909854111200529,50.08367301921853],[8.909853084953737,50.08367329898645],[8.90960696405793,50.08374976589305],[8.909360818741161,50.083826200702504],[8.909359839940594,50.08382654371791],[8.909358836258056,50.08382685554573],[8.904168422220343,50.085541568265036],[8.899521011967538,50.087076573366716],[8.894581582664243,50.08870760279238],[8.8945813140583,50.08870769690699],[8.894581038605425,50.08870778243827],[8.89150609877482,50.089723120478276],[8.891393395341867,50.08976261004115],[8.891279126045248,50.089800190930795],[8.891152399937779,50.089847050566746],[8.891024035612876,50.08989202682905],[8.890914478868861,50.08993502624991],[8.890803212588093,50.089976168721485],[8.89068021202253,50.09002697195687],[8.890555431581689,50.09007594579591],[8.890449285392759,50.090122351524485],[8.890341290110088,50.090166956500575],[8.89022231133729,50.090221580991546],[8.890101415317385,50.090274434470004],[8.889998935345227,50.09032413475195],[8.889894471175387,50.09037209481548],[8.889779800771068,50.09043040901463],[8.889663080365864,50.09048701485054],[8.889564513453049,50.09053988999598],[8.889463832016405,50.090591089648825],[8.885504142614357,50.092708170571285],[8.881599799187288,50.0947953236845],[8.881599688899726,50.094795385642215],[8.881599574021745,50.09479544404589],[8.877801554146398,50.096825566774946],[8.873707474475635,50.09901356408895],[8.873520200612017,50.099118742756296],[8.873332170537152,50.09922336200238],[8.873313427580898,50.09923487185731],[8.873293907929552,50.09924583455195],[8.87311488105674,50.09935679669117],[8.872935056225764,50.0994672239472],[8.872917213652926,50.09947931144589],[8.872898553582196,50.099490876954874],[8.872728204977534,50.099607355334605],[8.87255701859517,50.099723324656814],[8.872540119390804,50.09973596068843],[8.872522363854042,50.099748101158305],[8.872361103915598,50.09986981525734],[8.872198968401104,50.099991047351246],[8.872183053280224,50.10000420148352],[8.872166245054553,50.10001688767557],[8.872014462309982,50.100143544359454],[8.87186176830577,50.100269747250344],[8.871846875615713,50.10028338780246],[8.871831055198463,50.100296589163385],[8.871689115370197,50.100427883388775],[8.871546230798765,50.10055875312522],[8.871532396426018,50.1005728472446],[8.871517601937859,50.10058653197955],[8.871385847061337,50.10072214752829],[8.871253116238332,50.10085736891369],[8.871240373522651,50.10087188265448],[8.871226640615015,50.10088601780408],[8.871105388213529,50.10102562804445],[8.870983131017658,50.10116487539525],[8.870971510671147,50.10117977380051],[8.87095887244074,50.10119432531975],[8.870848414759667,50.1013375939923],[8.870736925860673,50.10148053192223],[8.868566278876767,50.10444248378209],[8.86856625249243,50.10444252219961],[8.868566223209678,50.10444255973842],[8.86622846549961,50.10763218244246],[8.86622844187782,50.10763221683337],[8.866228415661116,50.107632250437675],[8.863897810888588,50.1108117288706],[8.861504858783803,50.11407568342739],[8.861437612623108,50.1141735566663],[8.861367434527557,50.1142705750816],[8.861326655356175,50.114335048151474],[8.86128291247994,50.114398712890974],[8.861223214784133,50.114498589894076],[8.861160523468131,50.11459770560662],[8.861124712596899,50.11466338762302],[8.861085879904584,50.1147283557888],[8.861033874622033,50.11482999598332],[8.860978821245373,50.114930970253695],[8.860948065035743,50.11499770300707],[8.860914236167075,50.11506381810945],[8.860870048725943,50.11516697667055],[8.860822766059375,50.11526956627782],[8.860797138702539,50.11533718902448],[8.860768395249762,50.11540429180771],[8.860732132254398,50.115508720248044],[8.860692734358478,50.11561267807511],[8.860672297695828,50.115681027924055],[8.860648709006105,50.11574895675002],[8.860620457978754,50.11585440351805],[8.860589039927586,50.11595947914679],[8.860573843300642,50.11602839145219],[8.860555466308103,50.1160969826894],[8.860535295476476,50.11620319377525],[8.860511933127151,50.11630913408941],[8.860502013257728,50.11637844284688],[8.860488892345218,50.1164475312647],[8.860476850476545,50.11655425081182],[8.86046160028473,50.11666080060676],[8.860456981185344,50.116730338853294],[8.860449148076473,50.11679975801981],[8.860445264358331,50.11690672894122],[8.8604381632406,50.11701363153844],[8.860338123632532,50.12055856536616],[8.860338124660725,50.12055866865921],[8.860338117809338,50.12055877186039],[8.860245219879817,50.12385536649787],[8.860151860503414,50.127161578025],[8.860151861022054,50.12716163018912],[8.860151857559714,50.1271616823068],[8.860060811372074,50.130388095491945],[8.86006081256959,50.13038821568024],[8.860060804597667,50.130388335761715],[8.86000295276827,50.132441984518806],[8.85995956189622,50.13397744411152],[8.859134953227318,50.135721620273806],[8.857715616651964,50.13872333701577],[8.857708642761366,50.138739500555026],[8.857700558833834,50.138755449086645],[8.857635231641314,50.13890964642818],[8.857568786386194,50.13906364634129],[8.85756305481904,50.13908001033162],[8.857556198130535,50.13909619457802],[8.857502721095765,50.13925226626598],[8.857448112339098,50.13940817602004],[8.857443636928464,50.1394247010433],[8.857438024022024,50.139441082019566],[8.857396526218471,50.13959865210131],[8.85735388576221,50.13975609613156],[8.857350677316116,50.13977274238081],[8.857346321739623,50.13978928062729],[8.85731690339203,50.139947969532706],[8.85728633421528,50.14010656857035],[8.857284400490386,50.14012329594583],[8.857281312763698,50.140139951623155],[8.857264045004221,50.140299377078584],[8.857245621012687,50.14045874906437],[8.857244966695347,50.14047551727002],[8.857243154284683,50.14049225025504],[8.857239991576833,50.14059181699247],[8.85292455569042,50.14154598176246],[8.852692481079739,50.14160141850908],[8.852459989913818,50.14165613009219],[8.852434954835871,50.14166293431251],[8.852409476076602,50.14166902043447],[8.852181912340496,50.141731707678545],[8.851953877167954,50.14179368376621],[8.851929391599304,50.14180126914264],[8.851904408062637,50.14180815127461],[8.851681903235837,50.14187793805791],[8.851458873227452,50.14194702940626],[8.851434996136982,50.14195537767227],[8.85141056799071,50.14196303924139],[8.851193657937994,50.142039757508485],[8.850976170228872,50.142115797737276],[8.850952959122228,50.14212488878884],[8.850929145198052,50.142133311345255],[8.850718352326577,50.14221677634743],[8.850506930722073,50.14229958234039],[8.850484441502758,50.14230939428469],[8.850461299155251,50.14231855754567],[8.850257131159795,50.14240856828439],[8.85005228487264,50.142497940630676],[8.850030571707453,50.14250844983862],[8.850008156676056,50.14251833173741],[8.849811105316356,50.14261467144788],[8.849613327741858,50.142710394921636],[8.849592442930776,50.142721576084696],[8.849570809205376,50.14273215282364],[8.849381349119712,50.142834589497475],[8.84919111665073,50.14293643357435],[8.849171110501212,50.14294825976531],[8.849150310191959,50.14295950587318],[8.848968897755686,50.143067792816176],[8.848786668634395,50.14317551222826],[8.848767589339836,50.143187954966194],[8.848747672552083,50.14319984335934],[8.848574744779647,50.14331371978444],[8.848400957993043,50.14342705511086],[8.848382851516869,50.143440084429535],[8.848363866230345,50.14345258647711],[8.848199839722788,50.143571778131644],[8.848034913945241,50.14369045642289],[8.848017823910041,50.143704040943],[8.847999815863407,50.143717126535726],[8.847845085804313,50.143841346361455],[8.847689418389269,50.14396508179597],[8.847673385971836,50.143979188800564],[8.84765639855234,50.14399282642326],[8.847511337754204,50.14412177524821],[8.84736530377794,50.14425026981903],[8.84735036761018,50.14426486533205],[8.84733444174892,50.144279022139656],[8.847199399756198,50.14441238939672],[8.847063351111938,50.144545333629935],[8.847049547187233,50.14456038249844],[8.84703472126099,50.14457502439459],[8.846910023506794,50.144712488869246],[8.846784288056607,50.14484956256843],[8.846771649643536,50.14486502854667],[8.846757959381675,50.144880120266286],[8.846643906401995,50.145021350870486],[8.846528787186672,50.145162223886516],[8.84651734474836,50.14517806972357],[8.84650482314701,50.14519357491735],[8.846401689856805,50.14533823148492],[8.846297464363182,50.14548256451213],[8.846287245483893,50.14549875204138],[8.846275922726178,50.14551463336341],[8.846183957754695,50.145662367469924],[8.846090877246615,50.14580981286178],[8.846081906565134,50.14582630309283],[8.846071809948276,50.14584252229054],[8.845991235038449,50.1459929780921],[8.845909523949722,50.14614318069804],[8.84590182309979,50.14615993391058],[8.84589297696917,50.14617645191679],[8.845823986441932,50.14632926700621],[8.845753841833437,50.14648186502719],[8.845747429391375,50.14649884086666],[8.845739855081714,50.14651561789354],[8.84568261536574,50.146670424172996],[8.84562420644876,50.14682505003248],[8.84488699951585,50.14900906228171],[8.84488698898133,50.14900909765935],[8.844886975758534,50.149009132662336],[8.844102681073059,50.15133253178682],[8.84334120011588,50.15358789967092],[8.843341164437106,50.153588019457466],[8.843341119659545,50.15358813797585],[8.843258783913122,50.153832028242974],[8.841933631432918,50.15484083351696],[8.83936213995065,50.156798208039724],[8.837540123384153,50.15818495230295],[8.834233543037046,50.159591551329086],[8.834233475390183,50.15959158166373],[8.834233405508703,50.159591609830045],[8.829618786592624,50.161554407119525],[8.825647873077436,50.16324306458768],[8.825647838794227,50.1632430799561],[8.825647803378342,50.163243094225685],[8.821262996462353,50.165107496106415],[8.821262900383461,50.165107539170116],[8.821262801132088,50.16510757915499],[8.817311011549094,50.16678767336802],[8.8131689752359,50.16854823988805],[8.812949596159664,50.16864653467162],[8.812730013407773,50.168744642062244],[8.812724128869,50.16874755648043],[8.812718034407714,50.16875028712394],[8.812506426779015,50.16885537669339],[8.81229460140532,50.16896028551468],[8.812288946544445,50.168963381859015],[8.81228306797527,50.16896630126512],[8.81207974149555,50.16907793254129],[8.811876183738093,50.169189390146364],[8.811870772176759,50.16919266095995],[8.811865123659762,50.16919576209811],[8.811670568113716,50.16931366624142],[8.811475768315512,50.169431404211444],[8.811470613089744,50.169434841617324],[8.811465208231823,50.16943811701901],[8.81127989230197,50.169562010078934],[8.811094319736117,50.169685744866214],[8.811089433265462,50.169689340585926],[8.811084285087038,50.16969278236298],[8.81090865521963,50.169822365965146],[8.810732756964123,50.16995179957144],[8.810728151021527,50.16995554494506],[8.810723271925388,50.16995914480857],[8.810557751261687,50.17009410686865],[8.81039195111536,50.17022892756616],[8.810387636798596,50.170232813573264],[8.810383038540206,50.170236562853376],[8.810228025900415,50.17037657832453],[8.81007272335791,50.17051646140953],[8.810068711062845,50.170520478690975],[8.810064404721999,50.17052436835769],[8.809920273637939,50.17066910001691],[8.809775842932531,50.170813708586984],[8.809772142328336,50.170817847467156],[8.809768138282166,50.17082186815233],[8.80963523609362,50.17097096741554],[8.809502025297629,50.17111995317684],[8.80949864530335,50.17112420368698],[8.809494953201405,50.171128345706805],[8.80937360022519,50.17128145346101],[8.809251930403276,50.171434457573305],[8.809248879166061,50.17143880947585],[8.80924550790728,50.17144306285388],[8.80913599666127,50.17159981032405],[8.80902616109846,50.17175646426195],[8.809023445974237,50.17176090707467],[8.809020403685112,50.17176526156624],[8.808922998180524,50.17192527120508],[8.808825261675409,50.17208519764298],[8.808822889210902,50.172089720664594],[8.808820183226072,50.1720941657812],[8.808735118331454,50.17225705217572],[8.808649716554548,50.17241986589851],[8.808647692471526,50.172424458234296],[8.80864532931598,50.172428983268965],[8.808572810188862,50.172594354068984],[8.808499949113306,50.17275966289882],[8.808498278294708,50.172764313486866],[8.808496263668033,50.17276890753985],[8.808436465258824,50.172936364401664],[8.808376320661587,50.17310377014322],[8.808375007139698,50.173108467781084],[8.808373345902284,50.17311311978615],[8.808326412529476,50.17328225933423],[8.80827912956647,50.17345135873103],[8.808278176513179,50.17345609210262],[8.8082768726744,50.1734607908538],[8.808242917675233,50.17363120565016],[8.808208610528261,50.173801591357574],[8.80820802024728,50.173806349060555],[8.808207076955835,50.17381108323893],[8.808186182410644,50.17398236276372],[8.808164934009707,50.174153624330735],[8.808164707930999,50.174158394903884],[8.8081641274672,50.174163153104956],[8.808156343998528,50.1743348847472],[8.808148205819782,50.174506609602965],[8.808148344496022,50.1745113815538],[8.808148128266241,50.17451615231501],[8.808153474914404,50.17468792236559],[8.808158466853131,50.17485969681409],[8.808158969958289,50.17486445864655],[8.8081591184915,50.17486923047476],[8.808177582665948,50.17504062512311],[8.8081956929858,50.17521203533967],[8.808196559315865,50.17521677558182],[8.808197072262283,50.17522153698113],[8.808228609768996,50.17539214331111],[8.80825979512764,50.175562776340364],[8.808261022603439,50.175567483572095],[8.80826189873528,50.175572223071406],[8.808306433880507,50.17574163005742],[8.808350619431222,50.17591107480712],[8.809272582491024,50.17898175544183],[8.809272602688319,50.17898181482736],[8.809272618325197,50.17898187477755],[8.810363431443905,50.1826140782014],[8.811390830808973,50.186034625848585],[8.81139084072604,50.186034654996924],[8.81139084840399,50.186034684422566],[8.811581839006411,50.18667047127323],[8.811166434356222,50.18719611315425],[8.811166386790044,50.18719617719028],[8.811166334389236,50.18719623965131],[8.808916878156,50.19004255268293],[8.808916868429323,50.190042565776345],[8.808916857713767,50.190042578547576],[8.806959623637626,50.1925188452992],[8.806956740441478,50.19252272604212],[8.806953571152054,50.19252651372237],[8.806838334873047,50.19268209772305],[8.806722808362279,50.19283759310073],[8.806720225214995,50.19284155998544],[8.806717349204627,50.19284544293096],[8.806614141886751,50.19300446928981],[8.80651063798239,50.1931634162736],[8.806508361111991,50.19316745974518],[8.806505785313929,50.19317142860341],[8.804448874794362,50.196573385410574],[8.80444880146966,50.19657351609467],[8.804448718251672,50.19657364431391],[8.803582873935394,50.19800568528875],[8.80355777099075,50.19801946826918],[8.803157741664315,50.19826190814276],[8.802776722483264,50.19851665427858],[8.802415631379324,50.1987830931607],[8.802075338334088,50.199060583102764],[8.80175666328236,50.199348455792034],[8.801460374135521,50.19964601789763],[8.80118718492971,50.1999525527391],[8.800937754103215,50.20026732201127],[8.800712682907365,50.20058956756139],[8.800512513954674,50.200918513214006],[8.800337729907836,50.201253366639556],[8.80018875231272,50.20159332126181],[8.80006594057827,50.20193755820001],[8.799969591105738,50.20228524824053],[8.79989993656947,50.2026355538338],[8.79985714535099,50.2029876311114],[8.79984712719602,50.20321111296346],[8.799846678312242,50.20321521545766],[8.799845958753258,50.2032371780764],[8.799841321127765,50.20334063191847],[8.799841934612703,50.203360003843855]]]}}]}