{"type":"FeatureCollection","name":"erdungskonzept","source":"Karben Erdungskonzept 042-051","features":[{"type":"Feature","properties":{"name":"Erdung Mast 042","mast":"042","leitung":"LH-11-3024","abschnitt":"042-051","erdung_typ":"Arbeitsbereichserdung","grund":"Zone de Trabajo","hinweis":"Temporaere Erdung nach Datenblatt Nr. 2 je Phase bei Arbeiten am Mast."},"geometry":{"type":"Point","coordinates":[8.81935132913939,50.174548393361185,0.0]}},{"type":"Feature","properties":{"name":"Erdung Mast 044","mast":"044","leitung":"LH-11-3024","abschnitt":"042-051","erdung_typ":"Induktionserdung","grund":"Parallelismus","hinweis":"Temporaere Erdung nach Datenblatt Nr. 2 je Phase bei Arbeiten am Mast."},"geometry":{"type":"Point","coordinates":[8.82744606659999,50.171107161526585,0.0]}},{"type":"Feature","properties":{"name":"Erdung Mast 047","mast":"047","leitung":"LH-11-3024","abschnitt":"042-051","erdung_typ":"Induktionserdung / Rollenerde","grund":"Kreuzung","hinweis":"Temporaere Erdung nach Datenblatt Nr. 2 je Phase bei Arbeiten am Mast."},"geometry":{"type":"Point","coordinates":[8.8404174940541,50.16559054756619,0.0]}},{"type":"Feature","properties":{"name":"Erdung Mast 048","mast":"048","leitung":"LH-11-3024","abschnitt":"042-051","erdung_typ":"Arbeitsbereichserdung","grund":"Zone de Trabajo","hinweis":"Temporaere Erdung nach Datenblatt Nr. 2 je Phase bei Arbeiten am Mast."},"geometry":{"type":"Point","coordinates":[8.84506325972439,50.1636141112997,0.0]}},{"type":"Feature","properties":{"name":"Erdung Mast 050","mast":"050","leitung":"LH-11-3024","abschnitt":"042-051","erdung_typ":"Induktionserdung / Rollenerde","grund":"Kreuzung","hinweis":"Temporaere Erdung nach Datenblatt Nr. 2 je Phase bei Arbeiten am Mast."},"geometry":{"type":"Point","coordinates":[8.85049247921114,50.1594811998882,0.0]}},{"type":"Feature","properties":{"name":"Erdung Mast 051","mast":"051","leitung":"LH-11-3024","abschnitt":"042-051","erdung_typ":"Arbeitsbereichserdung","grund":"Zone de Trabajo","hinweis":"Temporaere Erdung nach Datenblatt Nr. 2 je Phase bei Arbeiten am Mast."},"geometry":{"type":"Point","coordinates":[8.85361328554177,50.1571049958605,0.0]}}]}