{"type":"FeatureCollection","name":"gerueste","source":"G:\\Unidades compartidas\\DE\\02_Projekt Laufend\\11_Karben\\12 Engineering_Planung\\12.02 Bautechnik-Statik\\05. Zuwegungen\\01_Datos_Proyecto\\Arbeitsflaechen_Zusatz.gpkg","features":[{"type":"Feature","properties":{"fid":1,"surface_id":null,"mast_nr":"42","typ":null,"hoehe_m":null,"breite_m":null,"laenge_m":null,"status":null,"bemerkung":null,"quelle":null,"datum":null},"geometry":{"type":"MultiPolygon","coordinates":[[[[8.820005537064397,50.17405072802093],[8.82009604733016,50.1740153974833],[8.820697921210707,50.17418723254401],[8.820632479682919,50.174232276099644],[8.820005537064397,50.17405072802093]]]]}},{"type":"Feature","properties":{"fid":2,"surface_id":null,"mast_nr":"45","typ":null,"hoehe_m":null,"breite_m":null,"laenge_m":null,"status":null,"bemerkung":null,"quelle":null,"datum":null},"geometry":{"type":"MultiPolygon","coordinates":[[[[8.83148540932615,50.169579688749],[8.831461514725516,50.16923623253313],[8.831471669022617,50.16920400110963],[8.831403836303155,50.169220025755095],[8.831432614848683,50.16960218445613],[8.83148540932615,50.169579688749]]]]}}]}