{"type":"FeatureCollection","name":"leitung","source":"G:\\Unidades compartidas\\DE\\02_Projekt Laufend\\11_Karben\\12 Engineering_Planung\\12.02 Bautechnik-Statik\\05. Zuwegungen\\01_Datos_Proyecto\\Leitung.gpkg","features":[{"type":"Feature","properties":{"fid":1,"id":"kml_1","Name":"LH-11-3024","description":"<center><table><tr><th colspan='2' align='center'><em>Attributes</em></th></tr><tr bgcolor=\"#E3E3F3\">\n<th>U_TECHPLATZ</th>\n<td>LH-11-3024</td>\n</tr><tr bgcolor=\"\">\n<th>NAME_NUMMER</th>\n<td>Karben - Grosskrotzenburg</td>\n</tr></table></center>","timestamp":null,"begin":null,"end":null,"altitudeMode":null,"tessellate":1,"extrude":0,"visibility":-1,"drawOrder":null,"icon":null},"geometry":{"type":"MultiLineString","coordinates":[[[8.811051281202122,50.203370457199895,0.0],[8.81253545972348,50.20308570888479,0.0]],[[8.81253545972348,50.20308570888479,0.0],[8.81489838255972,50.1991764236462,0.0]],[[8.81489838255972,50.1991764236462,0.0],[8.81695466338549,50.19577428268779,0.0]],[[8.81695466338549,50.19577428268779,0.0],[8.81891151450991,50.1932978485361,0.0]],[[8.81891151450991,50.1932978485361,0.0],[8.82116053059485,50.1904513431216,0.0]],[[8.82116053059485,50.1904513431216,0.0],[8.82331249058718,50.1877274519228,0.0]],[[8.82331249058718,50.1877274519228,0.0],[8.82239374622409,50.1846715468589,0.0]],[[8.82239374622409,50.1846715468589,0.0],[8.8213655889454,50.18125109190739,0.0]],[[8.8213655889454,50.18125109190739,0.0],[8.82027397153924,50.177618988133794,0.0]],[[8.82027397153924,50.177618988133794,0.0],[8.81935132913939,50.174548393361185,0.0]],[[8.81935132913939,50.174548393361185,0.0],[8.82349382808528,50.17278753627011,0.0]],[[8.82349382808528,50.17278753627011,0.0],[8.82744606659999,50.171107161526585,0.0]],[[8.82744606659999,50.171107161526585,0.0],[8.83183118307605,50.169242528488994,0.0]],[[8.83183118307605,50.169242528488994,0.0],[8.83580246341961,50.16755362484031,0.0]],[[8.83580246341961,50.16755362484031,0.0],[8.8404174940541,50.16559054756619,0.0]],[[8.8404174940541,50.16559054756619,0.0],[8.84506325972439,50.1636141112997,0.0]],[[8.84506325972439,50.1636141112997,0.0],[8.8479210077907,50.161438823044506,0.0]],[[8.8479210077907,50.161438823044506,0.0],[8.85049247921114,50.1594811998882,0.0]],[[8.85049247921114,50.1594811998882,0.0],[8.85361328554177,50.1571049958605,0.0]],[[8.85361328554177,50.1571049958605,0.0],[8.854285411426043,50.15511279156559,0.0]],[[8.854285411426043,50.15511279156559,0.0],[8.85504642670051,50.15285727926301,0.0]],[[8.85504642670051,50.15285727926301,0.0],[8.85583024097579,50.15053373354871,0.0]],[[8.85583024097579,50.15053373354871,0.0],[8.85656697326915,50.14834965201359,0.0]],[[8.85656697326915,50.14834965201359,0.0],[8.861994576798672,50.1471495311733,0.0]],[[8.861994576798672,50.1471495311733,0.0],[8.86695966749838,50.146051388674884,0.0]],[[8.86695966749838,50.146051388674884,0.0],[8.87122755837428,50.14510725779859,0.0]],[[8.87122755837428,50.14510725779859,0.0],[8.86998381580311,50.14320102250719,0.0]],[[8.86998381580311,50.14320102250719,0.0],[8.86842729116911,50.14081505961039,0.0]],[[8.86842729116911,50.14081505961039,0.0],[8.86984603342327,50.1378131839917,0.0]],[[8.86984603342327,50.1378131839917,0.0],[8.87112350942626,50.1351097907912,0.0]],[[8.87112350942626,50.1351097907912,0.0],[8.8711946373747,50.13257191546289,0.0]],[[8.8711946373747,50.13257191546289,0.0],[8.87125201602071,50.13051806030459,0.0]],[[8.87125201602071,50.13051806030459,0.0],[8.87134231011963,50.1272916378462,0.0]],[[8.87134231011963,50.1272916378462,0.0],[8.87143490241612,50.12398529298259,0.0]],[[8.87143490241612,50.12398529298259,0.0],[8.87152703564184,50.120688565059005,0.0]],[[8.87152703564184,50.120688565059005,0.0],[8.87162624937861,50.11714362104469,0.0]],[[8.87162624937861,50.11714362104469,0.0],[8.87401869281876,50.113879424203276,0.0]],[[8.87401869281876,50.113879424203276,0.0],[8.87634880254897,50.110699709231405,0.0]],[[8.87634880254897,50.110699709231405,0.0],[8.87868603817786,50.107509884093,0.0]],[[8.87868603817786,50.107509884093,0.0],[8.88085620040018,50.10454774428289,0.0]],[[8.88085620040018,50.10454774428289,0.0],[8.88495046848953,50.10235947491299,0.0]],[[8.88495046848953,50.10235947491299,0.0],[8.88874866694011,50.10032909770139,0.0]],[[8.88874866694011,50.10032909770139,0.0],[8.89265317149452,50.0982416949354,0.0]],[[8.89265317149452,50.0982416949354,0.0],[8.89661302360709,50.09612436111961,0.0]],[[8.89661302360709,50.09612436111961,0.0],[8.89968826557111,50.095108889131,0.0]],[[8.89968826557111,50.095108889131,0.0],[8.90462832340967,50.0934775972216,0.0]],[[8.90462832340967,50.0934775972216,0.0],[8.90927635757654,50.09194233430829,0.0]],[[8.90927635757654,50.09194233430829,0.0],[8.91446730621813,50.0902273871392,0.0]],[[8.91446730621813,50.0902273871392,0.0],[8.91915056390325,50.089981058800504,0.0]],[[8.91915056390325,50.089981058800504,0.0],[8.92369430273924,50.0897419128303,0.0]],[[8.92369430273924,50.0897419128303,0.0],[8.92890334243617,50.0894675730255,0.0]],[[8.92890334243617,50.0894675730255,0.0],[8.93352999417959,50.08922359694401,0.0]],[[8.93352999417959,50.08922359694401,0.0],[8.93697272745686,50.088136859832,0.0]],[[8.93697272745686,50.088136859832,0.0],[8.94082990793522,50.08691906177859,0.0]],[[8.94082990793522,50.08691906177859,0.0],[8.94536593066594,50.0854866738588,0.0]],[[8.94536593066594,50.0854866738588,0.0],[8.952568941716281,50.08281400797081,0.0]],[[8.952568941716281,50.08281400797081,0.0],[8.95557012212227,50.08218468785449,0.0]],[[8.95557012212227,50.08218468785449,0.0],[8.95666969139289,50.081720206967084,0.0]],[[8.95557012212227,50.08218468785449,0.0],[8.95649600769442,50.0815833097039,0.0]],[[8.81104514147929,50.20354242949088,0.0],[8.81253545972348,50.20308570888479,0.0]],[[8.95557012212227,50.08218468785449,0.0],[8.95592308088219,50.08153275053309,0.0]]]}}]}