{"type":"FeatureCollection","name":"leitung_kmz","source":"G:\\Unidades compartidas\\DE\\02_Projekt Laufend\\11_Karben\\12 Engineering_Planung\\12.02 Bautechnik-Statik\\05. Zuwegungen\\server\\02_CAD\\Leitung.kmz","features":[{"type":"Feature","properties":{"name":"LH-11-3024","description":"<center><table><tr><th colspan='2' align='center'><em>Attributes</em></th></tr><tr bgcolor=\"#E3E3F3\">\n<th>U_TECHPLATZ</th>\n<td>LH-11-3024</td>\n</tr><tr bgcolor=\"\">\n<th>NAME_NUMMER</th>\n<td>Karben - Grosskrotzenburg</td>\n</tr></table></center>"},"geometry":{"type":"LineString","coordinates":[[8.81105128120212,50.2033704571999],[8.81253545972348,50.2030857088848]]}}]}