{"type":"FeatureCollection","name":"masten_kmz","source":"G:\\Unidades compartidas\\DE\\02_Projekt Laufend\\11_Karben\\12 Engineering_Planung\\12.02 Bautechnik-Statik\\05. Zuwegungen\\server\\02_CAD\\Tragwerk.kmz","features":[{"type":"Feature","properties":{"name":"034","description":"<center><table><tr><th colspan='2' align='center'><em>Attributes</em></th></tr><tr bgcolor=\"#E3E3F3\">\n<th>U_BEZ_TECHPLATZ</th>\n<td>034</td>\n</tr><tr bgcolor=\"\">\n<th>U_TECHPLATZ_REF</th>\n<td>LH-11-3024</td>\n</tr></table></center>"},"geometry":{"type":"Point","coordinates":[8.81489838255972,50.1991764236462]}},{"type":"Feature","properties":{"name":"035","description":"<center><table><tr><th colspan='2' align='center'><em>Attributes</em></th></tr><tr bgcolor=\"#E3E3F3\">\n<th>U_BEZ_TECHPLATZ</th>\n<td>035</td>\n</tr><tr bgcolor=\"\">\n<th>U_TECHPLATZ_REF</th>\n<td>LH-11-3024</td>\n</tr></table></center>"},"geometry":{"type":"Point","coordinates":[8.81695466338549,50.19577428268779]}},{"type":"Feature","properties":{"name":"036","description":"<center><table><tr><th colspan='2' align='center'><em>Attributes</em></th></tr><tr bgcolor=\"#E3E3F3\">\n<th>U_BEZ_TECHPLATZ</th>\n<td>036</td>\n</tr><tr bgcolor=\"\">\n<th>U_TECHPLATZ_REF</th>\n<td>LH-11-3024</td>\n</tr></table></center>"},"geometry":{"type":"Point","coordinates":[8.81891151450991,50.1932978485361]}},{"type":"Feature","properties":{"name":"037","description":"<center><table><tr><th colspan='2' align='center'><em>Attributes</em></th></tr><tr bgcolor=\"#E3E3F3\">\n<th>U_BEZ_TECHPLATZ</th>\n<td>037</td>\n</tr><tr bgcolor=\"\">\n<th>U_TECHPLATZ_REF</th>\n<td>LH-11-3024</td>\n</tr></table></center>"},"geometry":{"type":"Point","coordinates":[8.82116053059485,50.1904513431216]}},{"type":"Feature","properties":{"name":"038","description":"<center><table><tr><th colspan='2' align='center'><em>Attributes</em></th></tr><tr bgcolor=\"#E3E3F3\">\n<th>U_BEZ_TECHPLATZ</th>\n<td>038</td>\n</tr><tr bgcolor=\"\">\n<th>U_TECHPLATZ_REF</th>\n<td>LH-11-3024</td>\n</tr></table></center>"},"geometry":{"type":"Point","coordinates":[8.82331249058718,50.1877274519228]}},{"type":"Feature","properties":{"name":"039","description":"<center><table><tr><th colspan='2' align='center'><em>Attributes</em></th></tr><tr bgcolor=\"#E3E3F3\">\n<th>U_BEZ_TECHPLATZ</th>\n<td>039</td>\n</tr><tr bgcolor=\"\">\n<th>U_TECHPLATZ_REF</th>\n<td>LH-11-3024</td>\n</tr></table></center>"},"geometry":{"type":"Point","coordinates":[8.82239374622409,50.1846715468589]}},{"type":"Feature","properties":{"name":"040","description":"<center><table><tr><th colspan='2' align='center'><em>Attributes</em></th></tr><tr bgcolor=\"#E3E3F3\">\n<th>U_BEZ_TECHPLATZ</th>\n<td>040</td>\n</tr><tr bgcolor=\"\">\n<th>U_TECHPLATZ_REF</th>\n<td>LH-11-3024</td>\n</tr></table></center>"},"geometry":{"type":"Point","coordinates":[8.8213655889454,50.1812510919074]}},{"type":"Feature","properties":{"name":"041","description":"<center><table><tr><th colspan='2' align='center'><em>Attributes</em></th></tr><tr bgcolor=\"#E3E3F3\">\n<th>U_BEZ_TECHPLATZ</th>\n<td>041</td>\n</tr><tr bgcolor=\"\">\n<th>U_TECHPLATZ_REF</th>\n<td>LH-11-3024</td>\n</tr></table></center>"},"geometry":{"type":"Point","coordinates":[8.82027397153924,50.1776189881338]}},{"type":"Feature","properties":{"name":"042","description":"<center><table><tr><th colspan='2' align='center'><em>Attributes</em></th></tr><tr bgcolor=\"#E3E3F3\">\n<th>U_BEZ_TECHPLATZ</th>\n<td>042</td>\n</tr><tr bgcolor=\"\">\n<th>U_TECHPLATZ_REF</th>\n<td>LH-11-3024</td>\n</tr></table></center>"},"geometry":{"type":"Point","coordinates":[8.81935132913939,50.17454839336119]}},{"type":"Feature","properties":{"name":"043","description":"<center><table><tr><th colspan='2' align='center'><em>Attributes</em></th></tr><tr bgcolor=\"#E3E3F3\">\n<th>U_BEZ_TECHPLATZ</th>\n<td>043</td>\n</tr><tr bgcolor=\"\">\n<th>U_TECHPLATZ_REF</th>\n<td>LH-11-3024</td>\n</tr></table></center>"},"geometry":{"type":"Point","coordinates":[8.82349382808528,50.1727875362701]}},{"type":"Feature","properties":{"name":"044","description":"<center><table><tr><th colspan='2' align='center'><em>Attributes</em></th></tr><tr bgcolor=\"#E3E3F3\">\n<th>U_BEZ_TECHPLATZ</th>\n<td>044</td>\n</tr><tr bgcolor=\"\">\n<th>U_TECHPLATZ_REF</th>\n<td>LH-11-3024</td>\n</tr></table></center>"},"geometry":{"type":"Point","coordinates":[8.82744606659999,50.17110716152659]}},{"type":"Feature","properties":{"name":"045","description":"<center><table><tr><th colspan='2' align='center'><em>Attributes</em></th></tr><tr bgcolor=\"#E3E3F3\">\n<th>U_BEZ_TECHPLATZ</th>\n<td>045</td>\n</tr><tr bgcolor=\"\">\n<th>U_TECHPLATZ_REF</th>\n<td>LH-11-3024</td>\n</tr></table></center>"},"geometry":{"type":"Point","coordinates":[8.83183118307605,50.169242528489]}},{"type":"Feature","properties":{"name":"046","description":"<center><table><tr><th colspan='2' align='center'><em>Attributes</em></th></tr><tr bgcolor=\"#E3E3F3\">\n<th>U_BEZ_TECHPLATZ</th>\n<td>046</td>\n</tr><tr bgcolor=\"\">\n<th>U_TECHPLATZ_REF</th>\n<td>LH-11-3024</td>\n</tr></table></center>"},"geometry":{"type":"Point","coordinates":[8.83580246341961,50.1675536248403]}},{"type":"Feature","properties":{"name":"047","description":"<center><table><tr><th colspan='2' align='center'><em>Attributes</em></th></tr><tr bgcolor=\"#E3E3F3\">\n<th>U_BEZ_TECHPLATZ</th>\n<td>047</td>\n</tr><tr bgcolor=\"\">\n<th>U_TECHPLATZ_REF</th>\n<td>LH-11-3024</td>\n</tr></table></center>"},"geometry":{"type":"Point","coordinates":[8.8404174940541,50.16559054756619]}},{"type":"Feature","properties":{"name":"088","description":"<center><table><tr><th colspan='2' align='center'><em>Attributes</em></th></tr><tr bgcolor=\"#E3E3F3\">\n<th>U_BEZ_TECHPLATZ</th>\n<td>088</td>\n</tr><tr bgcolor=\"\">\n<th>U_TECHPLATZ_REF</th>\n<td>LH-11-3024</td>\n</tr></table></center>"},"geometry":{"type":"Point","coordinates":[8.95256894171628,50.08281400797081]}},{"type":"Feature","properties":{"name":"089","description":"<center><table><tr><th colspan='2' align='center'><em>Attributes</em></th></tr><tr bgcolor=\"#E3E3F3\">\n<th>U_BEZ_TECHPLATZ</th>\n<td>089</td>\n</tr><tr bgcolor=\"\">\n<th>U_TECHPLATZ_REF</th>\n<td>LH-11-3024</td>\n</tr></table></center>"},"geometry":{"type":"Point","coordinates":[8.95557012212227,50.0821846878545]}},{"type":"Feature","properties":{"name":"001","description":"<center><table><tr><th colspan='2' align='center'><em>Attributes</em></th></tr><tr bgcolor=\"#E3E3F3\">\n<th>U_BEZ_TECHPLATZ</th>\n<td>001</td>\n</tr><tr bgcolor=\"\">\n<th>U_TECHPLATZ_REF</th>\n<td>LH-11-3024</td>\n</tr></table></center>"},"geometry":{"type":"Point","coordinates":[8.81253545972348,50.2030857088848]}},{"type":"Feature","properties":{"name":"064","description":"<center><table><tr><th colspan='2' align='center'><em>Attributes</em></th></tr><tr bgcolor=\"#E3E3F3\">\n<th>U_BEZ_TECHPLATZ</th>\n<td>064</td>\n</tr><tr bgcolor=\"\">\n<th>U_TECHPLATZ_REF</th>\n<td>LH-11-3024</td>\n</tr></table></center>"},"geometry":{"type":"Point","coordinates":[8.87125201602071,50.1305180603046]}},{"type":"Feature","properties":{"name":"048","description":"<center><table><tr><th colspan='2' align='center'><em>Attributes</em></th></tr><tr bgcolor=\"#E3E3F3\">\n<th>U_BEZ_TECHPLATZ</th>\n<td>048</td>\n</tr><tr bgcolor=\"\">\n<th>U_TECHPLATZ_REF</th>\n<td>LH-11-3024</td>\n</tr></table></center>"},"geometry":{"type":"Point","coordinates":[8.84506325972439,50.1636141112997]}},{"type":"Feature","properties":{"name":"049","description":"<center><table><tr><th colspan='2' align='center'><em>Attributes</em></th></tr><tr bgcolor=\"#E3E3F3\">\n<th>U_BEZ_TECHPLATZ</th>\n<td>049</td>\n</tr><tr bgcolor=\"\">\n<th>U_TECHPLATZ_REF</th>\n<td>LH-11-3024</td>\n</tr></table></center>"},"geometry":{"type":"Point","coordinates":[8.8479210077907,50.1614388230445]}},{"type":"Feature","properties":{"name":"050","description":"<center><table><tr><th colspan='2' align='center'><em>Attributes</em></th></tr><tr bgcolor=\"#E3E3F3\">\n<th>U_BEZ_TECHPLATZ</th>\n<td>050</td>\n</tr><tr bgcolor=\"\">\n<th>U_TECHPLATZ_REF</th>\n<td>LH-11-3024</td>\n</tr></table></center>"},"geometry":{"type":"Point","coordinates":[8.85049247921114,50.1594811998882]}},{"type":"Feature","properties":{"name":"051","description":"<center><table><tr><th colspan='2' align='center'><em>Attributes</em></th></tr><tr bgcolor=\"#E3E3F3\">\n<th>U_BEZ_TECHPLATZ</th>\n<td>051</td>\n</tr><tr bgcolor=\"\">\n<th>U_TECHPLATZ_REF</th>\n<td>LH-11-3024</td>\n</tr></table></center>"},"geometry":{"type":"Point","coordinates":[8.85361328554177,50.1571049958605]}},{"type":"Feature","properties":{"name":"052","description":"<center><table><tr><th colspan='2' align='center'><em>Attributes</em></th></tr><tr bgcolor=\"#E3E3F3\">\n<th>U_BEZ_TECHPLATZ</th>\n<td>052</td>\n</tr><tr bgcolor=\"\">\n<th>U_TECHPLATZ_REF</th>\n<td>LH-11-3024</td>\n</tr></table></center>"},"geometry":{"type":"Point","coordinates":[8.85428541142604,50.15511279156559]}},{"type":"Feature","properties":{"name":"053","description":"<center><table><tr><th colspan='2' align='center'><em>Attributes</em></th></tr><tr bgcolor=\"#E3E3F3\">\n<th>U_BEZ_TECHPLATZ</th>\n<td>053</td>\n</tr><tr bgcolor=\"\">\n<th>U_TECHPLATZ_REF</th>\n<td>LH-11-3024</td>\n</tr></table></center>"},"geometry":{"type":"Point","coordinates":[8.85504642670051,50.15285727926301]}},{"type":"Feature","properties":{"name":"054","description":"<center><table><tr><th colspan='2' align='center'><em>Attributes</em></th></tr><tr bgcolor=\"#E3E3F3\">\n<th>U_BEZ_TECHPLATZ</th>\n<td>054</td>\n</tr><tr bgcolor=\"\">\n<th>U_TECHPLATZ_REF</th>\n<td>LH-11-3024</td>\n</tr></table></center>"},"geometry":{"type":"Point","coordinates":[8.85583024097579,50.15053373354871]}},{"type":"Feature","properties":{"name":"055","description":"<center><table><tr><th colspan='2' align='center'><em>Attributes</em></th></tr><tr bgcolor=\"#E3E3F3\">\n<th>U_BEZ_TECHPLATZ</th>\n<td>055</td>\n</tr><tr bgcolor=\"\">\n<th>U_TECHPLATZ_REF</th>\n<td>LH-11-3024</td>\n</tr></table></center>"},"geometry":{"type":"Point","coordinates":[8.85656697326915,50.14834965201359]}},{"type":"Feature","properties":{"name":"056","description":"<center><table><tr><th colspan='2' align='center'><em>Attributes</em></th></tr><tr bgcolor=\"#E3E3F3\">\n<th>U_BEZ_TECHPLATZ</th>\n<td>056</td>\n</tr><tr bgcolor=\"\">\n<th>U_TECHPLATZ_REF</th>\n<td>LH-11-3024</td>\n</tr></table></center>"},"geometry":{"type":"Point","coordinates":[8.86199457679867,50.1471495311733]}},{"type":"Feature","properties":{"name":"057","description":"<center><table><tr><th colspan='2' align='center'><em>Attributes</em></th></tr><tr bgcolor=\"#E3E3F3\">\n<th>U_BEZ_TECHPLATZ</th>\n<td>057</td>\n</tr><tr bgcolor=\"\">\n<th>U_TECHPLATZ_REF</th>\n<td>LH-11-3024</td>\n</tr></table></center>"},"geometry":{"type":"Point","coordinates":[8.86695966749838,50.14605138867489]}},{"type":"Feature","properties":{"name":"058","description":"<center><table><tr><th colspan='2' align='center'><em>Attributes</em></th></tr><tr bgcolor=\"#E3E3F3\">\n<th>U_BEZ_TECHPLATZ</th>\n<td>058</td>\n</tr><tr bgcolor=\"\">\n<th>U_TECHPLATZ_REF</th>\n<td>LH-11-3024</td>\n</tr></table></center>"},"geometry":{"type":"Point","coordinates":[8.87122755837428,50.14510725779859]}},{"type":"Feature","properties":{"name":"059","description":"<center><table><tr><th colspan='2' align='center'><em>Attributes</em></th></tr><tr bgcolor=\"#E3E3F3\">\n<th>U_BEZ_TECHPLATZ</th>\n<td>059</td>\n</tr><tr bgcolor=\"\">\n<th>U_TECHPLATZ_REF</th>\n<td>LH-11-3024</td>\n</tr></table></center>"},"geometry":{"type":"Point","coordinates":[8.86998381580311,50.1432010225072]}},{"type":"Feature","properties":{"name":"060","description":"<center><table><tr><th colspan='2' align='center'><em>Attributes</em></th></tr><tr bgcolor=\"#E3E3F3\">\n<th>U_BEZ_TECHPLATZ</th>\n<td>060</td>\n</tr><tr bgcolor=\"\">\n<th>U_TECHPLATZ_REF</th>\n<td>LH-11-3024</td>\n</tr></table></center>"},"geometry":{"type":"Point","coordinates":[8.86842729116911,50.1408150596104]}},{"type":"Feature","properties":{"name":"061","description":"<center><table><tr><th colspan='2' align='center'><em>Attributes</em></th></tr><tr bgcolor=\"#E3E3F3\">\n<th>U_BEZ_TECHPLATZ</th>\n<td>061</td>\n</tr><tr bgcolor=\"\">\n<th>U_TECHPLATZ_REF</th>\n<td>LH-11-3024</td>\n</tr></table></center>"},"geometry":{"type":"Point","coordinates":[8.86984603342327,50.1378131839917]}},{"type":"Feature","properties":{"name":"062","description":"<center><table><tr><th colspan='2' align='center'><em>Attributes</em></th></tr><tr bgcolor=\"#E3E3F3\">\n<th>U_BEZ_TECHPLATZ</th>\n<td>062</td>\n</tr><tr bgcolor=\"\">\n<th>U_TECHPLATZ_REF</th>\n<td>LH-11-3024</td>\n</tr></table></center>"},"geometry":{"type":"Point","coordinates":[8.87112350942626,50.1351097907912]}},{"type":"Feature","properties":{"name":"063","description":"<center><table><tr><th colspan='2' align='center'><em>Attributes</em></th></tr><tr bgcolor=\"#E3E3F3\">\n<th>U_BEZ_TECHPLATZ</th>\n<td>063</td>\n</tr><tr bgcolor=\"\">\n<th>U_TECHPLATZ_REF</th>\n<td>LH-11-3024</td>\n</tr></table></center>"},"geometry":{"type":"Point","coordinates":[8.8711946373747,50.1325719154629]}},{"type":"Feature","properties":{"name":"065","description":"<center><table><tr><th colspan='2' align='center'><em>Attributes</em></th></tr><tr bgcolor=\"#E3E3F3\">\n<th>U_BEZ_TECHPLATZ</th>\n<td>065</td>\n</tr><tr bgcolor=\"\">\n<th>U_TECHPLATZ_REF</th>\n<td>LH-11-3024</td>\n</tr></table></center>"},"geometry":{"type":"Point","coordinates":[8.87134231011963,50.1272916378462]}},{"type":"Feature","properties":{"name":"066","description":"<center><table><tr><th colspan='2' align='center'><em>Attributes</em></th></tr><tr bgcolor=\"#E3E3F3\">\n<th>U_BEZ_TECHPLATZ</th>\n<td>066</td>\n</tr><tr bgcolor=\"\">\n<th>U_TECHPLATZ_REF</th>\n<td>LH-11-3024</td>\n</tr></table></center>"},"geometry":{"type":"Point","coordinates":[8.87143490241612,50.1239852929826]}},{"type":"Feature","properties":{"name":"067","description":"<center><table><tr><th colspan='2' align='center'><em>Attributes</em></th></tr><tr bgcolor=\"#E3E3F3\">\n<th>U_BEZ_TECHPLATZ</th>\n<td>067</td>\n</tr><tr bgcolor=\"\">\n<th>U_TECHPLATZ_REF</th>\n<td>LH-11-3024</td>\n</tr></table></center>"},"geometry":{"type":"Point","coordinates":[8.87152703564184,50.120688565059]}},{"type":"Feature","properties":{"name":"068","description":"<center><table><tr><th colspan='2' align='center'><em>Attributes</em></th></tr><tr bgcolor=\"#E3E3F3\">\n<th>U_BEZ_TECHPLATZ</th>\n<td>068</td>\n</tr><tr bgcolor=\"\">\n<th>U_TECHPLATZ_REF</th>\n<td>LH-11-3024</td>\n</tr></table></center>"},"geometry":{"type":"Point","coordinates":[8.87162624937861,50.1171436210447]}},{"type":"Feature","properties":{"name":"069","description":"<center><table><tr><th colspan='2' align='center'><em>Attributes</em></th></tr><tr bgcolor=\"#E3E3F3\">\n<th>U_BEZ_TECHPLATZ</th>\n<td>069</td>\n</tr><tr bgcolor=\"\">\n<th>U_TECHPLATZ_REF</th>\n<td>LH-11-3024</td>\n</tr></table></center>"},"geometry":{"type":"Point","coordinates":[8.87401869281876,50.11387942420329]}},{"type":"Feature","properties":{"name":"070","description":"<center><table><tr><th colspan='2' align='center'><em>Attributes</em></th></tr><tr bgcolor=\"#E3E3F3\">\n<th>U_BEZ_TECHPLATZ</th>\n<td>070</td>\n</tr><tr bgcolor=\"\">\n<th>U_TECHPLATZ_REF</th>\n<td>LH-11-3024</td>\n</tr></table></center>"},"geometry":{"type":"Point","coordinates":[8.87634880254897,50.1106997092314]}},{"type":"Feature","properties":{"name":"071","description":"<center><table><tr><th colspan='2' align='center'><em>Attributes</em></th></tr><tr bgcolor=\"#E3E3F3\">\n<th>U_BEZ_TECHPLATZ</th>\n<td>071</td>\n</tr><tr bgcolor=\"\">\n<th>U_TECHPLATZ_REF</th>\n<td>LH-11-3024</td>\n</tr></table></center>"},"geometry":{"type":"Point","coordinates":[8.87868603817786,50.107509884093]}},{"type":"Feature","properties":{"name":"072","description":"<center><table><tr><th colspan='2' align='center'><em>Attributes</em></th></tr><tr bgcolor=\"#E3E3F3\">\n<th>U_BEZ_TECHPLATZ</th>\n<td>072</td>\n</tr><tr bgcolor=\"\">\n<th>U_TECHPLATZ_REF</th>\n<td>LH-11-3024</td>\n</tr></table></center>"},"geometry":{"type":"Point","coordinates":[8.88085620040018,50.1045477442829]}},{"type":"Feature","properties":{"name":"073","description":"<center><table><tr><th colspan='2' align='center'><em>Attributes</em></th></tr><tr bgcolor=\"#E3E3F3\">\n<th>U_BEZ_TECHPLATZ</th>\n<td>073</td>\n</tr><tr bgcolor=\"\">\n<th>U_TECHPLATZ_REF</th>\n<td>LH-11-3024</td>\n</tr></table></center>"},"geometry":{"type":"Point","coordinates":[8.88495046848953,50.10235947491299]}},{"type":"Feature","properties":{"name":"074","description":"<center><table><tr><th colspan='2' align='center'><em>Attributes</em></th></tr><tr bgcolor=\"#E3E3F3\">\n<th>U_BEZ_TECHPLATZ</th>\n<td>074</td>\n</tr><tr bgcolor=\"\">\n<th>U_TECHPLATZ_REF</th>\n<td>LH-11-3024</td>\n</tr></table></center>"},"geometry":{"type":"Point","coordinates":[8.88874866694011,50.1003290977014]}},{"type":"Feature","properties":{"name":"075","description":"<center><table><tr><th colspan='2' align='center'><em>Attributes</em></th></tr><tr bgcolor=\"#E3E3F3\">\n<th>U_BEZ_TECHPLATZ</th>\n<td>075</td>\n</tr><tr bgcolor=\"\">\n<th>U_TECHPLATZ_REF</th>\n<td>LH-11-3024</td>\n</tr></table></center>"},"geometry":{"type":"Point","coordinates":[8.89265317149452,50.0982416949354]}},{"type":"Feature","properties":{"name":"076","description":"<center><table><tr><th colspan='2' align='center'><em>Attributes</em></th></tr><tr bgcolor=\"#E3E3F3\">\n<th>U_BEZ_TECHPLATZ</th>\n<td>076</td>\n</tr><tr bgcolor=\"\">\n<th>U_TECHPLATZ_REF</th>\n<td>LH-11-3024</td>\n</tr></table></center>"},"geometry":{"type":"Point","coordinates":[8.89661302360709,50.09612436111961]}},{"type":"Feature","properties":{"name":"077","description":"<center><table><tr><th colspan='2' align='center'><em>Attributes</em></th></tr><tr bgcolor=\"#E3E3F3\">\n<th>U_BEZ_TECHPLATZ</th>\n<td>077</td>\n</tr><tr bgcolor=\"\">\n<th>U_TECHPLATZ_REF</th>\n<td>LH-11-3024</td>\n</tr></table></center>"},"geometry":{"type":"Point","coordinates":[8.89968826557111,50.095108889131]}},{"type":"Feature","properties":{"name":"078","description":"<center><table><tr><th colspan='2' align='center'><em>Attributes</em></th></tr><tr bgcolor=\"#E3E3F3\">\n<th>U_BEZ_TECHPLATZ</th>\n<td>078</td>\n</tr><tr bgcolor=\"\">\n<th>U_TECHPLATZ_REF</th>\n<td>LH-11-3024</td>\n</tr></table></center>"},"geometry":{"type":"Point","coordinates":[8.90462832340967,50.0934775972216]}},{"type":"Feature","properties":{"name":"079","description":"<center><table><tr><th colspan='2' align='center'><em>Attributes</em></th></tr><tr bgcolor=\"#E3E3F3\">\n<th>U_BEZ_TECHPLATZ</th>\n<td>079</td>\n</tr><tr bgcolor=\"\">\n<th>U_TECHPLATZ_REF</th>\n<td>LH-11-3024</td>\n</tr></table></center>"},"geometry":{"type":"Point","coordinates":[8.90927635757654,50.09194233430831]}},{"type":"Feature","properties":{"name":"080","description":"<center><table><tr><th colspan='2' align='center'><em>Attributes</em></th></tr><tr bgcolor=\"#E3E3F3\">\n<th>U_BEZ_TECHPLATZ</th>\n<td>080</td>\n</tr><tr bgcolor=\"\">\n<th>U_TECHPLATZ_REF</th>\n<td>LH-11-3024</td>\n</tr></table></center>"},"geometry":{"type":"Point","coordinates":[8.91446730621813,50.0902273871392]}},{"type":"Feature","properties":{"name":"081","description":"<center><table><tr><th colspan='2' align='center'><em>Attributes</em></th></tr><tr bgcolor=\"#E3E3F3\">\n<th>U_BEZ_TECHPLATZ</th>\n<td>081</td>\n</tr><tr bgcolor=\"\">\n<th>U_TECHPLATZ_REF</th>\n<td>LH-11-3024</td>\n</tr></table></center>"},"geometry":{"type":"Point","coordinates":[8.91915056390325,50.0899810588005]}},{"type":"Feature","properties":{"name":"082","description":"<center><table><tr><th colspan='2' align='center'><em>Attributes</em></th></tr><tr bgcolor=\"#E3E3F3\">\n<th>U_BEZ_TECHPLATZ</th>\n<td>082</td>\n</tr><tr bgcolor=\"\">\n<th>U_TECHPLATZ_REF</th>\n<td>LH-11-3024</td>\n</tr></table></center>"},"geometry":{"type":"Point","coordinates":[8.92369430273924,50.0897419128303]}},{"type":"Feature","properties":{"name":"083","description":"<center><table><tr><th colspan='2' align='center'><em>Attributes</em></th></tr><tr bgcolor=\"#E3E3F3\">\n<th>U_BEZ_TECHPLATZ</th>\n<td>083</td>\n</tr><tr bgcolor=\"\">\n<th>U_TECHPLATZ_REF</th>\n<td>LH-11-3024</td>\n</tr></table></center>"},"geometry":{"type":"Point","coordinates":[8.92890334243617,50.0894675730255]}},{"type":"Feature","properties":{"name":"084","description":"<center><table><tr><th colspan='2' align='center'><em>Attributes</em></th></tr><tr bgcolor=\"#E3E3F3\">\n<th>U_BEZ_TECHPLATZ</th>\n<td>084</td>\n</tr><tr bgcolor=\"\">\n<th>U_TECHPLATZ_REF</th>\n<td>LH-11-3024</td>\n</tr></table></center>"},"geometry":{"type":"Point","coordinates":[8.93352999417959,50.08922359694401]}},{"type":"Feature","properties":{"name":"085","description":"<center><table><tr><th colspan='2' align='center'><em>Attributes</em></th></tr><tr bgcolor=\"#E3E3F3\">\n<th>U_BEZ_TECHPLATZ</th>\n<td>085</td>\n</tr><tr bgcolor=\"\">\n<th>U_TECHPLATZ_REF</th>\n<td>LH-11-3024</td>\n</tr></table></center>"},"geometry":{"type":"Point","coordinates":[8.93697272745686,50.088136859832]}},{"type":"Feature","properties":{"name":"086","description":"<center><table><tr><th colspan='2' align='center'><em>Attributes</em></th></tr><tr bgcolor=\"#E3E3F3\">\n<th>U_BEZ_TECHPLATZ</th>\n<td>086</td>\n</tr><tr bgcolor=\"\">\n<th>U_TECHPLATZ_REF</th>\n<td>LH-11-3024</td>\n</tr></table></center>"},"geometry":{"type":"Point","coordinates":[8.94082990793522,50.08691906177859]}},{"type":"Feature","properties":{"name":"087","description":"<center><table><tr><th colspan='2' align='center'><em>Attributes</em></th></tr><tr bgcolor=\"#E3E3F3\">\n<th>U_BEZ_TECHPLATZ</th>\n<td>087</td>\n</tr><tr bgcolor=\"\">\n<th>U_TECHPLATZ_REF</th>\n<td>LH-11-3024</td>\n</tr></table></center>"},"geometry":{"type":"Point","coordinates":[8.94536593066594,50.0854866738588]}},{"type":"Feature","properties":{"name":"GKRO C22","description":"<center><table><tr><th colspan='2' align='center'><em>Attributes</em></th></tr><tr bgcolor=\"#E3E3F3\">\n<th>U_BEZ_TECHPLATZ</th>\n<td>GKRO C22</td>\n</tr><tr bgcolor=\"\">\n<th>U_TECHPLATZ_REF</th>\n<td>LH-11-3024</td>\n</tr></table></center>"},"geometry":{"type":"Point","coordinates":[8.95666969139289,50.0817202069671]}},{"type":"Feature","properties":{"name":"GKRO C23","description":"<center><table><tr><th colspan='2' align='center'><em>Attributes</em></th></tr><tr bgcolor=\"#E3E3F3\">\n<th>U_BEZ_TECHPLATZ</th>\n<td>GKRO C23</td>\n</tr><tr bgcolor=\"\">\n<th>U_TECHPLATZ_REF</th>\n<td>LH-11-3024</td>\n</tr></table></center>"},"geometry":{"type":"Point","coordinates":[8.95649600769442,50.0815833097039]}},{"type":"Feature","properties":{"name":"62","description":"<center><table><tr><th colspan='2' align='center'><em>Attributes</em></th></tr><tr bgcolor=\"#E3E3F3\">\n<th>U_BEZ_TECHPLATZ</th>\n<td>62</td>\n</tr><tr bgcolor=\"\">\n<th>U_TECHPLATZ_REF</th>\n<td>LH-11-AMPRION1</td>\n</tr></table></center>"},"geometry":{"type":"Point","coordinates":[8.95592308088219,50.0815327505331]}},{"type":"Feature","properties":{"name":"KARB C02","description":"<center><table><tr><th colspan='2' align='center'><em>Attributes</em></th></tr><tr bgcolor=\"#E3E3F3\">\n<th>U_BEZ_TECHPLATZ</th>\n<td>KARB C02</td>\n</tr><tr bgcolor=\"\">\n<th>U_TECHPLATZ_REF</th>\n<td>LH-11-3024</td>\n</tr></table></center>"},"geometry":{"type":"Point","coordinates":[8.81105128120212,50.2033704571999]}},{"type":"Feature","properties":{"name":"KARB C04","description":"<center><table><tr><th colspan='2' align='center'><em>Attributes</em></th></tr><tr bgcolor=\"#E3E3F3\">\n<th>U_BEZ_TECHPLATZ</th>\n<td>KARB C04</td>\n</tr><tr bgcolor=\"\">\n<th>U_TECHPLATZ_REF</th>\n<td>LH-11-3024</td>\n</tr></table></center>"},"geometry":{"type":"Point","coordinates":[8.81104514147929,50.20354242949089]}}]}