{"type":"FeatureCollection","name":"masten","source":"G:\\Unidades compartidas\\DE\\02_Projekt Laufend\\11_Karben\\12 Engineering_Planung\\12.02 Bautechnik-Statik\\05. Zuwegungen\\01_Datos_Proyecto\\TORRES.gpkg","features":[{"type":"Feature","properties":{"fid":1,"id":"kml_2","Name":"034","description":"<center><table><tr><th colspan='2' align='center'><em>Attributes</em></th></tr><tr bgcolor=\"#E3E3F3\">\n<th>U_BEZ_TECHPLATZ</th>\n<td>034</td>\n</tr><tr bgcolor=\"\">\n<th>U_TECHPLATZ_REF</th>\n<td>LH-11-3024</td>\n</tr></table></center>","timestamp":null,"begin":null,"end":null,"altitudeMode":null,"tessellate":-1,"extrude":0,"visibility":-1,"drawOrder":null,"icon":null},"geometry":{"type":"Point","coordinates":[8.81489838255972,50.1991764236462,0.0]}},{"type":"Feature","properties":{"fid":2,"id":"kml_3","Name":"035","description":"<center><table><tr><th colspan='2' align='center'><em>Attributes</em></th></tr><tr bgcolor=\"#E3E3F3\">\n<th>U_BEZ_TECHPLATZ</th>\n<td>035</td>\n</tr><tr bgcolor=\"\">\n<th>U_TECHPLATZ_REF</th>\n<td>LH-11-3024</td>\n</tr></table></center>","timestamp":null,"begin":null,"end":null,"altitudeMode":null,"tessellate":-1,"extrude":0,"visibility":-1,"drawOrder":null,"icon":null},"geometry":{"type":"Point","coordinates":[8.81695466338549,50.19577428268779,0.0]}},{"type":"Feature","properties":{"fid":3,"id":"kml_4","Name":"036","description":"<center><table><tr><th colspan='2' align='center'><em>Attributes</em></th></tr><tr bgcolor=\"#E3E3F3\">\n<th>U_BEZ_TECHPLATZ</th>\n<td>036</td>\n</tr><tr bgcolor=\"\">\n<th>U_TECHPLATZ_REF</th>\n<td>LH-11-3024</td>\n</tr></table></center>","timestamp":null,"begin":null,"end":null,"altitudeMode":null,"tessellate":-1,"extrude":0,"visibility":-1,"drawOrder":null,"icon":null},"geometry":{"type":"Point","coordinates":[8.81891151450991,50.1932978485361,0.0]}},{"type":"Feature","properties":{"fid":4,"id":"kml_5","Name":"037","description":"<center><table><tr><th colspan='2' align='center'><em>Attributes</em></th></tr><tr bgcolor=\"#E3E3F3\">\n<th>U_BEZ_TECHPLATZ</th>\n<td>037</td>\n</tr><tr bgcolor=\"\">\n<th>U_TECHPLATZ_REF</th>\n<td>LH-11-3024</td>\n</tr></table></center>","timestamp":null,"begin":null,"end":null,"altitudeMode":null,"tessellate":-1,"extrude":0,"visibility":-1,"drawOrder":null,"icon":null},"geometry":{"type":"Point","coordinates":[8.82116053059485,50.1904513431216,0.0]}},{"type":"Feature","properties":{"fid":5,"id":"kml_6","Name":"038","description":"<center><table><tr><th colspan='2' align='center'><em>Attributes</em></th></tr><tr bgcolor=\"#E3E3F3\">\n<th>U_BEZ_TECHPLATZ</th>\n<td>038</td>\n</tr><tr bgcolor=\"\">\n<th>U_TECHPLATZ_REF</th>\n<td>LH-11-3024</td>\n</tr></table></center>","timestamp":null,"begin":null,"end":null,"altitudeMode":null,"tessellate":-1,"extrude":0,"visibility":-1,"drawOrder":null,"icon":null},"geometry":{"type":"Point","coordinates":[8.82331249058718,50.1877274519228,0.0]}},{"type":"Feature","properties":{"fid":6,"id":"kml_7","Name":"039","description":"<center><table><tr><th colspan='2' align='center'><em>Attributes</em></th></tr><tr bgcolor=\"#E3E3F3\">\n<th>U_BEZ_TECHPLATZ</th>\n<td>039</td>\n</tr><tr bgcolor=\"\">\n<th>U_TECHPLATZ_REF</th>\n<td>LH-11-3024</td>\n</tr></table></center>","timestamp":null,"begin":null,"end":null,"altitudeMode":null,"tessellate":-1,"extrude":0,"visibility":-1,"drawOrder":null,"icon":null},"geometry":{"type":"Point","coordinates":[8.82239374622409,50.1846715468589,0.0]}},{"type":"Feature","properties":{"fid":7,"id":"kml_8","Name":"040","description":"<center><table><tr><th colspan='2' align='center'><em>Attributes</em></th></tr><tr bgcolor=\"#E3E3F3\">\n<th>U_BEZ_TECHPLATZ</th>\n<td>040</td>\n</tr><tr bgcolor=\"\">\n<th>U_TECHPLATZ_REF</th>\n<td>LH-11-3024</td>\n</tr></table></center>","timestamp":null,"begin":null,"end":null,"altitudeMode":null,"tessellate":-1,"extrude":0,"visibility":-1,"drawOrder":null,"icon":null},"geometry":{"type":"Point","coordinates":[8.8213655889454,50.18125109190739,0.0]}},{"type":"Feature","properties":{"fid":8,"id":"kml_9","Name":"041","description":"<center><table><tr><th colspan='2' align='center'><em>Attributes</em></th></tr><tr bgcolor=\"#E3E3F3\">\n<th>U_BEZ_TECHPLATZ</th>\n<td>041</td>\n</tr><tr bgcolor=\"\">\n<th>U_TECHPLATZ_REF</th>\n<td>LH-11-3024</td>\n</tr></table></center>","timestamp":null,"begin":null,"end":null,"altitudeMode":null,"tessellate":-1,"extrude":0,"visibility":-1,"drawOrder":null,"icon":null},"geometry":{"type":"Point","coordinates":[8.82027397153924,50.177618988133794,0.0]}},{"type":"Feature","properties":{"fid":9,"id":"kml_10","Name":"042","description":"<center><table><tr><th colspan='2' align='center'><em>Attributes</em></th></tr><tr bgcolor=\"#E3E3F3\">\n<th>U_BEZ_TECHPLATZ</th>\n<td>042</td>\n</tr><tr bgcolor=\"\">\n<th>U_TECHPLATZ_REF</th>\n<td>LH-11-3024</td>\n</tr></table></center>","timestamp":null,"begin":null,"end":null,"altitudeMode":null,"tessellate":-1,"extrude":0,"visibility":-1,"drawOrder":null,"icon":null},"geometry":{"type":"Point","coordinates":[8.81935132913939,50.174548393361185,0.0]}},{"type":"Feature","properties":{"fid":10,"id":"kml_11","Name":"043","description":"<center><table><tr><th colspan='2' align='center'><em>Attributes</em></th></tr><tr bgcolor=\"#E3E3F3\">\n<th>U_BEZ_TECHPLATZ</th>\n<td>043</td>\n</tr><tr bgcolor=\"\">\n<th>U_TECHPLATZ_REF</th>\n<td>LH-11-3024</td>\n</tr></table></center>","timestamp":null,"begin":null,"end":null,"altitudeMode":null,"tessellate":-1,"extrude":0,"visibility":-1,"drawOrder":null,"icon":null},"geometry":{"type":"Point","coordinates":[8.82349382808528,50.17278753627011,0.0]}},{"type":"Feature","properties":{"fid":11,"id":"kml_12","Name":"044","description":"<center><table><tr><th colspan='2' align='center'><em>Attributes</em></th></tr><tr bgcolor=\"#E3E3F3\">\n<th>U_BEZ_TECHPLATZ</th>\n<td>044</td>\n</tr><tr bgcolor=\"\">\n<th>U_TECHPLATZ_REF</th>\n<td>LH-11-3024</td>\n</tr></table></center>","timestamp":null,"begin":null,"end":null,"altitudeMode":null,"tessellate":-1,"extrude":0,"visibility":-1,"drawOrder":null,"icon":null},"geometry":{"type":"Point","coordinates":[8.82744606659999,50.171107161526585,0.0]}},{"type":"Feature","properties":{"fid":12,"id":"kml_13","Name":"045","description":"<center><table><tr><th colspan='2' align='center'><em>Attributes</em></th></tr><tr bgcolor=\"#E3E3F3\">\n<th>U_BEZ_TECHPLATZ</th>\n<td>045</td>\n</tr><tr bgcolor=\"\">\n<th>U_TECHPLATZ_REF</th>\n<td>LH-11-3024</td>\n</tr></table></center>","timestamp":null,"begin":null,"end":null,"altitudeMode":null,"tessellate":-1,"extrude":0,"visibility":-1,"drawOrder":null,"icon":null},"geometry":{"type":"Point","coordinates":[8.83183118307605,50.169242528488994,0.0]}},{"type":"Feature","properties":{"fid":13,"id":"kml_14","Name":"046","description":"<center><table><tr><th colspan='2' align='center'><em>Attributes</em></th></tr><tr bgcolor=\"#E3E3F3\">\n<th>U_BEZ_TECHPLATZ</th>\n<td>046</td>\n</tr><tr bgcolor=\"\">\n<th>U_TECHPLATZ_REF</th>\n<td>LH-11-3024</td>\n</tr></table></center>","timestamp":null,"begin":null,"end":null,"altitudeMode":null,"tessellate":-1,"extrude":0,"visibility":-1,"drawOrder":null,"icon":null},"geometry":{"type":"Point","coordinates":[8.83580246341961,50.16755362484031,0.0]}},{"type":"Feature","properties":{"fid":14,"id":"kml_15","Name":"047","description":"<center><table><tr><th colspan='2' align='center'><em>Attributes</em></th></tr><tr bgcolor=\"#E3E3F3\">\n<th>U_BEZ_TECHPLATZ</th>\n<td>047</td>\n</tr><tr bgcolor=\"\">\n<th>U_TECHPLATZ_REF</th>\n<td>LH-11-3024</td>\n</tr></table></center>","timestamp":null,"begin":null,"end":null,"altitudeMode":null,"tessellate":-1,"extrude":0,"visibility":-1,"drawOrder":null,"icon":null},"geometry":{"type":"Point","coordinates":[8.8404174940541,50.16559054756619,0.0]}},{"type":"Feature","properties":{"fid":15,"id":"kml_16","Name":"088","description":"<center><table><tr><th colspan='2' align='center'><em>Attributes</em></th></tr><tr bgcolor=\"#E3E3F3\">\n<th>U_BEZ_TECHPLATZ</th>\n<td>088</td>\n</tr><tr bgcolor=\"\">\n<th>U_TECHPLATZ_REF</th>\n<td>LH-11-3024</td>\n</tr></table></center>","timestamp":null,"begin":null,"end":null,"altitudeMode":null,"tessellate":-1,"extrude":0,"visibility":-1,"drawOrder":null,"icon":null},"geometry":{"type":"Point","coordinates":[8.952568941716281,50.08281400797081,0.0]}},{"type":"Feature","properties":{"fid":16,"id":"kml_17","Name":"089","description":"<center><table><tr><th colspan='2' align='center'><em>Attributes</em></th></tr><tr bgcolor=\"#E3E3F3\">\n<th>U_BEZ_TECHPLATZ</th>\n<td>089</td>\n</tr><tr bgcolor=\"\">\n<th>U_TECHPLATZ_REF</th>\n<td>LH-11-3024</td>\n</tr></table></center>","timestamp":null,"begin":null,"end":null,"altitudeMode":null,"tessellate":-1,"extrude":0,"visibility":-1,"drawOrder":null,"icon":null},"geometry":{"type":"Point","coordinates":[8.95557012212227,50.08218468785449,0.0]}},{"type":"Feature","properties":{"fid":17,"id":"kml_18","Name":"001","description":"<center><table><tr><th colspan='2' align='center'><em>Attributes</em></th></tr><tr bgcolor=\"#E3E3F3\">\n<th>U_BEZ_TECHPLATZ</th>\n<td>001</td>\n</tr><tr bgcolor=\"\">\n<th>U_TECHPLATZ_REF</th>\n<td>LH-11-3024</td>\n</tr></table></center>","timestamp":null,"begin":null,"end":null,"altitudeMode":null,"tessellate":-1,"extrude":0,"visibility":-1,"drawOrder":null,"icon":null},"geometry":{"type":"Point","coordinates":[8.81253545972348,50.20308570888479,0.0]}},{"type":"Feature","properties":{"fid":18,"id":"kml_19","Name":"064","description":"<center><table><tr><th colspan='2' align='center'><em>Attributes</em></th></tr><tr bgcolor=\"#E3E3F3\">\n<th>U_BEZ_TECHPLATZ</th>\n<td>064</td>\n</tr><tr bgcolor=\"\">\n<th>U_TECHPLATZ_REF</th>\n<td>LH-11-3024</td>\n</tr></table></center>","timestamp":null,"begin":null,"end":null,"altitudeMode":null,"tessellate":-1,"extrude":0,"visibility":-1,"drawOrder":null,"icon":null},"geometry":{"type":"Point","coordinates":[8.87125201602071,50.13051806030459,0.0]}},{"type":"Feature","properties":{"fid":19,"id":"kml_20","Name":"048","description":"<center><table><tr><th colspan='2' align='center'><em>Attributes</em></th></tr><tr bgcolor=\"#E3E3F3\">\n<th>U_BEZ_TECHPLATZ</th>\n<td>048</td>\n</tr><tr bgcolor=\"\">\n<th>U_TECHPLATZ_REF</th>\n<td>LH-11-3024</td>\n</tr></table></center>","timestamp":null,"begin":null,"end":null,"altitudeMode":null,"tessellate":-1,"extrude":0,"visibility":-1,"drawOrder":null,"icon":null},"geometry":{"type":"Point","coordinates":[8.84506325972439,50.1636141112997,0.0]}},{"type":"Feature","properties":{"fid":20,"id":"kml_21","Name":"049","description":"<center><table><tr><th colspan='2' align='center'><em>Attributes</em></th></tr><tr bgcolor=\"#E3E3F3\">\n<th>U_BEZ_TECHPLATZ</th>\n<td>049</td>\n</tr><tr bgcolor=\"\">\n<th>U_TECHPLATZ_REF</th>\n<td>LH-11-3024</td>\n</tr></table></center>","timestamp":null,"begin":null,"end":null,"altitudeMode":null,"tessellate":-1,"extrude":0,"visibility":-1,"drawOrder":null,"icon":null},"geometry":{"type":"Point","coordinates":[8.8479210077907,50.161438823044506,0.0]}},{"type":"Feature","properties":{"fid":21,"id":"kml_22","Name":"050","description":"<center><table><tr><th colspan='2' align='center'><em>Attributes</em></th></tr><tr bgcolor=\"#E3E3F3\">\n<th>U_BEZ_TECHPLATZ</th>\n<td>050</td>\n</tr><tr bgcolor=\"\">\n<th>U_TECHPLATZ_REF</th>\n<td>LH-11-3024</td>\n</tr></table></center>","timestamp":null,"begin":null,"end":null,"altitudeMode":null,"tessellate":-1,"extrude":0,"visibility":-1,"drawOrder":null,"icon":null},"geometry":{"type":"Point","coordinates":[8.85049247921114,50.1594811998882,0.0]}},{"type":"Feature","properties":{"fid":22,"id":"kml_23","Name":"051","description":"<center><table><tr><th colspan='2' align='center'><em>Attributes</em></th></tr><tr bgcolor=\"#E3E3F3\">\n<th>U_BEZ_TECHPLATZ</th>\n<td>051</td>\n</tr><tr bgcolor=\"\">\n<th>U_TECHPLATZ_REF</th>\n<td>LH-11-3024</td>\n</tr></table></center>","timestamp":null,"begin":null,"end":null,"altitudeMode":null,"tessellate":-1,"extrude":0,"visibility":-1,"drawOrder":null,"icon":null},"geometry":{"type":"Point","coordinates":[8.85361328554177,50.1571049958605,0.0]}},{"type":"Feature","properties":{"fid":23,"id":"kml_24","Name":"052","description":"<center><table><tr><th colspan='2' align='center'><em>Attributes</em></th></tr><tr bgcolor=\"#E3E3F3\">\n<th>U_BEZ_TECHPLATZ</th>\n<td>052</td>\n</tr><tr bgcolor=\"\">\n<th>U_TECHPLATZ_REF</th>\n<td>LH-11-3024</td>\n</tr></table></center>","timestamp":null,"begin":null,"end":null,"altitudeMode":null,"tessellate":-1,"extrude":0,"visibility":-1,"drawOrder":null,"icon":null},"geometry":{"type":"Point","coordinates":[8.854285411426043,50.15511279156559,0.0]}},{"type":"Feature","properties":{"fid":24,"id":"kml_25","Name":"053","description":"<center><table><tr><th colspan='2' align='center'><em>Attributes</em></th></tr><tr bgcolor=\"#E3E3F3\">\n<th>U_BEZ_TECHPLATZ</th>\n<td>053</td>\n</tr><tr bgcolor=\"\">\n<th>U_TECHPLATZ_REF</th>\n<td>LH-11-3024</td>\n</tr></table></center>","timestamp":null,"begin":null,"end":null,"altitudeMode":null,"tessellate":-1,"extrude":0,"visibility":-1,"drawOrder":null,"icon":null},"geometry":{"type":"Point","coordinates":[8.85504642670051,50.15285727926301,0.0]}},{"type":"Feature","properties":{"fid":25,"id":"kml_26","Name":"054","description":"<center><table><tr><th colspan='2' align='center'><em>Attributes</em></th></tr><tr bgcolor=\"#E3E3F3\">\n<th>U_BEZ_TECHPLATZ</th>\n<td>054</td>\n</tr><tr bgcolor=\"\">\n<th>U_TECHPLATZ_REF</th>\n<td>LH-11-3024</td>\n</tr></table></center>","timestamp":null,"begin":null,"end":null,"altitudeMode":null,"tessellate":-1,"extrude":0,"visibility":-1,"drawOrder":null,"icon":null},"geometry":{"type":"Point","coordinates":[8.85583024097579,50.15053373354871,0.0]}},{"type":"Feature","properties":{"fid":26,"id":"kml_27","Name":"055","description":"<center><table><tr><th colspan='2' align='center'><em>Attributes</em></th></tr><tr bgcolor=\"#E3E3F3\">\n<th>U_BEZ_TECHPLATZ</th>\n<td>055</td>\n</tr><tr bgcolor=\"\">\n<th>U_TECHPLATZ_REF</th>\n<td>LH-11-3024</td>\n</tr></table></center>","timestamp":null,"begin":null,"end":null,"altitudeMode":null,"tessellate":-1,"extrude":0,"visibility":-1,"drawOrder":null,"icon":null},"geometry":{"type":"Point","coordinates":[8.85656697326915,50.14834965201359,0.0]}},{"type":"Feature","properties":{"fid":27,"id":"kml_28","Name":"056","description":"<center><table><tr><th colspan='2' align='center'><em>Attributes</em></th></tr><tr bgcolor=\"#E3E3F3\">\n<th>U_BEZ_TECHPLATZ</th>\n<td>056</td>\n</tr><tr bgcolor=\"\">\n<th>U_TECHPLATZ_REF</th>\n<td>LH-11-3024</td>\n</tr></table></center>","timestamp":null,"begin":null,"end":null,"altitudeMode":null,"tessellate":-1,"extrude":0,"visibility":-1,"drawOrder":null,"icon":null},"geometry":{"type":"Point","coordinates":[8.861994576798672,50.1471495311733,0.0]}},{"type":"Feature","properties":{"fid":28,"id":"kml_29","Name":"057","description":"<center><table><tr><th colspan='2' align='center'><em>Attributes</em></th></tr><tr bgcolor=\"#E3E3F3\">\n<th>U_BEZ_TECHPLATZ</th>\n<td>057</td>\n</tr><tr bgcolor=\"\">\n<th>U_TECHPLATZ_REF</th>\n<td>LH-11-3024</td>\n</tr></table></center>","timestamp":null,"begin":null,"end":null,"altitudeMode":null,"tessellate":-1,"extrude":0,"visibility":-1,"drawOrder":null,"icon":null},"geometry":{"type":"Point","coordinates":[8.86695966749838,50.146051388674884,0.0]}},{"type":"Feature","properties":{"fid":29,"id":"kml_30","Name":"058","description":"<center><table><tr><th colspan='2' align='center'><em>Attributes</em></th></tr><tr bgcolor=\"#E3E3F3\">\n<th>U_BEZ_TECHPLATZ</th>\n<td>058</td>\n</tr><tr bgcolor=\"\">\n<th>U_TECHPLATZ_REF</th>\n<td>LH-11-3024</td>\n</tr></table></center>","timestamp":null,"begin":null,"end":null,"altitudeMode":null,"tessellate":-1,"extrude":0,"visibility":-1,"drawOrder":null,"icon":null},"geometry":{"type":"Point","coordinates":[8.87122755837428,50.14510725779859,0.0]}},{"type":"Feature","properties":{"fid":30,"id":"kml_31","Name":"059","description":"<center><table><tr><th colspan='2' align='center'><em>Attributes</em></th></tr><tr bgcolor=\"#E3E3F3\">\n<th>U_BEZ_TECHPLATZ</th>\n<td>059</td>\n</tr><tr bgcolor=\"\">\n<th>U_TECHPLATZ_REF</th>\n<td>LH-11-3024</td>\n</tr></table></center>","timestamp":null,"begin":null,"end":null,"altitudeMode":null,"tessellate":-1,"extrude":0,"visibility":-1,"drawOrder":null,"icon":null},"geometry":{"type":"Point","coordinates":[8.86998381580311,50.14320102250719,0.0]}},{"type":"Feature","properties":{"fid":31,"id":"kml_32","Name":"060","description":"<center><table><tr><th colspan='2' align='center'><em>Attributes</em></th></tr><tr bgcolor=\"#E3E3F3\">\n<th>U_BEZ_TECHPLATZ</th>\n<td>060</td>\n</tr><tr bgcolor=\"\">\n<th>U_TECHPLATZ_REF</th>\n<td>LH-11-3024</td>\n</tr></table></center>","timestamp":null,"begin":null,"end":null,"altitudeMode":null,"tessellate":-1,"extrude":0,"visibility":-1,"drawOrder":null,"icon":null},"geometry":{"type":"Point","coordinates":[8.86842729116911,50.14081505961039,0.0]}},{"type":"Feature","properties":{"fid":32,"id":"kml_33","Name":"061","description":"<center><table><tr><th colspan='2' align='center'><em>Attributes</em></th></tr><tr bgcolor=\"#E3E3F3\">\n<th>U_BEZ_TECHPLATZ</th>\n<td>061</td>\n</tr><tr bgcolor=\"\">\n<th>U_TECHPLATZ_REF</th>\n<td>LH-11-3024</td>\n</tr></table></center>","timestamp":null,"begin":null,"end":null,"altitudeMode":null,"tessellate":-1,"extrude":0,"visibility":-1,"drawOrder":null,"icon":null},"geometry":{"type":"Point","coordinates":[8.86984603342327,50.1378131839917,0.0]}},{"type":"Feature","properties":{"fid":33,"id":"kml_34","Name":"062","description":"<center><table><tr><th colspan='2' align='center'><em>Attributes</em></th></tr><tr bgcolor=\"#E3E3F3\">\n<th>U_BEZ_TECHPLATZ</th>\n<td>062</td>\n</tr><tr bgcolor=\"\">\n<th>U_TECHPLATZ_REF</th>\n<td>LH-11-3024</td>\n</tr></table></center>","timestamp":null,"begin":null,"end":null,"altitudeMode":null,"tessellate":-1,"extrude":0,"visibility":-1,"drawOrder":null,"icon":null},"geometry":{"type":"Point","coordinates":[8.87112350942626,50.1351097907912,0.0]}},{"type":"Feature","properties":{"fid":34,"id":"kml_35","Name":"063","description":"<center><table><tr><th colspan='2' align='center'><em>Attributes</em></th></tr><tr bgcolor=\"#E3E3F3\">\n<th>U_BEZ_TECHPLATZ</th>\n<td>063</td>\n</tr><tr bgcolor=\"\">\n<th>U_TECHPLATZ_REF</th>\n<td>LH-11-3024</td>\n</tr></table></center>","timestamp":null,"begin":null,"end":null,"altitudeMode":null,"tessellate":-1,"extrude":0,"visibility":-1,"drawOrder":null,"icon":null},"geometry":{"type":"Point","coordinates":[8.8711946373747,50.13257191546289,0.0]}},{"type":"Feature","properties":{"fid":35,"id":"kml_36","Name":"065","description":"<center><table><tr><th colspan='2' align='center'><em>Attributes</em></th></tr><tr bgcolor=\"#E3E3F3\">\n<th>U_BEZ_TECHPLATZ</th>\n<td>065</td>\n</tr><tr bgcolor=\"\">\n<th>U_TECHPLATZ_REF</th>\n<td>LH-11-3024</td>\n</tr></table></center>","timestamp":null,"begin":null,"end":null,"altitudeMode":null,"tessellate":-1,"extrude":0,"visibility":-1,"drawOrder":null,"icon":null},"geometry":{"type":"Point","coordinates":[8.87134231011963,50.1272916378462,0.0]}},{"type":"Feature","properties":{"fid":36,"id":"kml_37","Name":"066","description":"<center><table><tr><th colspan='2' align='center'><em>Attributes</em></th></tr><tr bgcolor=\"#E3E3F3\">\n<th>U_BEZ_TECHPLATZ</th>\n<td>066</td>\n</tr><tr bgcolor=\"\">\n<th>U_TECHPLATZ_REF</th>\n<td>LH-11-3024</td>\n</tr></table></center>","timestamp":null,"begin":null,"end":null,"altitudeMode":null,"tessellate":-1,"extrude":0,"visibility":-1,"drawOrder":null,"icon":null},"geometry":{"type":"Point","coordinates":[8.87143490241612,50.12398529298259,0.0]}},{"type":"Feature","properties":{"fid":37,"id":"kml_38","Name":"067","description":"<center><table><tr><th colspan='2' align='center'><em>Attributes</em></th></tr><tr bgcolor=\"#E3E3F3\">\n<th>U_BEZ_TECHPLATZ</th>\n<td>067</td>\n</tr><tr bgcolor=\"\">\n<th>U_TECHPLATZ_REF</th>\n<td>LH-11-3024</td>\n</tr></table></center>","timestamp":null,"begin":null,"end":null,"altitudeMode":null,"tessellate":-1,"extrude":0,"visibility":-1,"drawOrder":null,"icon":null},"geometry":{"type":"Point","coordinates":[8.87152703564184,50.120688565059005,0.0]}},{"type":"Feature","properties":{"fid":38,"id":"kml_39","Name":"068","description":"<center><table><tr><th colspan='2' align='center'><em>Attributes</em></th></tr><tr bgcolor=\"#E3E3F3\">\n<th>U_BEZ_TECHPLATZ</th>\n<td>068</td>\n</tr><tr bgcolor=\"\">\n<th>U_TECHPLATZ_REF</th>\n<td>LH-11-3024</td>\n</tr></table></center>","timestamp":null,"begin":null,"end":null,"altitudeMode":null,"tessellate":-1,"extrude":0,"visibility":-1,"drawOrder":null,"icon":null},"geometry":{"type":"Point","coordinates":[8.87162624937861,50.11714362104469,0.0]}},{"type":"Feature","properties":{"fid":39,"id":"kml_40","Name":"069","description":"<center><table><tr><th colspan='2' align='center'><em>Attributes</em></th></tr><tr bgcolor=\"#E3E3F3\">\n<th>U_BEZ_TECHPLATZ</th>\n<td>069</td>\n</tr><tr bgcolor=\"\">\n<th>U_TECHPLATZ_REF</th>\n<td>LH-11-3024</td>\n</tr></table></center>","timestamp":null,"begin":null,"end":null,"altitudeMode":null,"tessellate":-1,"extrude":0,"visibility":-1,"drawOrder":null,"icon":null},"geometry":{"type":"Point","coordinates":[8.87401869281876,50.113879424203276,0.0]}},{"type":"Feature","properties":{"fid":40,"id":"kml_41","Name":"070","description":"<center><table><tr><th colspan='2' align='center'><em>Attributes</em></th></tr><tr bgcolor=\"#E3E3F3\">\n<th>U_BEZ_TECHPLATZ</th>\n<td>070</td>\n</tr><tr bgcolor=\"\">\n<th>U_TECHPLATZ_REF</th>\n<td>LH-11-3024</td>\n</tr></table></center>","timestamp":null,"begin":null,"end":null,"altitudeMode":null,"tessellate":-1,"extrude":0,"visibility":-1,"drawOrder":null,"icon":null},"geometry":{"type":"Point","coordinates":[8.87634880254897,50.110699709231405,0.0]}},{"type":"Feature","properties":{"fid":41,"id":"kml_42","Name":"071","description":"<center><table><tr><th colspan='2' align='center'><em>Attributes</em></th></tr><tr bgcolor=\"#E3E3F3\">\n<th>U_BEZ_TECHPLATZ</th>\n<td>071</td>\n</tr><tr bgcolor=\"\">\n<th>U_TECHPLATZ_REF</th>\n<td>LH-11-3024</td>\n</tr></table></center>","timestamp":null,"begin":null,"end":null,"altitudeMode":null,"tessellate":-1,"extrude":0,"visibility":-1,"drawOrder":null,"icon":null},"geometry":{"type":"Point","coordinates":[8.87868603817786,50.107509884093,0.0]}},{"type":"Feature","properties":{"fid":42,"id":"kml_43","Name":"072","description":"<center><table><tr><th colspan='2' align='center'><em>Attributes</em></th></tr><tr bgcolor=\"#E3E3F3\">\n<th>U_BEZ_TECHPLATZ</th>\n<td>072</td>\n</tr><tr bgcolor=\"\">\n<th>U_TECHPLATZ_REF</th>\n<td>LH-11-3024</td>\n</tr></table></center>","timestamp":null,"begin":null,"end":null,"altitudeMode":null,"tessellate":-1,"extrude":0,"visibility":-1,"drawOrder":null,"icon":null},"geometry":{"type":"Point","coordinates":[8.88085620040018,50.10454774428289,0.0]}},{"type":"Feature","properties":{"fid":43,"id":"kml_44","Name":"073","description":"<center><table><tr><th colspan='2' align='center'><em>Attributes</em></th></tr><tr bgcolor=\"#E3E3F3\">\n<th>U_BEZ_TECHPLATZ</th>\n<td>073</td>\n</tr><tr bgcolor=\"\">\n<th>U_TECHPLATZ_REF</th>\n<td>LH-11-3024</td>\n</tr></table></center>","timestamp":null,"begin":null,"end":null,"altitudeMode":null,"tessellate":-1,"extrude":0,"visibility":-1,"drawOrder":null,"icon":null},"geometry":{"type":"Point","coordinates":[8.88495046848953,50.10235947491299,0.0]}},{"type":"Feature","properties":{"fid":44,"id":"kml_45","Name":"074","description":"<center><table><tr><th colspan='2' align='center'><em>Attributes</em></th></tr><tr bgcolor=\"#E3E3F3\">\n<th>U_BEZ_TECHPLATZ</th>\n<td>074</td>\n</tr><tr bgcolor=\"\">\n<th>U_TECHPLATZ_REF</th>\n<td>LH-11-3024</td>\n</tr></table></center>","timestamp":null,"begin":null,"end":null,"altitudeMode":null,"tessellate":-1,"extrude":0,"visibility":-1,"drawOrder":null,"icon":null},"geometry":{"type":"Point","coordinates":[8.88874866694011,50.10032909770139,0.0]}},{"type":"Feature","properties":{"fid":45,"id":"kml_46","Name":"075","description":"<center><table><tr><th colspan='2' align='center'><em>Attributes</em></th></tr><tr bgcolor=\"#E3E3F3\">\n<th>U_BEZ_TECHPLATZ</th>\n<td>075</td>\n</tr><tr bgcolor=\"\">\n<th>U_TECHPLATZ_REF</th>\n<td>LH-11-3024</td>\n</tr></table></center>","timestamp":null,"begin":null,"end":null,"altitudeMode":null,"tessellate":-1,"extrude":0,"visibility":-1,"drawOrder":null,"icon":null},"geometry":{"type":"Point","coordinates":[8.89265317149452,50.0982416949354,0.0]}},{"type":"Feature","properties":{"fid":46,"id":"kml_47","Name":"076","description":"<center><table><tr><th colspan='2' align='center'><em>Attributes</em></th></tr><tr bgcolor=\"#E3E3F3\">\n<th>U_BEZ_TECHPLATZ</th>\n<td>076</td>\n</tr><tr bgcolor=\"\">\n<th>U_TECHPLATZ_REF</th>\n<td>LH-11-3024</td>\n</tr></table></center>","timestamp":null,"begin":null,"end":null,"altitudeMode":null,"tessellate":-1,"extrude":0,"visibility":-1,"drawOrder":null,"icon":null},"geometry":{"type":"Point","coordinates":[8.89661302360709,50.09612436111961,0.0]}},{"type":"Feature","properties":{"fid":47,"id":"kml_48","Name":"077","description":"<center><table><tr><th colspan='2' align='center'><em>Attributes</em></th></tr><tr bgcolor=\"#E3E3F3\">\n<th>U_BEZ_TECHPLATZ</th>\n<td>077</td>\n</tr><tr bgcolor=\"\">\n<th>U_TECHPLATZ_REF</th>\n<td>LH-11-3024</td>\n</tr></table></center>","timestamp":null,"begin":null,"end":null,"altitudeMode":null,"tessellate":-1,"extrude":0,"visibility":-1,"drawOrder":null,"icon":null},"geometry":{"type":"Point","coordinates":[8.89968826557111,50.095108889131,0.0]}},{"type":"Feature","properties":{"fid":48,"id":"kml_49","Name":"078","description":"<center><table><tr><th colspan='2' align='center'><em>Attributes</em></th></tr><tr bgcolor=\"#E3E3F3\">\n<th>U_BEZ_TECHPLATZ</th>\n<td>078</td>\n</tr><tr bgcolor=\"\">\n<th>U_TECHPLATZ_REF</th>\n<td>LH-11-3024</td>\n</tr></table></center>","timestamp":null,"begin":null,"end":null,"altitudeMode":null,"tessellate":-1,"extrude":0,"visibility":-1,"drawOrder":null,"icon":null},"geometry":{"type":"Point","coordinates":[8.90462832340967,50.0934775972216,0.0]}},{"type":"Feature","properties":{"fid":49,"id":"kml_50","Name":"079","description":"<center><table><tr><th colspan='2' align='center'><em>Attributes</em></th></tr><tr bgcolor=\"#E3E3F3\">\n<th>U_BEZ_TECHPLATZ</th>\n<td>079</td>\n</tr><tr bgcolor=\"\">\n<th>U_TECHPLATZ_REF</th>\n<td>LH-11-3024</td>\n</tr></table></center>","timestamp":null,"begin":null,"end":null,"altitudeMode":null,"tessellate":-1,"extrude":0,"visibility":-1,"drawOrder":null,"icon":null},"geometry":{"type":"Point","coordinates":[8.90927635757654,50.09194233430829,0.0]}},{"type":"Feature","properties":{"fid":50,"id":"kml_51","Name":"080","description":"<center><table><tr><th colspan='2' align='center'><em>Attributes</em></th></tr><tr bgcolor=\"#E3E3F3\">\n<th>U_BEZ_TECHPLATZ</th>\n<td>080</td>\n</tr><tr bgcolor=\"\">\n<th>U_TECHPLATZ_REF</th>\n<td>LH-11-3024</td>\n</tr></table></center>","timestamp":null,"begin":null,"end":null,"altitudeMode":null,"tessellate":-1,"extrude":0,"visibility":-1,"drawOrder":null,"icon":null},"geometry":{"type":"Point","coordinates":[8.91446730621813,50.0902273871392,0.0]}},{"type":"Feature","properties":{"fid":51,"id":"kml_52","Name":"081","description":"<center><table><tr><th colspan='2' align='center'><em>Attributes</em></th></tr><tr bgcolor=\"#E3E3F3\">\n<th>U_BEZ_TECHPLATZ</th>\n<td>081</td>\n</tr><tr bgcolor=\"\">\n<th>U_TECHPLATZ_REF</th>\n<td>LH-11-3024</td>\n</tr></table></center>","timestamp":null,"begin":null,"end":null,"altitudeMode":null,"tessellate":-1,"extrude":0,"visibility":-1,"drawOrder":null,"icon":null},"geometry":{"type":"Point","coordinates":[8.91915056390325,50.089981058800504,0.0]}},{"type":"Feature","properties":{"fid":52,"id":"kml_53","Name":"082","description":"<center><table><tr><th colspan='2' align='center'><em>Attributes</em></th></tr><tr bgcolor=\"#E3E3F3\">\n<th>U_BEZ_TECHPLATZ</th>\n<td>082</td>\n</tr><tr bgcolor=\"\">\n<th>U_TECHPLATZ_REF</th>\n<td>LH-11-3024</td>\n</tr></table></center>","timestamp":null,"begin":null,"end":null,"altitudeMode":null,"tessellate":-1,"extrude":0,"visibility":-1,"drawOrder":null,"icon":null},"geometry":{"type":"Point","coordinates":[8.92369430273924,50.0897419128303,0.0]}},{"type":"Feature","properties":{"fid":53,"id":"kml_54","Name":"083","description":"<center><table><tr><th colspan='2' align='center'><em>Attributes</em></th></tr><tr bgcolor=\"#E3E3F3\">\n<th>U_BEZ_TECHPLATZ</th>\n<td>083</td>\n</tr><tr bgcolor=\"\">\n<th>U_TECHPLATZ_REF</th>\n<td>LH-11-3024</td>\n</tr></table></center>","timestamp":null,"begin":null,"end":null,"altitudeMode":null,"tessellate":-1,"extrude":0,"visibility":-1,"drawOrder":null,"icon":null},"geometry":{"type":"Point","coordinates":[8.92890334243617,50.0894675730255,0.0]}},{"type":"Feature","properties":{"fid":54,"id":"kml_55","Name":"084","description":"<center><table><tr><th colspan='2' align='center'><em>Attributes</em></th></tr><tr bgcolor=\"#E3E3F3\">\n<th>U_BEZ_TECHPLATZ</th>\n<td>084</td>\n</tr><tr bgcolor=\"\">\n<th>U_TECHPLATZ_REF</th>\n<td>LH-11-3024</td>\n</tr></table></center>","timestamp":null,"begin":null,"end":null,"altitudeMode":null,"tessellate":-1,"extrude":0,"visibility":-1,"drawOrder":null,"icon":null},"geometry":{"type":"Point","coordinates":[8.93352999417959,50.08922359694401,0.0]}},{"type":"Feature","properties":{"fid":55,"id":"kml_56","Name":"085","description":"<center><table><tr><th colspan='2' align='center'><em>Attributes</em></th></tr><tr bgcolor=\"#E3E3F3\">\n<th>U_BEZ_TECHPLATZ</th>\n<td>085</td>\n</tr><tr bgcolor=\"\">\n<th>U_TECHPLATZ_REF</th>\n<td>LH-11-3024</td>\n</tr></table></center>","timestamp":null,"begin":null,"end":null,"altitudeMode":null,"tessellate":-1,"extrude":0,"visibility":-1,"drawOrder":null,"icon":null},"geometry":{"type":"Point","coordinates":[8.93697272745686,50.088136859832,0.0]}},{"type":"Feature","properties":{"fid":56,"id":"kml_57","Name":"086","description":"<center><table><tr><th colspan='2' align='center'><em>Attributes</em></th></tr><tr bgcolor=\"#E3E3F3\">\n<th>U_BEZ_TECHPLATZ</th>\n<td>086</td>\n</tr><tr bgcolor=\"\">\n<th>U_TECHPLATZ_REF</th>\n<td>LH-11-3024</td>\n</tr></table></center>","timestamp":null,"begin":null,"end":null,"altitudeMode":null,"tessellate":-1,"extrude":0,"visibility":-1,"drawOrder":null,"icon":null},"geometry":{"type":"Point","coordinates":[8.94082990793522,50.08691906177859,0.0]}},{"type":"Feature","properties":{"fid":57,"id":"kml_58","Name":"087","description":"<center><table><tr><th colspan='2' align='center'><em>Attributes</em></th></tr><tr bgcolor=\"#E3E3F3\">\n<th>U_BEZ_TECHPLATZ</th>\n<td>087</td>\n</tr><tr bgcolor=\"\">\n<th>U_TECHPLATZ_REF</th>\n<td>LH-11-3024</td>\n</tr></table></center>","timestamp":null,"begin":null,"end":null,"altitudeMode":null,"tessellate":-1,"extrude":0,"visibility":-1,"drawOrder":null,"icon":null},"geometry":{"type":"Point","coordinates":[8.94536593066594,50.0854866738588,0.0]}},{"type":"Feature","properties":{"fid":58,"id":"kml_59","Name":"GKRO C22","description":"<center><table><tr><th colspan='2' align='center'><em>Attributes</em></th></tr><tr bgcolor=\"#E3E3F3\">\n<th>U_BEZ_TECHPLATZ</th>\n<td>GKRO C22</td>\n</tr><tr bgcolor=\"\">\n<th>U_TECHPLATZ_REF</th>\n<td>LH-11-3024</td>\n</tr></table></center>","timestamp":null,"begin":null,"end":null,"altitudeMode":null,"tessellate":-1,"extrude":0,"visibility":-1,"drawOrder":null,"icon":null},"geometry":{"type":"Point","coordinates":[8.95666969139289,50.081720206967084,0.0]}},{"type":"Feature","properties":{"fid":59,"id":"kml_60","Name":"GKRO C23","description":"<center><table><tr><th colspan='2' align='center'><em>Attributes</em></th></tr><tr bgcolor=\"#E3E3F3\">\n<th>U_BEZ_TECHPLATZ</th>\n<td>GKRO C23</td>\n</tr><tr bgcolor=\"\">\n<th>U_TECHPLATZ_REF</th>\n<td>LH-11-3024</td>\n</tr></table></center>","timestamp":null,"begin":null,"end":null,"altitudeMode":null,"tessellate":-1,"extrude":0,"visibility":-1,"drawOrder":null,"icon":null},"geometry":{"type":"Point","coordinates":[8.95649600769442,50.0815833097039,0.0]}},{"type":"Feature","properties":{"fid":60,"id":"kml_61","Name":"62","description":"<center><table><tr><th colspan='2' align='center'><em>Attributes</em></th></tr><tr bgcolor=\"#E3E3F3\">\n<th>U_BEZ_TECHPLATZ</th>\n<td>62</td>\n</tr><tr bgcolor=\"\">\n<th>U_TECHPLATZ_REF</th>\n<td>LH-11-AMPRION1</td>\n</tr></table></center>","timestamp":null,"begin":null,"end":null,"altitudeMode":null,"tessellate":-1,"extrude":0,"visibility":-1,"drawOrder":null,"icon":null},"geometry":{"type":"Point","coordinates":[8.95592308088219,50.08153275053309,0.0]}},{"type":"Feature","properties":{"fid":61,"id":"kml_62","Name":"KARB C02","description":"<center><table><tr><th colspan='2' align='center'><em>Attributes</em></th></tr><tr bgcolor=\"#E3E3F3\">\n<th>U_BEZ_TECHPLATZ</th>\n<td>KARB C02</td>\n</tr><tr bgcolor=\"\">\n<th>U_TECHPLATZ_REF</th>\n<td>LH-11-3024</td>\n</tr></table></center>","timestamp":null,"begin":null,"end":null,"altitudeMode":null,"tessellate":-1,"extrude":0,"visibility":-1,"drawOrder":null,"icon":null},"geometry":{"type":"Point","coordinates":[8.811051281202122,50.203370457199895,0.0]}},{"type":"Feature","properties":{"fid":62,"id":"kml_63","Name":"KARB C04","description":"<center><table><tr><th colspan='2' align='center'><em>Attributes</em></th></tr><tr bgcolor=\"#E3E3F3\">\n<th>U_BEZ_TECHPLATZ</th>\n<td>KARB C04</td>\n</tr><tr bgcolor=\"\">\n<th>U_TECHPLATZ_REF</th>\n<td>LH-11-3024</td>\n</tr></table></center>","timestamp":null,"begin":null,"end":null,"altitudeMode":null,"tessellate":-1,"extrude":0,"visibility":-1,"drawOrder":null,"icon":null},"geometry":{"type":"Point","coordinates":[8.81104514147929,50.20354242949088,0.0]}}]}