{"type":"FeatureCollection","name":"status_genehmigung","source":"04_PERMITS Excel matched with ALKIS catastro","features":[{"type":"Feature","properties":{"Gemeinde":"Maintal","Gemarkung":"Dörnigheim","Flur":"22","Flurstueck":"34","Flurstueckskennzeichen":"06089202200034______","Betroffene Flaeche [m2]":125.5102779148237,"Flurstuecksflaeche amtlich [m2]":2097,"Anteil am Flurstueck [%]":6.001297510324163,"Mast Nr.":null,"Art / Typ":null,"Status":null,"Bemerkung":null,"Breite [m]":null,"Laenge [m]":null,"Hoehe [m]":null,"Quelle Oberflaeche":null,"Datum Oberflaeche":null,"source_excel":"Karben_Umwelt_Aufmass_Arbeitsflaechen_Flurstuecke.xlsx","source_sheet":"Arbeitsflaechen"},"geometry":{"type":"Polygon","coordinates":[[[8.87091703028612,50.14522411799034],[8.871509699838285,50.14512595095816],[8.871579833170767,50.14467588724155],[8.870989160692401,50.14476215801582],[8.87091703028612,50.14522411799034]]]}},{"type":"Feature","properties":{"Gemeinde":"Maintal","Gemarkung":"Dörnigheim","Flur":"22","Flurstueck":"35","Flurstueckskennzeichen":"06089202200035______","Betroffene Flaeche [m2]":136.8795384915032,"Flurstuecksflaeche amtlich [m2]":1767,"Anteil am Flurstueck [%]":7.738048241351494,"Mast Nr.":null,"Art / Typ":null,"Status":null,"Bemerkung":null,"Breite [m]":null,"Laenge [m]":null,"Hoehe [m]":null,"Quelle Oberflaeche":null,"Datum Oberflaeche":null,"source_excel":"Karben_Umwelt_Aufmass_Arbeitsflaechen_Flurstuecke.xlsx","source_sheet":"Arbeitsflaechen"},"geometry":{"type":"Polygon","coordinates":[[[8.87025902535551,50.145333100560755],[8.87091703028612,50.14522411799034],[8.870989160692401,50.14476215801582],[8.870755413960591,50.14479634451312],[8.870629223713536,50.1448507785921],[8.87025902535551,50.145333100560755]]]}},{"type":"Feature","properties":{"Gemeinde":"Maintal","Gemarkung":"Dörnigheim","Flur":"22","Flurstueck":"39","Flurstueckskennzeichen":"06089202200039______","Betroffene Flaeche [m2]":12.17582739028363,"Flurstuecksflaeche amtlich [m2]":1907,"Anteil am Flurstueck [%]":0.6410143576000594,"Mast Nr.":null,"Art / Typ":null,"Status":null,"Bemerkung":null,"Breite [m]":null,"Laenge [m]":null,"Hoehe [m]":null,"Quelle Oberflaeche":null,"Datum Oberflaeche":null,"source_excel":"Karben_Umwelt_Aufmass_Arbeitsflaechen_Flurstuecke.xlsx","source_sheet":"Arbeitsflaechen"},"geometry":{"type":"Polygon","coordinates":[[[8.870781768288575,50.14424019523523],[8.870804985098752,50.144729134795156],[8.87120654721503,50.14467032942408],[8.871241912619398,50.14402949509672],[8.871097739242865,50.14411062143764],[8.870781768288575,50.14424019523523]]]}},{"type":"Feature","properties":{"Gemeinde":"Maintal","Gemarkung":"Dörnigheim","Flur":"22","Flurstueck":"55","Flurstueckskennzeichen":"06089202200055______","Betroffene Flaeche [m2]":65.67748089486264,"Flurstuecksflaeche amtlich [m2]":666,"Anteil am Flurstueck [%]":9.831388232396856,"Mast Nr.":null,"Art / Typ":null,"Status":null,"Bemerkung":null,"Breite [m]":null,"Laenge [m]":null,"Hoehe [m]":null,"Quelle Oberflaeche":null,"Datum Oberflaeche":null,"source_excel":"Karben_Umwelt_Aufmass_Arbeitsflaechen_Flurstuecke.xlsx","source_sheet":"Arbeitsflaechen"},"geometry":{"type":"Polygon","coordinates":[[[8.870088383649398,50.145361420260684],[8.870214653071775,50.14534051586501],[8.870601973799845,50.144835458721005],[8.87074133502835,50.144775373216376],[8.871844008257511,50.14461422952532],[8.871852788227393,50.144575754604624],[8.87120654721503,50.14467032942408],[8.870804985098752,50.144729134795156],[8.870597826225273,50.14475946521274],[8.870167962485912,50.14532023655429],[8.870088383649398,50.145361420260684]]]}},{"type":"Feature","properties":{"Gemeinde":"Maintal","Gemarkung":"Dörnigheim","Flur":"22","Flurstueck":"68","Flurstueckskennzeichen":"06089202200068______","Betroffene Flaeche [m2]":40.46016651115259,"Flurstuecksflaeche amtlich [m2]":929,"Anteil am Flurstueck [%]":4.356198309777761,"Mast Nr.":null,"Art / Typ":null,"Status":null,"Bemerkung":null,"Breite [m]":null,"Laenge [m]":null,"Hoehe [m]":null,"Quelle Oberflaeche":null,"Datum Oberflaeche":null,"source_excel":"Karben_Umwelt_Aufmass_Arbeitsflaechen_Flurstuecke.xlsx","source_sheet":"Arbeitsflaechen"},"geometry":{"type":"Polygon","coordinates":[[[8.87017758768301,50.14538886125207],[8.870221819817601,50.14538153574373],[8.87025902535551,50.145333100560755],[8.870629223713536,50.1448507785921],[8.870755413960591,50.14479634451312],[8.870989160692401,50.14476215801582],[8.871579833170767,50.14467588724155],[8.871875448679381,50.144632692575854],[8.872020934645786,50.144641945743956],[8.87228688725931,50.14465880513452],[8.874806169860552,50.14481853540343],[8.874809573205463,50.14479615342458],[8.871873270175366,50.14460994477074],[8.871844008257511,50.14461422952532],[8.87074133502835,50.144775373216376],[8.870601973799845,50.144835458721005],[8.870214653071775,50.14534051586501],[8.87017758768301,50.14538886125207]]]}},{"type":"Feature","properties":{"Gemeinde":"Maintal","Gemarkung":"Hochstadt","Flur":"8","Flurstueck":"2","Flurstueckskennzeichen":"06092100800002______","Betroffene Flaeche [m2]":59.29544393814728,"Flurstuecksflaeche amtlich [m2]":905,"Anteil am Flurstueck [%]":6.576294903657335,"Mast Nr.":47,"Art / Typ":"verankerung Mast 047","Status":null,"Bemerkung":null,"Breite [m]":null,"Laenge [m]":null,"Hoehe [m]":null,"Quelle Oberflaeche":null,"Datum Oberflaeche":null,"source_excel":"Karben_Umwelt_Aufmass_Arbeitsflaechen_Flurstuecke.xlsx","source_sheet":"Arbeitsflaechen"},"geometry":{"type":"Polygon","coordinates":[[[8.839104802453042,50.166277073791036],[8.839192114995713,50.166327892752754],[8.840100146161896,50.1655510655264],[8.840006529150235,50.1655057067884],[8.839104802453042,50.166277073791036]]]}},{"type":"Feature","properties":{"Gemeinde":"Maintal","Gemarkung":"Wachenbuchen","Flur":"12","Flurstueck":"9/175","Flurstueckskennzeichen":"061016012000090175__","Betroffene Flaeche [m2]":774.3589905811417,"Flurstuecksflaeche amtlich [m2]":314996,"Anteil am Flurstueck [%]":0.2495609997157955,"Mast Nr.":51,"Art / Typ":"Bremse M051-M048","Status":null,"Bemerkung":null,"Breite [m]":null,"Laenge [m]":null,"Hoehe [m]":null,"Quelle Oberflaeche":null,"Datum Oberflaeche":null,"source_excel":"Karben_Umwelt_Aufmass_Arbeitsflaechen_Flurstuecke.xlsx","source_sheet":"Arbeitsflaechen"},"geometry":{"type":"Polygon","coordinates":[[[8.852096741780688,50.15689627292076],[8.852205693589372,50.156915289621146],[8.852252878257374,50.15694905846687],[8.85229265915643,50.156982287243224],[8.852405236548933,50.156996901397534],[8.852460367107946,50.157041652708415],[8.85259835945896,50.15703140407749],[8.852635168377484,50.15707064582607],[8.852786331129016,50.15713880376476],[8.85293901424216,50.15716327148231],[8.853078757459974,50.15716648823715],[8.853147648044152,50.15723472148499],[8.85325619598771,50.15723971533197],[8.853307595208479,50.157264414313254],[8.853383544294415,50.15727233482502],[8.853482482729792,50.157261037527164],[8.85370637171594,50.15728829217848],[8.853860961378087,50.15732597299676],[8.854102183735867,50.157357205969646],[8.854193307121433,50.15734706744556],[8.854351999489287,50.15737540818746],[8.8546113391991,50.15739218277929],[8.854735614894727,50.15746444167226],[8.854887229893396,50.15752333380842],[8.855026905888634,50.157553799389085],[8.855079662224384,50.157556023738934],[8.85516406019478,50.15749688676113],[8.855298283044066,50.15743709229854],[8.855374126259141,50.157392136747006],[8.855495472860987,50.15742870372778],[8.855742626365352,50.157452655682576],[8.855819440446897,50.157452481243304],[8.855927143418612,50.15742213485204],[8.856218901699549,50.15736567346292],[8.856477486315507,50.157363654876875],[8.856788786306193,50.15737752084093],[8.856876903866109,50.15738931241656],[8.857081796812714,50.15714476209356],[8.857308953472785,50.156803672169225],[8.857689511026242,50.156489472467776],[8.857954037862497,50.15628041126378],[8.858841853210533,50.15557861793504],[8.85936921181886,50.15516281695684],[8.860077912348475,50.154602494651776],[8.86023997021475,50.15449722825907],[8.860476102915,50.15437390111933],[8.861805883729376,50.15401964148618],[8.862431423472085,50.153852802245694],[8.86465099027672,50.1532598662079],[8.864780666564322,50.15322046243022],[8.864789662462947,50.15311295179145],[8.864831992300022,50.15298380484153],[8.864866578931814,50.1529249625485],[8.864954070968961,50.15276898555716],[8.86506239759165,50.152715166524814],[8.865060302763746,50.152608992043625],[8.865205724579155,50.15245003323694],[8.865130589762876,50.152249194944794],[8.864956006953612,50.15213625454595],[8.864747834677354,50.15202687230134],[8.862162900635157,50.15288746507253],[8.85923454947891,50.1502743235208],[8.856926427044252,50.15050473108766],[8.856827666131679,50.15144601087011],[8.856226862060195,50.152386400238996],[8.855725592948959,50.15316699092343],[8.855100808778966,50.15384332186887],[8.854458471266003,50.154541320476206],[8.853908971249165,50.15513697469586],[8.85297629616744,50.156149113163906],[8.852807985938693,50.15629584994743],[8.85262580677812,50.15645462059987],[8.852551890566362,50.15651900345133],[8.852096741780688,50.15689627292076]]]}},{"type":"Feature","properties":{"Gemeinde":"Maintal","Gemarkung":"Wachenbuchen","Flur":"12","Flurstueck":"9/175","Flurstueckskennzeichen":"061016012000090175__","Betroffene Flaeche [m2]":134.2054782604814,"Flurstuecksflaeche amtlich [m2]":314996,"Anteil am Flurstueck [%]":0.04325184278791257,"Mast Nr.":51,"Art / Typ":"Rollenleine Mast 050 ","Status":null,"Bemerkung":null,"Breite [m]":null,"Laenge [m]":null,"Hoehe [m]":null,"Quelle Oberflaeche":null,"Datum Oberflaeche":null,"source_excel":"Karben_Umwelt_Aufmass_Arbeitsflaechen_Flurstuecke.xlsx","source_sheet":"Arbeitsflaechen"},"geometry":{"type":"Polygon","coordinates":[[[8.852096741780688,50.15689627292076],[8.852205693589372,50.156915289621146],[8.852252878257374,50.15694905846687],[8.85229265915643,50.156982287243224],[8.852405236548933,50.156996901397534],[8.852460367107946,50.157041652708415],[8.85259835945896,50.15703140407749],[8.852635168377484,50.15707064582607],[8.852786331129016,50.15713880376476],[8.85293901424216,50.15716327148231],[8.853078757459974,50.15716648823715],[8.853147648044152,50.15723472148499],[8.85325619598771,50.15723971533197],[8.853307595208479,50.157264414313254],[8.853383544294415,50.15727233482502],[8.853482482729792,50.157261037527164],[8.85370637171594,50.15728829217848],[8.853860961378087,50.15732597299676],[8.854102183735867,50.157357205969646],[8.854193307121433,50.15734706744556],[8.854351999489287,50.15737540818746],[8.8546113391991,50.15739218277929],[8.854735614894727,50.15746444167226],[8.854887229893396,50.15752333380842],[8.855026905888634,50.157553799389085],[8.855079662224384,50.157556023738934],[8.85516406019478,50.15749688676113],[8.855298283044066,50.15743709229854],[8.855374126259141,50.157392136747006],[8.855495472860987,50.15742870372778],[8.855742626365352,50.157452655682576],[8.855819440446897,50.157452481243304],[8.855927143418612,50.15742213485204],[8.856218901699549,50.15736567346292],[8.856477486315507,50.157363654876875],[8.856788786306193,50.15737752084093],[8.856876903866109,50.15738931241656],[8.857081796812714,50.15714476209356],[8.857308953472785,50.156803672169225],[8.857689511026242,50.156489472467776],[8.857954037862497,50.15628041126378],[8.858841853210533,50.15557861793504],[8.85936921181886,50.15516281695684],[8.860077912348475,50.154602494651776],[8.86023997021475,50.15449722825907],[8.860476102915,50.15437390111933],[8.861805883729376,50.15401964148618],[8.862431423472085,50.153852802245694],[8.86465099027672,50.1532598662079],[8.864780666564322,50.15322046243022],[8.864789662462947,50.15311295179145],[8.864831992300022,50.15298380484153],[8.864866578931814,50.1529249625485],[8.864954070968961,50.15276898555716],[8.86506239759165,50.152715166524814],[8.865060302763746,50.152608992043625],[8.865205724579155,50.15245003323694],[8.865130589762876,50.152249194944794],[8.864956006953612,50.15213625454595],[8.864747834677354,50.15202687230134],[8.862162900635157,50.15288746507253],[8.85923454947891,50.1502743235208],[8.856926427044252,50.15050473108766],[8.856827666131679,50.15144601087011],[8.856226862060195,50.152386400238996],[8.855725592948959,50.15316699092343],[8.855100808778966,50.15384332186887],[8.854458471266003,50.154541320476206],[8.853908971249165,50.15513697469586],[8.85297629616744,50.156149113163906],[8.852807985938693,50.15629584994743],[8.85262580677812,50.15645462059987],[8.852551890566362,50.15651900345133],[8.852096741780688,50.15689627292076]]]}},{"type":"Feature","properties":{"Gemeinde":"Maintal","Gemarkung":"Wachenbuchen","Flur":"17","Flurstueck":"49/1","Flurstueckskennzeichen":"061016017000490001__","Betroffene Flaeche [m2]":44.93214707724204,"Flurstuecksflaeche amtlich [m2]":2463,"Anteil am Flurstueck [%]":1.825847669687067,"Mast Nr.":50,"Art / Typ":"rollenleine Mast 051","Status":null,"Bemerkung":null,"Breite [m]":null,"Laenge [m]":null,"Hoehe [m]":null,"Quelle Oberflaeche":null,"Datum Oberflaeche":null,"source_excel":"Karben_Umwelt_Aufmass_Arbeitsflaechen_Flurstuecke.xlsx","source_sheet":"Arbeitsflaechen"},"geometry":{"type":"Polygon","coordinates":[[[8.849160499808411,50.16024270092229],[8.84933071015385,50.16035905889557],[8.850028674751913,50.1598333746033],[8.850596456701059,50.159405812057884],[8.850473906069602,50.15933743630708],[8.850406009434176,50.159300869986275],[8.849160499808411,50.16024270092229]]]}},{"type":"Feature","properties":{"Gemeinde":"Maintal","Gemarkung":"Wachenbuchen","Flur":"17","Flurstueck":"50/1","Flurstueckskennzeichen":"061016017000500001__","Betroffene Flaeche [m2]":33.30617589186199,"Flurstuecksflaeche amtlich [m2]":2585,"Anteil am Flurstueck [%]":1.289214824961478,"Mast Nr.":50,"Art / Typ":"rollenleine Mast 051","Status":null,"Bemerkung":null,"Breite [m]":null,"Laenge [m]":null,"Hoehe [m]":null,"Quelle Oberflaeche":null,"Datum Oberflaeche":null,"source_excel":"Karben_Umwelt_Aufmass_Arbeitsflaechen_Flurstuecke.xlsx","source_sheet":"Arbeitsflaechen"},"geometry":{"type":"Polygon","coordinates":[[[8.84933071015385,50.16035905889557],[8.84951607887489,50.160485779136636],[8.850211204455949,50.15995012493966],[8.850782722044384,50.15950973214216],[8.850596456701059,50.159405812057884],[8.850028674751913,50.1598333746033],[8.84933071015385,50.16035905889557]]]}},{"type":"Feature","properties":{"Gemeinde":"Maintal","Gemarkung":"Wachenbuchen","Flur":"22","Flurstueck":"13","Flurstueckskennzeichen":"06101602200013______","Betroffene Flaeche [m2]":212.1355493720758,"Flurstuecksflaeche amtlich [m2]":11114,"Anteil am Flurstueck [%]":1.911563266277894,"Mast Nr.":48,"Art / Typ":"Konterzug  M048-M042 + Winde 051-048","Status":null,"Bemerkung":null,"Breite [m]":null,"Laenge [m]":null,"Hoehe [m]":null,"Quelle Oberflaeche":null,"Datum Oberflaeche":null,"source_excel":"Karben_Umwelt_Aufmass_Arbeitsflaechen_Flurstuecke.xlsx","source_sheet":"Arbeitsflaechen"},"geometry":{"type":"Polygon","coordinates":[[[8.84270362792591,50.164892784297365],[8.842712140681288,50.16490133993731],[8.843005134937261,50.16501197334622],[8.843349784341365,50.16508328283229],[8.845439421261785,50.16386046057203],[8.845221360800078,50.1637761950624],[8.84458331084432,50.16361045969462],[8.84365196482017,50.16424575531617],[8.84270362792591,50.164892784297365]]]}},{"type":"Feature","properties":{"Gemeinde":"Maintal","Gemarkung":"Wachenbuchen","Flur":"22","Flurstueck":"13","Flurstueckskennzeichen":"06101602200013______","Betroffene Flaeche [m2]":467.1764501991153,"Flurstuecksflaeche amtlich [m2]":11114,"Anteil am Flurstueck [%]":4.209748642856587,"Mast Nr.":48,"Art / Typ":"Kran + Hubsteiger System 3","Status":null,"Bemerkung":null,"Breite [m]":null,"Laenge [m]":null,"Hoehe [m]":null,"Quelle Oberflaeche":null,"Datum Oberflaeche":null,"source_excel":"Karben_Umwelt_Aufmass_Arbeitsflaechen_Flurstuecke.xlsx","source_sheet":"Arbeitsflaechen"},"geometry":{"type":"Polygon","coordinates":[[[8.84270362792591,50.164892784297365],[8.842712140681288,50.16490133993731],[8.843005134937261,50.16501197334622],[8.843349784341365,50.16508328283229],[8.845439421261785,50.16386046057203],[8.845221360800078,50.1637761950624],[8.84458331084432,50.16361045969462],[8.84365196482017,50.16424575531617],[8.84270362792591,50.164892784297365]]]}},{"type":"Feature","properties":{"Gemeinde":"Maintal","Gemarkung":"Wachenbuchen","Flur":"22","Flurstueck":"9","Flurstueckskennzeichen":"06101602200009______","Betroffene Flaeche [m2]":158.3647645314912,"Flurstuecksflaeche amtlich [m2]":1453,"Anteil am Flurstueck [%]":10.77873977962438,"Mast Nr.":48,"Art / Typ":"kran System 1 + Hubsteiger","Status":null,"Bemerkung":null,"Breite [m]":null,"Laenge [m]":null,"Hoehe [m]":null,"Quelle Oberflaeche":null,"Datum Oberflaeche":null,"source_excel":"Karben_Umwelt_Aufmass_Arbeitsflaechen_Flurstuecke.xlsx","source_sheet":"Arbeitsflaechen"},"geometry":{"type":"Polygon","coordinates":[[[8.842421155647397,50.16463992740406],[8.842460280991546,50.16470633675412],[8.843060610189543,50.164297364741195],[8.844318363160653,50.16344017594823],[8.844245609572933,50.16338991996576],[8.842422725026246,50.16463103466171],[8.842421155647397,50.16463992740406]]]}},{"type":"Feature","properties":{"Gemeinde":"Maintal","Gemarkung":"Wachenbuchen","Flur":"22","Flurstueck":"95/8","Flurstueckskennzeichen":"061016022000950008__","Betroffene Flaeche [m2]":175.0933281144508,"Flurstuecksflaeche amtlich [m2]":3042,"Anteil am Flurstueck [%]":5.795742743564447,"Mast Nr.":48,"Art / Typ":"kran System 1 + Hubsteiger","Status":null,"Bemerkung":null,"Breite [m]":null,"Laenge [m]":null,"Hoehe [m]":null,"Quelle Oberflaeche":null,"Datum Oberflaeche":null,"source_excel":"Karben_Umwelt_Aufmass_Arbeitsflaechen_Flurstuecke.xlsx","source_sheet":"Arbeitsflaechen"},"geometry":{"type":"Polygon","coordinates":[[[8.842422725026246,50.16463103466171],[8.844245609572933,50.16338991996576],[8.844085854242872,50.16327947756527],[8.84325971275554,50.163841809601934],[8.842440975080992,50.164399100235194],[8.842436072532797,50.16444233579247],[8.842433378203285,50.16449529664614],[8.842422725026246,50.16463103466171]]]}},{"type":"Feature","properties":{"Gemeinde":"Maintal","Gemarkung":"Wachenbuchen","Flur":"22","Flurstueck":"96/12","Flurstueckskennzeichen":"061016022000960012__","Betroffene Flaeche [m2]":55.57035174607906,"Flurstuecksflaeche amtlich [m2]":5181,"Anteil am Flurstueck [%]":1.066984276013169,"Mast Nr.":48,"Art / Typ":"kran System 1 + Hubsteiger","Status":null,"Bemerkung":null,"Breite [m]":null,"Laenge [m]":null,"Hoehe [m]":null,"Quelle Oberflaeche":null,"Datum Oberflaeche":null,"source_excel":"Karben_Umwelt_Aufmass_Arbeitsflaechen_Flurstuecke.xlsx","source_sheet":"Arbeitsflaechen"},"geometry":{"type":"Polygon","coordinates":[[[8.842460280991546,50.16470633675412],[8.842551158788702,50.164775964081805],[8.84270362792591,50.164892784297365],[8.84365196482017,50.16424575531617],[8.84458331084432,50.16361045969462],[8.844555474954447,50.16360241796107],[8.84441499622965,50.16350531264393],[8.844318363160653,50.16344017594823],[8.843060610189543,50.164297364741195],[8.842460280991546,50.16470633675412]]]}},{"type":"Feature","properties":{"Gemeinde":"Niederdorfelden","Gemarkung":"Niederdorfelden","Flur":"23","Flurstueck":"17","Flurstueckskennzeichen":"06096802300017______","Betroffene Flaeche [m2]":241.1546635251984,"Flurstuecksflaeche amtlich [m2]":5263,"Anteil am Flurstueck [%]":4.585762189114769,"Mast Nr.":42,"Art / Typ":"Bremse M042-M048","Status":null,"Bemerkung":null,"Breite [m]":null,"Laenge [m]":null,"Hoehe [m]":null,"Quelle Oberflaeche":null,"Datum Oberflaeche":null,"source_excel":"Karben_Umwelt_Aufmass_Arbeitsflaechen_Flurstuecke.xlsx","source_sheet":"Arbeitsflaechen"},"geometry":{"type":"Polygon","coordinates":[[[8.813929893718829,50.175409027919095],[8.81908023220364,50.174898518556404],[8.81912215212368,50.17476363202856],[8.81410236818214,50.17526213868637],[8.813929893718829,50.175409027919095]]]}},{"type":"Feature","properties":{"Gemeinde":"Niederdorfelden","Gemarkung":"Niederdorfelden","Flur":"23","Flurstueck":"18","Flurstueckskennzeichen":"06096802300018______","Betroffene Flaeche [m2]":136.6241727479514,"Flurstuecksflaeche amtlich [m2]":2647,"Anteil am Flurstueck [%]":5.166642323592563,"Mast Nr.":42,"Art / Typ":"Bremse M042-M048","Status":null,"Bemerkung":null,"Breite [m]":null,"Laenge [m]":null,"Hoehe [m]":null,"Quelle Oberflaeche":null,"Datum Oberflaeche":null,"source_excel":"Karben_Umwelt_Aufmass_Arbeitsflaechen_Flurstuecke.xlsx","source_sheet":"Arbeitsflaechen"},"geometry":{"type":"Polygon","coordinates":[[[8.81410236818214,50.17526213868637],[8.81912215212368,50.17476363202856],[8.81914398253518,50.174693730311596],[8.814190002786424,50.17518757648116],[8.81410236818214,50.17526213868637]]]}},{"type":"Feature","properties":{"Gemeinde":"Maintal","Gemarkung":"Hochstadt","Flur":"3","Flurstueck":"111/8","Flurstueckskennzeichen":"060921003001110008__","Betroffene Flaeche [m2]":18.7925495467781,"Flurstuecksflaeche amtlich [m2]":3670,"Anteil am Flurstueck [%]":0.5130747141084879,"Mast Nr.":46,"Arbeitsflaechen-ID":null,"Art / Typ":null,"Status":null,"Bemerkung":null,"Breite [m]":null,"Laenge [m]":null,"Hoehe [m]":null,"Quelle Oberflaeche":null,"Datum Oberflaeche":null,"source_excel":"Karben_Umwelt_Aufmass_Arbeitsflaechen_Flurstuecke.xlsx","source_sheet":"Zuwegung temporaer"},"geometry":{"type":"Polygon","coordinates":[[[8.834589330365258,50.16695031208873],[8.836379994822899,50.1676859147951],[8.836434925251488,50.167669542497464],[8.836459517580742,50.167553332270984],[8.836573316855716,50.16747418511116],[8.835193079120552,50.166906120310756],[8.834589330365258,50.16695031208873]]]}},{"type":"Feature","properties":{"Gemeinde":"Maintal","Gemarkung":"Hochstadt","Flur":"3","Flurstueck":"71","Flurstueckskennzeichen":"06092100300071______","Betroffene Flaeche [m2]":249.0079934939429,"Flurstuecksflaeche amtlich [m2]":1793,"Anteil am Flurstueck [%]":13.90537884593309,"Mast Nr.":46,"Arbeitsflaechen-ID":null,"Art / Typ":null,"Status":null,"Bemerkung":null,"Breite [m]":null,"Laenge [m]":null,"Hoehe [m]":null,"Quelle Oberflaeche":null,"Datum Oberflaeche":null,"source_excel":"Karben_Umwelt_Aufmass_Arbeitsflaechen_Flurstuecke.xlsx","source_sheet":"Zuwegung temporaer"},"geometry":{"type":"Polygon","coordinates":[[[8.8320124575709,50.16660072146713],[8.834393217513794,50.16695068920655],[8.834495491889172,50.16696574669329],[8.836534405419535,50.16780245798508],[8.836582826273437,50.1677692580534],[8.836491967321175,50.16773192284934],[8.836479103162471,50.16772668833758],[8.836379994822899,50.1676859147951],[8.834589330365258,50.16695031208873],[8.834523907931246,50.1669234443657],[8.834413514687553,50.16690775475836],[8.83323466316229,50.16673443062212],[8.833131409864288,50.166719280679985],[8.832072054853658,50.166563231539975],[8.832020990099904,50.166519285944396],[8.8320124575709,50.16660072146713]]]}},{"type":"Feature","properties":{"Gemeinde":"Maintal","Gemarkung":"Hochstadt","Flur":"8","Flurstueck":"1","Flurstueckskennzeichen":"06092100800001______","Betroffene Flaeche [m2]":116.1002749151511,"Flurstuecksflaeche amtlich [m2]":905,"Anteil am Flurstueck [%]":12.89224489800307,"Mast Nr.":47,"Arbeitsflaechen-ID":null,"Art / Typ":null,"Status":null,"Bemerkung":null,"Breite [m]":null,"Laenge [m]":null,"Hoehe [m]":null,"Quelle Oberflaeche":null,"Datum Oberflaeche":null,"source_excel":"Karben_Umwelt_Aufmass_Arbeitsflaechen_Flurstuecke.xlsx","source_sheet":"Zuwegung temporaer"},"geometry":{"type":"Polygon","coordinates":[[[8.839192114995713,50.166327892752754],[8.839238203398317,50.16635456920386],[8.839313394925298,50.1663498255845],[8.84000245942791,50.16576013583633],[8.840193777652223,50.1655963342704],[8.840100146161896,50.1655510655264],[8.839192114995713,50.166327892752754]]]}},{"type":"Feature","properties":{"Gemeinde":"Maintal","Gemarkung":"Hochstadt","Flur":"8","Flurstueck":"2","Flurstueckskennzeichen":"06092100800002______","Betroffene Flaeche [m2]":7.495935291199177,"Flurstuecksflaeche amtlich [m2]":905,"Anteil am Flurstueck [%]":0.8313536045885717,"Mast Nr.":47,"Arbeitsflaechen-ID":null,"Art / Typ":null,"Status":null,"Bemerkung":null,"Breite [m]":null,"Laenge [m]":null,"Hoehe [m]":null,"Quelle Oberflaeche":null,"Datum Oberflaeche":null,"source_excel":"Karben_Umwelt_Aufmass_Arbeitsflaechen_Flurstuecke.xlsx","source_sheet":"Zuwegung temporaer"},"geometry":{"type":"Polygon","coordinates":[[[8.839104802453042,50.166277073791036],[8.839192114995713,50.166327892752754],[8.840100146161896,50.1655510655264],[8.840006529150235,50.1655057067884],[8.839104802453042,50.166277073791036]]]}},{"type":"Feature","properties":{"Gemeinde":"Maintal","Gemarkung":"Wachenbuchen","Flur":"12","Flurstueck":"9/175","Flurstueckskennzeichen":"061016012000090175__","Betroffene Flaeche [m2]":74.91569644619995,"Flurstuecksflaeche amtlich [m2]":314996,"Anteil am Flurstueck [%]":0.02414388717239237,"Mast Nr.":51,"Arbeitsflaechen-ID":null,"Art / Typ":null,"Status":null,"Bemerkung":null,"Breite [m]":null,"Laenge [m]":null,"Hoehe [m]":null,"Quelle Oberflaeche":null,"Datum Oberflaeche":null,"source_excel":"Karben_Umwelt_Aufmass_Arbeitsflaechen_Flurstuecke.xlsx","source_sheet":"Zuwegung temporaer"},"geometry":{"type":"Polygon","coordinates":[[[8.852096741780688,50.15689627292076],[8.852205693589372,50.156915289621146],[8.852252878257374,50.15694905846687],[8.85229265915643,50.156982287243224],[8.852405236548933,50.156996901397534],[8.852460367107946,50.157041652708415],[8.85259835945896,50.15703140407749],[8.852635168377484,50.15707064582607],[8.852786331129016,50.15713880376476],[8.85293901424216,50.15716327148231],[8.853078757459974,50.15716648823715],[8.853147648044152,50.15723472148499],[8.85325619598771,50.15723971533197],[8.853307595208479,50.157264414313254],[8.853383544294415,50.15727233482502],[8.853482482729792,50.157261037527164],[8.85370637171594,50.15728829217848],[8.853860961378087,50.15732597299676],[8.854102183735867,50.157357205969646],[8.854193307121433,50.15734706744556],[8.854351999489287,50.15737540818746],[8.8546113391991,50.15739218277929],[8.854735614894727,50.15746444167226],[8.854887229893396,50.15752333380842],[8.855026905888634,50.157553799389085],[8.855079662224384,50.157556023738934],[8.85516406019478,50.15749688676113],[8.855298283044066,50.15743709229854],[8.855374126259141,50.157392136747006],[8.855495472860987,50.15742870372778],[8.855742626365352,50.157452655682576],[8.855819440446897,50.157452481243304],[8.855927143418612,50.15742213485204],[8.856218901699549,50.15736567346292],[8.856477486315507,50.157363654876875],[8.856788786306193,50.15737752084093],[8.856876903866109,50.15738931241656],[8.857081796812714,50.15714476209356],[8.857308953472785,50.156803672169225],[8.857689511026242,50.156489472467776],[8.857954037862497,50.15628041126378],[8.858841853210533,50.15557861793504],[8.85936921181886,50.15516281695684],[8.860077912348475,50.154602494651776],[8.86023997021475,50.15449722825907],[8.860476102915,50.15437390111933],[8.861805883729376,50.15401964148618],[8.862431423472085,50.153852802245694],[8.86465099027672,50.1532598662079],[8.864780666564322,50.15322046243022],[8.864789662462947,50.15311295179145],[8.864831992300022,50.15298380484153],[8.864866578931814,50.1529249625485],[8.864954070968961,50.15276898555716],[8.86506239759165,50.152715166524814],[8.865060302763746,50.152608992043625],[8.865205724579155,50.15245003323694],[8.865130589762876,50.152249194944794],[8.864956006953612,50.15213625454595],[8.864747834677354,50.15202687230134],[8.862162900635157,50.15288746507253],[8.85923454947891,50.1502743235208],[8.856926427044252,50.15050473108766],[8.856827666131679,50.15144601087011],[8.856226862060195,50.152386400238996],[8.855725592948959,50.15316699092343],[8.855100808778966,50.15384332186887],[8.854458471266003,50.154541320476206],[8.853908971249165,50.15513697469586],[8.85297629616744,50.156149113163906],[8.852807985938693,50.15629584994743],[8.85262580677812,50.15645462059987],[8.852551890566362,50.15651900345133],[8.852096741780688,50.15689627292076]]]}},{"type":"Feature","properties":{"Gemeinde":"Maintal","Gemarkung":"Wachenbuchen","Flur":"12","Flurstueck":"9/175","Flurstueckskennzeichen":"061016012000090175__","Betroffene Flaeche [m2]":212.7783094239149,"Flurstuecksflaeche amtlich [m2]":314996,"Anteil am Flurstueck [%]":0.06857435409617657,"Mast Nr.":51,"Arbeitsflaechen-ID":null,"Art / Typ":null,"Status":null,"Bemerkung":null,"Breite [m]":null,"Laenge [m]":null,"Hoehe [m]":null,"Quelle Oberflaeche":null,"Datum Oberflaeche":null,"source_excel":"Karben_Umwelt_Aufmass_Arbeitsflaechen_Flurstuecke.xlsx","source_sheet":"Zuwegung temporaer"},"geometry":{"type":"Polygon","coordinates":[[[8.852096741780688,50.15689627292076],[8.852205693589372,50.156915289621146],[8.852252878257374,50.15694905846687],[8.85229265915643,50.156982287243224],[8.852405236548933,50.156996901397534],[8.852460367107946,50.157041652708415],[8.85259835945896,50.15703140407749],[8.852635168377484,50.15707064582607],[8.852786331129016,50.15713880376476],[8.85293901424216,50.15716327148231],[8.853078757459974,50.15716648823715],[8.853147648044152,50.15723472148499],[8.85325619598771,50.15723971533197],[8.853307595208479,50.157264414313254],[8.853383544294415,50.15727233482502],[8.853482482729792,50.157261037527164],[8.85370637171594,50.15728829217848],[8.853860961378087,50.15732597299676],[8.854102183735867,50.157357205969646],[8.854193307121433,50.15734706744556],[8.854351999489287,50.15737540818746],[8.8546113391991,50.15739218277929],[8.854735614894727,50.15746444167226],[8.854887229893396,50.15752333380842],[8.855026905888634,50.157553799389085],[8.855079662224384,50.157556023738934],[8.85516406019478,50.15749688676113],[8.855298283044066,50.15743709229854],[8.855374126259141,50.157392136747006],[8.855495472860987,50.15742870372778],[8.855742626365352,50.157452655682576],[8.855819440446897,50.157452481243304],[8.855927143418612,50.15742213485204],[8.856218901699549,50.15736567346292],[8.856477486315507,50.157363654876875],[8.856788786306193,50.15737752084093],[8.856876903866109,50.15738931241656],[8.857081796812714,50.15714476209356],[8.857308953472785,50.156803672169225],[8.857689511026242,50.156489472467776],[8.857954037862497,50.15628041126378],[8.858841853210533,50.15557861793504],[8.85936921181886,50.15516281695684],[8.860077912348475,50.154602494651776],[8.86023997021475,50.15449722825907],[8.860476102915,50.15437390111933],[8.861805883729376,50.15401964148618],[8.862431423472085,50.153852802245694],[8.86465099027672,50.1532598662079],[8.864780666564322,50.15322046243022],[8.864789662462947,50.15311295179145],[8.864831992300022,50.15298380484153],[8.864866578931814,50.1529249625485],[8.864954070968961,50.15276898555716],[8.86506239759165,50.152715166524814],[8.865060302763746,50.152608992043625],[8.865205724579155,50.15245003323694],[8.865130589762876,50.152249194944794],[8.864956006953612,50.15213625454595],[8.864747834677354,50.15202687230134],[8.862162900635157,50.15288746507253],[8.85923454947891,50.1502743235208],[8.856926427044252,50.15050473108766],[8.856827666131679,50.15144601087011],[8.856226862060195,50.152386400238996],[8.855725592948959,50.15316699092343],[8.855100808778966,50.15384332186887],[8.854458471266003,50.154541320476206],[8.853908971249165,50.15513697469586],[8.85297629616744,50.156149113163906],[8.852807985938693,50.15629584994743],[8.85262580677812,50.15645462059987],[8.852551890566362,50.15651900345133],[8.852096741780688,50.15689627292076]]]}},{"type":"Feature","properties":{"Gemeinde":"Maintal","Gemarkung":"Wachenbuchen","Flur":"17","Flurstueck":"49/1","Flurstueckskennzeichen":"061016017000490001__","Betroffene Flaeche [m2]":18.16419721295361,"Flurstuecksflaeche amtlich [m2]":2463,"Anteil am Flurstueck [%]":0.7381142302413061,"Mast Nr.":50,"Arbeitsflaechen-ID":null,"Art / Typ":null,"Status":null,"Bemerkung":null,"Breite [m]":null,"Laenge [m]":null,"Hoehe [m]":null,"Quelle Oberflaeche":null,"Datum Oberflaeche":null,"source_excel":"Karben_Umwelt_Aufmass_Arbeitsflaechen_Flurstuecke.xlsx","source_sheet":"Zuwegung temporaer"},"geometry":{"type":"Polygon","coordinates":[[[8.849160499808411,50.16024270092229],[8.84933071015385,50.16035905889557],[8.850028674751913,50.1598333746033],[8.850596456701059,50.159405812057884],[8.850473906069602,50.15933743630708],[8.850406009434176,50.159300869986275],[8.849160499808411,50.16024270092229]]]}},{"type":"Feature","properties":{"Gemeinde":"Maintal","Gemarkung":"Wachenbuchen","Flur":"17","Flurstueck":"49/1","Flurstueckskennzeichen":"061016017000490001__","Betroffene Flaeche [m2]":12.40363914777688,"Flurstuecksflaeche amtlich [m2]":2463,"Anteil am Flurstueck [%]":0.5040301233474418,"Mast Nr.":50,"Arbeitsflaechen-ID":null,"Art / Typ":"Wegebau Rollenleine","Status":null,"Bemerkung":null,"Breite [m]":null,"Laenge [m]":null,"Hoehe [m]":null,"Quelle Oberflaeche":null,"Datum Oberflaeche":null,"source_excel":"Karben_Umwelt_Aufmass_Arbeitsflaechen_Flurstuecke.xlsx","source_sheet":"Zuwegung temporaer"},"geometry":{"type":"Polygon","coordinates":[[[8.849160499808411,50.16024270092229],[8.84933071015385,50.16035905889557],[8.850028674751913,50.1598333746033],[8.850596456701059,50.159405812057884],[8.850473906069602,50.15933743630708],[8.850406009434176,50.159300869986275],[8.849160499808411,50.16024270092229]]]}},{"type":"Feature","properties":{"Gemeinde":"Maintal","Gemarkung":"Wachenbuchen","Flur":"17","Flurstueck":"50/1","Flurstueckskennzeichen":"061016017000500001__","Betroffene Flaeche [m2]":13.43099499686696,"Flurstuecksflaeche amtlich [m2]":2585,"Anteil am Flurstueck [%]":0.5198866996968922,"Mast Nr.":50,"Arbeitsflaechen-ID":null,"Art / Typ":null,"Status":null,"Bemerkung":null,"Breite [m]":null,"Laenge [m]":null,"Hoehe [m]":null,"Quelle Oberflaeche":null,"Datum Oberflaeche":null,"source_excel":"Karben_Umwelt_Aufmass_Arbeitsflaechen_Flurstuecke.xlsx","source_sheet":"Zuwegung temporaer"},"geometry":{"type":"Polygon","coordinates":[[[8.84933071015385,50.16035905889557],[8.84951607887489,50.160485779136636],[8.850211204455949,50.15995012493966],[8.850782722044384,50.15950973214216],[8.850596456701059,50.159405812057884],[8.850028674751913,50.1598333746033],[8.84933071015385,50.16035905889557]]]}},{"type":"Feature","properties":{"Gemeinde":"Maintal","Gemarkung":"Wachenbuchen","Flur":"17","Flurstueck":"50/1","Flurstueckskennzeichen":"061016017000500001__","Betroffene Flaeche [m2]":8.332971207440028,"Flurstuecksflaeche amtlich [m2]":2585,"Anteil am Flurstueck [%]":0.322552491510554,"Mast Nr.":50,"Arbeitsflaechen-ID":null,"Art / Typ":"Wegebau Rollenleine","Status":null,"Bemerkung":null,"Breite [m]":null,"Laenge [m]":null,"Hoehe [m]":null,"Quelle Oberflaeche":null,"Datum Oberflaeche":null,"source_excel":"Karben_Umwelt_Aufmass_Arbeitsflaechen_Flurstuecke.xlsx","source_sheet":"Zuwegung temporaer"},"geometry":{"type":"Polygon","coordinates":[[[8.84933071015385,50.16035905889557],[8.84951607887489,50.160485779136636],[8.850211204455949,50.15995012493966],[8.850782722044384,50.15950973214216],[8.850596456701059,50.159405812057884],[8.850028674751913,50.1598333746033],[8.84933071015385,50.16035905889557]]]}},{"type":"Feature","properties":{"Gemeinde":"Maintal","Gemarkung":"Wachenbuchen","Flur":"22","Flurstueck":"13","Flurstueckskennzeichen":"06101602200013______","Betroffene Flaeche [m2]":1259.610796434262,"Flurstuecksflaeche amtlich [m2]":11114,"Anteil am Flurstueck [%]":11.35041126014934,"Mast Nr.":47,"Arbeitsflaechen-ID":null,"Art / Typ":"Kran+Hubsteiger System 3","Status":null,"Bemerkung":null,"Breite [m]":null,"Laenge [m]":null,"Hoehe [m]":null,"Quelle Oberflaeche":null,"Datum Oberflaeche":null,"source_excel":"Karben_Umwelt_Aufmass_Arbeitsflaechen_Flurstuecke.xlsx","source_sheet":"Zuwegung temporaer"},"geometry":{"type":"Polygon","coordinates":[[[8.84270362792591,50.164892784297365],[8.842712140681288,50.16490133993731],[8.843005134937261,50.16501197334622],[8.843349784341365,50.16508328283229],[8.845439421261785,50.16386046057203],[8.845221360800078,50.1637761950624],[8.84458331084432,50.16361045969462],[8.84365196482017,50.16424575531617],[8.84270362792591,50.164892784297365]]]}},{"type":"Feature","properties":{"Gemeinde":"Maintal","Gemarkung":"Wachenbuchen","Flur":"22","Flurstueck":"13","Flurstueckskennzeichen":"06101602200013______","Betroffene Flaeche [m2]":406.7270774048224,"Flurstuecksflaeche amtlich [m2]":11114,"Anteil am Flurstueck [%]":3.665036543233744,"Mast Nr.":48,"Arbeitsflaechen-ID":null,"Art / Typ":"kran+Hubsteriger System 1","Status":null,"Bemerkung":null,"Breite [m]":null,"Laenge [m]":null,"Hoehe [m]":null,"Quelle Oberflaeche":null,"Datum Oberflaeche":null,"source_excel":"Karben_Umwelt_Aufmass_Arbeitsflaechen_Flurstuecke.xlsx","source_sheet":"Zuwegung temporaer"},"geometry":{"type":"Polygon","coordinates":[[[8.84270362792591,50.164892784297365],[8.842712140681288,50.16490133993731],[8.843005134937261,50.16501197334622],[8.843349784341365,50.16508328283229],[8.845439421261785,50.16386046057203],[8.845221360800078,50.1637761950624],[8.84458331084432,50.16361045969462],[8.84365196482017,50.16424575531617],[8.84270362792591,50.164892784297365]]]}},{"type":"Feature","properties":{"Gemeinde":"Maintal","Gemarkung":"Wachenbuchen","Flur":"22","Flurstueck":"57/2","Flurstueckskennzeichen":"061016022000570002__","Betroffene Flaeche [m2]":27.01753804388886,"Flurstuecksflaeche amtlich [m2]":6685,"Anteil am Flurstueck [%]":0.402088293298194,"Mast Nr.":48,"Arbeitsflaechen-ID":null,"Art / Typ":"Wegebau Seilzugfläche","Status":null,"Bemerkung":null,"Breite [m]":null,"Laenge [m]":null,"Hoehe [m]":null,"Quelle Oberflaeche":null,"Datum Oberflaeche":null,"source_excel":"Karben_Umwelt_Aufmass_Arbeitsflaechen_Flurstuecke.xlsx","source_sheet":"Zuwegung temporaer"},"geometry":{"type":"Polygon","coordinates":[[[8.844553167627366,50.16353678708055],[8.844595350957647,50.163563186378674],[8.845052740387635,50.163682740477974],[8.846706927134939,50.16255911774042],[8.846597309074895,50.162482471708934],[8.846349035396795,50.16231212464302],[8.845421092597732,50.16294483087068],[8.844553167627366,50.16353678708055]]]}},{"type":"Feature","properties":{"Gemeinde":"Maintal","Gemarkung":"Wachenbuchen","Flur":"22","Flurstueck":"60","Flurstueckskennzeichen":"06101602200060______","Betroffene Flaeche [m2]":1271.236567428802,"Flurstuecksflaeche amtlich [m2]":2446,"Anteil am Flurstueck [%]":51.3760567670771,"Mast Nr.":48,"Arbeitsflaechen-ID":null,"Art / Typ":"Wegebau Seilzugfläche","Status":null,"Bemerkung":null,"Breite [m]":null,"Laenge [m]":null,"Hoehe [m]":null,"Quelle Oberflaeche":null,"Datum Oberflaeche":null,"source_excel":"Karben_Umwelt_Aufmass_Arbeitsflaechen_Flurstuecke.xlsx","source_sheet":"Zuwegung temporaer"},"geometry":{"type":"Polygon","coordinates":[[[8.842429248183354,50.16400116246987],[8.842490980759703,50.16395377689694],[8.84294860926324,50.16357688159518],[8.843064355383024,50.16349135405464],[8.84313015105049,50.163442714495105],[8.843583033196163,50.16310141673055],[8.843676122627205,50.16305056515822],[8.843812257239628,50.16297611768997],[8.844489136056016,50.162606256222624],[8.844817562174834,50.162360445039916],[8.84525366975912,50.16187841018218],[8.845330118452488,50.161824468216395],[8.84549136062473,50.1617727255853],[8.845648919067266,50.16173876758621],[8.84558992927054,50.16166237672706],[8.845432311034097,50.16171494275468],[8.845347544223904,50.16174351117699],[8.845273716554749,50.161770565162186],[8.845175089693754,50.161837959249176],[8.844984975747401,50.16203324904493],[8.844961385792221,50.16205893085497],[8.844913781946264,50.16210715505572],[8.84485238685733,50.16218151480699],[8.84477229983051,50.16227778544151],[8.844749965903235,50.16230463808099],[8.844748136219037,50.16230760359167],[8.844740253962087,50.162320544137664],[8.844638270082445,50.16239502938933],[8.844578228937442,50.162435870886696],[8.844523220087149,50.16247912942879],[8.844506952576506,50.16249168998845],[8.84441771202363,50.16256080481281],[8.844025439558933,50.16277633693611],[8.843704092891878,50.162952849123954],[8.843640849736948,50.1629876599751],[8.84361995138865,50.16299904498116],[8.843511446352686,50.16305869866497],[8.843476790408275,50.16308561539959],[8.843379405937347,50.16316110404767],[8.843320902179821,50.16320643487233],[8.84329551328954,50.16322518868283],[8.843283723786431,50.16323398670646],[8.843172890157485,50.163316103455635],[8.843093775479309,50.16337462722904],[8.842884180899322,50.16352863264129],[8.84287028668745,50.163538776846394],[8.842641557405408,50.16372503469605],[8.842436958839505,50.1638916283935],[8.842429248183354,50.16400116246987]]]}},{"type":"Feature","properties":{"Gemeinde":"Maintal","Gemarkung":"Wachenbuchen","Flur":"22","Flurstueck":"61/1","Flurstueckskennzeichen":"061016022000610001__","Betroffene Flaeche [m2]":1430.3339344678,"Flurstuecksflaeche amtlich [m2]":3945,"Anteil am Flurstueck [%]":35.66632152136165,"Mast Nr.":47,"Arbeitsflaechen-ID":null,"Art / Typ":"Kran Wegebau","Status":null,"Bemerkung":null,"Breite [m]":null,"Laenge [m]":null,"Hoehe [m]":null,"Quelle Oberflaeche":null,"Datum Oberflaeche":null,"source_excel":"Karben_Umwelt_Aufmass_Arbeitsflaechen_Flurstuecke.xlsx","source_sheet":"Zuwegung temporaer"},"geometry":{"type":"Polygon","coordinates":[[[8.842342695583135,50.16470706760517],[8.842606440844405,50.164906673988405],[8.842981508008412,50.16504816844712],[8.84359456775345,50.165174432103996],[8.844257714210915,50.16556778566258],[8.845011889865033,50.16601512976536],[8.846685693525238,50.167008899481054],[8.846744907567023,50.16704403544924],[8.847472845722086,50.167478782473054],[8.84791651608753,50.167743772871646],[8.84797314484202,50.167804348277805],[8.848540025680826,50.1684109469737],[8.849348827306367,50.16927650041189],[8.849405310817257,50.16925077045324],[8.849376297178162,50.169219641284464],[8.848950143361323,50.16876138465034],[8.847978744424116,50.16771647720692],[8.847274479987467,50.16729791736535],[8.847066467751304,50.167174284742835],[8.846343715953534,50.16674473142919],[8.846109127096767,50.16660548465847],[8.845874456605062,50.16646592251877],[8.845618153922544,50.16631356895002],[8.845527092850018,50.16625942213017],[8.845505150445453,50.166246900559386],[8.844479471157204,50.1656367594454],[8.84388366840543,50.16528226996876],[8.843658611132014,50.16514844528711],[8.843349784341365,50.16508328283229],[8.843005134937261,50.16501197334622],[8.842712140681288,50.16490133993731],[8.84270362792591,50.164892784297365],[8.842551158788702,50.164775964081805],[8.842460280991546,50.16470633675412],[8.842421155647397,50.16463992740406],[8.842422725026246,50.16463103466171],[8.842433378203285,50.16449529664614],[8.842436072532797,50.16444233579247],[8.842440975080992,50.164399100235194],[8.842451070816033,50.16430939174394],[8.842461872107025,50.164213739303015],[8.842475288480582,50.16409346537057],[8.842490980759703,50.16395377689694],[8.842429248183354,50.16400116246987],[8.842425781844247,50.16403342753691],[8.842383326177247,50.16443920633863],[8.842342695583135,50.16470706760517]]]}},{"type":"Feature","properties":{"Gemeinde":"Maintal","Gemarkung":"Wachenbuchen","Flur":"22","Flurstueck":"63/1","Flurstueckskennzeichen":"061016022000630001__","Betroffene Flaeche [m2]":590.4327370398777,"Flurstuecksflaeche amtlich [m2]":4106,"Anteil am Flurstueck [%]":14.61858401790859,"Mast Nr.":48,"Arbeitsflaechen-ID":null,"Art / Typ":"Wegebau Seilzugfläche","Status":null,"Bemerkung":null,"Breite [m]":null,"Laenge [m]":null,"Hoehe [m]":null,"Quelle Oberflaeche":null,"Datum Oberflaeche":null,"source_excel":"Karben_Umwelt_Aufmass_Arbeitsflaechen_Flurstuecke.xlsx","source_sheet":"Zuwegung temporaer"},"geometry":{"type":"Polygon","coordinates":[[[8.843676122627205,50.16305056515822],[8.843755055716036,50.16305166067843],[8.843855032511671,50.16312138018961],[8.843957523887362,50.1631929017529],[8.844019793203943,50.16323793642629],[8.844085854242872,50.16327947756527],[8.844245609572933,50.16338991996576],[8.844318363160653,50.16344017594823],[8.84441499622965,50.16350531264393],[8.844555474954447,50.16360241796107],[8.84458331084432,50.16361045969462],[8.845221360800078,50.1637761950624],[8.845439421261785,50.16386046057203],[8.845838620500645,50.16401688067181],[8.846079217037788,50.16418209213482],[8.846211893247457,50.16427333912353],[8.847061916785835,50.16485325760088],[8.847596623390611,50.16522031392345],[8.847680826678301,50.16527805665257],[8.847915569292033,50.16543884063787],[8.848131847824792,50.165585605650044],[8.848348208333288,50.16573343163082],[8.849016173593474,50.166189801804215],[8.849566438231145,50.166565737070314],[8.849689936000402,50.16665010588749],[8.850002699267408,50.16686378014514],[8.850444470774066,50.16716558806671],[8.851151123958253,50.16764833847254],[8.851480193371376,50.16787281316693],[8.851837491008279,50.16811653367825],[8.85191740761468,50.168073986998515],[8.851853183696852,50.16806796920125],[8.851601132805381,50.16789473272421],[8.851390539911574,50.16774997813555],[8.851323514182392,50.16770394305433],[8.850627472494274,50.1672255243722],[8.850560867729811,50.16717966926349],[8.850498299531667,50.16713706607277],[8.850097061446625,50.16686278672609],[8.84963032543531,50.166544459516544],[8.84900046134592,50.166114979942954],[8.848895995427275,50.16604363118462],[8.84826126844835,50.16561083151559],[8.84808753634589,50.16549174235968],[8.847765097495142,50.165270522395424],[8.847651978919508,50.165191444484016],[8.847446143691771,50.165050646180056],[8.847128877475248,50.16483374824898],[8.847109891037613,50.164820772184434],[8.84660325480515,50.16447442741895],[8.846262232816139,50.16424112699962],[8.84609325945984,50.1641256386485],[8.845980713451203,50.16404871836329],[8.845885896396204,50.16398386419494],[8.84585988541135,50.163974206311195],[8.845715225544842,50.16391782996452],[8.845573210238062,50.16386206853158],[8.845255218601297,50.16373614579306],[8.845052740387635,50.163682740477974],[8.844595350957647,50.163563186378674],[8.844553167627366,50.16353678708055],[8.843810275398269,50.16302575183833],[8.843812257239628,50.16297611768997],[8.843676122627205,50.16305056515822]]]}},{"type":"Feature","properties":{"Gemeinde":"Maintal","Gemarkung":"Wachenbuchen","Flur":"22","Flurstueck":"9","Flurstueckskennzeichen":"06101602200009______","Betroffene Flaeche [m2]":115.2382735221873,"Flurstuecksflaeche amtlich [m2]":1453,"Anteil am Flurstueck [%]":7.843432638715769,"Mast Nr.":48,"Arbeitsflaechen-ID":null,"Art / Typ":"kran+Hubsteriger System 1","Status":null,"Bemerkung":null,"Breite [m]":null,"Laenge [m]":null,"Hoehe [m]":null,"Quelle Oberflaeche":null,"Datum Oberflaeche":null,"source_excel":"Karben_Umwelt_Aufmass_Arbeitsflaechen_Flurstuecke.xlsx","source_sheet":"Zuwegung temporaer"},"geometry":{"type":"Polygon","coordinates":[[[8.842421155647397,50.16463992740406],[8.842460280991546,50.16470633675412],[8.843060610189543,50.164297364741195],[8.844318363160653,50.16344017594823],[8.844245609572933,50.16338991996576],[8.842422725026246,50.16463103466171],[8.842421155647397,50.16463992740406]]]}},{"type":"Feature","properties":{"Gemeinde":"Maintal","Gemarkung":"Wachenbuchen","Flur":"22","Flurstueck":"95/8","Flurstueckskennzeichen":"061016022000950008__","Betroffene Flaeche [m2]":146.7850359437088,"Flurstuecksflaeche amtlich [m2]":3042,"Anteil am Flurstueck [%]":4.8587134421165,"Mast Nr.":48,"Arbeitsflaechen-ID":null,"Art / Typ":"kran+Hubsteriger System 1","Status":null,"Bemerkung":null,"Breite [m]":null,"Laenge [m]":null,"Hoehe [m]":null,"Quelle Oberflaeche":null,"Datum Oberflaeche":null,"source_excel":"Karben_Umwelt_Aufmass_Arbeitsflaechen_Flurstuecke.xlsx","source_sheet":"Zuwegung temporaer"},"geometry":{"type":"Polygon","coordinates":[[[8.842422725026246,50.16463103466171],[8.844245609572933,50.16338991996576],[8.844085854242872,50.16327947756527],[8.84325971275554,50.163841809601934],[8.842440975080992,50.164399100235194],[8.842436072532797,50.16444233579247],[8.842433378203285,50.16449529664614],[8.842422725026246,50.16463103466171]]]}},{"type":"Feature","properties":{"Gemeinde":"Maintal","Gemarkung":"Wachenbuchen","Flur":"22","Flurstueck":"96/12","Flurstueckskennzeichen":"061016022000960012__","Betroffene Flaeche [m2]":423.6762953662599,"Flurstuecksflaeche amtlich [m2]":5181,"Anteil am Flurstueck [%]":8.134840451270072,"Mast Nr.":48,"Arbeitsflaechen-ID":null,"Art / Typ":"kran+Hubsteriger System 1","Status":null,"Bemerkung":null,"Breite [m]":null,"Laenge [m]":null,"Hoehe [m]":null,"Quelle Oberflaeche":null,"Datum Oberflaeche":null,"source_excel":"Karben_Umwelt_Aufmass_Arbeitsflaechen_Flurstuecke.xlsx","source_sheet":"Zuwegung temporaer"},"geometry":{"type":"Polygon","coordinates":[[[8.842460280991546,50.16470633675412],[8.842551158788702,50.164775964081805],[8.84270362792591,50.164892784297365],[8.84365196482017,50.16424575531617],[8.84458331084432,50.16361045969462],[8.844555474954447,50.16360241796107],[8.84441499622965,50.16350531264393],[8.844318363160653,50.16344017594823],[8.843060610189543,50.164297364741195],[8.842460280991546,50.16470633675412]]]}},{"type":"Feature","properties":{"Gemeinde":"Maintal","Gemarkung":"Wachenbuchen","Flur":"22","Flurstueck":"99/59","Flurstueckskennzeichen":"061016022000990059__","Betroffene Flaeche [m2]":78.8319395139927,"Flurstuecksflaeche amtlich [m2]":14956,"Anteil am Flurstueck [%]":0.5252903840984331,"Mast Nr.":48,"Arbeitsflaechen-ID":null,"Art / Typ":"Wegebau Seilzugfläche","Status":null,"Bemerkung":null,"Breite [m]":null,"Laenge [m]":null,"Hoehe [m]":null,"Quelle Oberflaeche":null,"Datum Oberflaeche":null,"source_excel":"Karben_Umwelt_Aufmass_Arbeitsflaechen_Flurstuecke.xlsx","source_sheet":"Zuwegung temporaer"},"geometry":{"type":"Polygon","coordinates":[[[8.843810275398269,50.16302575183833],[8.844553167627366,50.16353678708055],[8.845421092597732,50.16294483087068],[8.846349035396795,50.16231212464302],[8.845577960027622,50.16178371425952],[8.84549136062473,50.1617727255853],[8.845330118452488,50.161824468216395],[8.84525366975912,50.16187841018218],[8.844817562174834,50.162360445039916],[8.844489136056016,50.162606256222624],[8.843812257239628,50.16297611768997],[8.843810275398269,50.16302575183833]]]}},{"type":"Feature","properties":{"Gemeinde":"Maintal","Gemarkung":"Wachenbuchen","Flur":"23","Flurstueck":"24/3","Flurstueckskennzeichen":"061016023000240003__","Betroffene Flaeche [m2]":14.33255841094879,"Flurstuecksflaeche amtlich [m2]":20000,"Anteil am Flurstueck [%]":0.07196842574451567,"Mast Nr.":47,"Arbeitsflaechen-ID":null,"Art / Typ":"Kran Wegebau","Status":null,"Bemerkung":null,"Breite [m]":null,"Laenge [m]":null,"Hoehe [m]":null,"Quelle Oberflaeche":null,"Datum Oberflaeche":null,"source_excel":"Karben_Umwelt_Aufmass_Arbeitsflaechen_Flurstuecke.xlsx","source_sheet":"Zuwegung temporaer"},"geometry":{"type":"Polygon","coordinates":[[[8.840961723701126,50.167068342326964],[8.84122734048222,50.167119412730166],[8.841908932733116,50.16742862281668],[8.843301177491066,50.16679440484805],[8.845011889865033,50.16601512976536],[8.844257714210915,50.16556778566258],[8.842556248204286,50.1663423494786],[8.840961723701126,50.167068342326964]]]}},{"type":"Feature","properties":{"Gemeinde":"Maintal","Gemarkung":"Wachenbuchen","Flur":"23","Flurstueck":"24/4","Flurstueckskennzeichen":"061016023000240004__","Betroffene Flaeche [m2]":46.19863697563238,"Flurstuecksflaeche amtlich [m2]":53298,"Anteil am Flurstueck [%]":0.08677627717573325,"Mast Nr.":47,"Arbeitsflaechen-ID":null,"Art / Typ":"Kran Wegebau","Status":null,"Bemerkung":null,"Breite [m]":null,"Laenge [m]":null,"Hoehe [m]":null,"Quelle Oberflaeche":null,"Datum Oberflaeche":null,"source_excel":"Karben_Umwelt_Aufmass_Arbeitsflaechen_Flurstuecke.xlsx","source_sheet":"Zuwegung temporaer"},"geometry":{"type":"Polygon","coordinates":[[[8.838848460599458,50.16665941365142],[8.838855210869285,50.16669232233756],[8.840167317003838,50.16692655295716],[8.840961723701126,50.167068342326964],[8.842556248204286,50.1663423494786],[8.844257714210915,50.16556778566258],[8.84359456775345,50.165174432103996],[8.842981508008412,50.16504816844712],[8.842606440844405,50.164906673988405],[8.842342695583135,50.16470706760517],[8.842383326177247,50.16443920633863],[8.842425781844247,50.16403342753691],[8.842393909498682,50.164022420848575],[8.841232995082073,50.16490953559525],[8.840928714555966,50.1650748930722],[8.840082334818053,50.165799054083564],[8.839320982672632,50.16645042274746],[8.838848460599458,50.16665941365142]]]}},{"type":"Feature","properties":{"Gemeinde":"Maintal","Gemarkung":"Wachenbuchen","Flur":"23","Flurstueck":"36","Flurstueckskennzeichen":"06101602300036______","Betroffene Flaeche [m2]":686.4281635988332,"Flurstuecksflaeche amtlich [m2]":773,"Anteil am Flurstueck [%]":90.25438302772977,"Mast Nr.":46,"Arbeitsflaechen-ID":null,"Art / Typ":null,"Status":null,"Bemerkung":null,"Breite [m]":null,"Laenge [m]":null,"Hoehe [m]":null,"Quelle Oberflaeche":null,"Datum Oberflaeche":null,"source_excel":"Karben_Umwelt_Aufmass_Arbeitsflaechen_Flurstuecke.xlsx","source_sheet":"Zuwegung temporaer"},"geometry":{"type":"Polygon","coordinates":[[[8.836617867177315,50.16783691372953],[8.836837043767025,50.167927465575005],[8.836971933829528,50.16798321865512],[8.83703493820094,50.168009640904785],[8.83758131224086,50.16803701879513],[8.838001574621009,50.16805837233807],[8.838100931422042,50.16806353839285],[8.83827447600143,50.1680717846223],[8.838448986795074,50.16808003193621],[8.838718817699577,50.16809469803778],[8.839209172523308,50.168121450849576],[8.839248051346534,50.16808554745513],[8.838006034757715,50.16802304192488],[8.837052418613606,50.16797505729113],[8.836702839786703,50.16783071956791],[8.83669289250483,50.16778719358556],[8.836617867177315,50.16783691372953]]]}},{"type":"Feature","properties":{"Gemeinde":"Maintal","Gemarkung":"Wachenbuchen","Flur":"23","Flurstueck":"37","Flurstueckskennzeichen":"06101602300037______","Betroffene Flaeche [m2]":27.85945224083537,"Flurstuecksflaeche amtlich [m2]":4343,"Anteil am Flurstueck [%]":0.6334599114094875,"Mast Nr.":46,"Arbeitsflaechen-ID":null,"Art / Typ":null,"Status":null,"Bemerkung":null,"Breite [m]":null,"Laenge [m]":null,"Hoehe [m]":null,"Quelle Oberflaeche":null,"Datum Oberflaeche":null,"source_excel":"Karben_Umwelt_Aufmass_Arbeitsflaechen_Flurstuecke.xlsx","source_sheet":"Zuwegung temporaer"},"geometry":{"type":"Polygon","coordinates":[[[8.836534405419535,50.16780245798508],[8.836617867177315,50.16783691372953],[8.83669289250483,50.16778719358556],[8.836849749875284,50.16767890381967],[8.837203435310586,50.16743441795082],[8.837879831548085,50.16708778956875],[8.837932262937992,50.16706475766219],[8.838743191969641,50.16670592739699],[8.838848460599458,50.16665941365142],[8.839320982672632,50.16645042274746],[8.840082334818053,50.165799054083564],[8.840928714555966,50.1650748930722],[8.841232995082073,50.16490953559525],[8.842393909498682,50.164022420848575],[8.842425781844247,50.16403342753691],[8.842429248183354,50.16400116246987],[8.842436958839505,50.1638916283935],[8.842370314366669,50.16394252385016],[8.842145114578956,50.16411448535205],[8.841807803747393,50.16437186982781],[8.841621046688955,50.16451438297517],[8.84125147345759,50.164796436797054],[8.841229870708503,50.16481294687513],[8.84116236753667,50.16486446103037],[8.84108914234513,50.16483010348161],[8.840853066838884,50.165032140840495],[8.840256234653108,50.1655429250458],[8.840193777652223,50.1655963342704],[8.84000245942791,50.16576013583633],[8.839313394925298,50.1663498255845],[8.839251062138592,50.16640314452947],[8.83882100056827,50.16659349596428],[8.83782391848614,50.16703489992698],[8.837764881173218,50.16706530646836],[8.837138680135615,50.16738774829272],[8.836795378622114,50.16762157291685],[8.836582826273437,50.1677692580534],[8.836534405419535,50.16780245798508]]]}},{"type":"Feature","properties":{"Gemeinde":"Maintal","Gemarkung":"Wachenbuchen","Flur":"23","Flurstueck":"37","Flurstueckskennzeichen":"06101602300037______","Betroffene Flaeche [m2]":1325.980921374085,"Flurstuecksflaeche amtlich [m2]":4343,"Anteil am Flurstueck [%]":30.14975849931185,"Mast Nr.":47,"Arbeitsflaechen-ID":null,"Art / Typ":null,"Status":null,"Bemerkung":null,"Breite [m]":null,"Laenge [m]":null,"Hoehe [m]":null,"Quelle Oberflaeche":null,"Datum Oberflaeche":null,"source_excel":"Karben_Umwelt_Aufmass_Arbeitsflaechen_Flurstuecke.xlsx","source_sheet":"Zuwegung temporaer"},"geometry":{"type":"Polygon","coordinates":[[[8.836534405419535,50.16780245798508],[8.836617867177315,50.16783691372953],[8.83669289250483,50.16778719358556],[8.836849749875284,50.16767890381967],[8.837203435310586,50.16743441795082],[8.837879831548085,50.16708778956875],[8.837932262937992,50.16706475766219],[8.838743191969641,50.16670592739699],[8.838848460599458,50.16665941365142],[8.839320982672632,50.16645042274746],[8.840082334818053,50.165799054083564],[8.840928714555966,50.1650748930722],[8.841232995082073,50.16490953559525],[8.842393909498682,50.164022420848575],[8.842425781844247,50.16403342753691],[8.842429248183354,50.16400116246987],[8.842436958839505,50.1638916283935],[8.842370314366669,50.16394252385016],[8.842145114578956,50.16411448535205],[8.841807803747393,50.16437186982781],[8.841621046688955,50.16451438297517],[8.84125147345759,50.164796436797054],[8.841229870708503,50.16481294687513],[8.84116236753667,50.16486446103037],[8.84108914234513,50.16483010348161],[8.840853066838884,50.165032140840495],[8.840256234653108,50.1655429250458],[8.840193777652223,50.1655963342704],[8.84000245942791,50.16576013583633],[8.839313394925298,50.1663498255845],[8.839251062138592,50.16640314452947],[8.83882100056827,50.16659349596428],[8.83782391848614,50.16703489992698],[8.837764881173218,50.16706530646836],[8.837138680135615,50.16738774829272],[8.836795378622114,50.16762157291685],[8.836582826273437,50.1677692580534],[8.836534405419535,50.16780245798508]]]}},{"type":"Feature","properties":{"Gemeinde":"Maintal","Gemarkung":"Wachenbuchen","Flur":"23","Flurstueck":"50/26","Flurstueckskennzeichen":"061016023000500026__","Betroffene Flaeche [m2]":9.207100831351951,"Flurstuecksflaeche amtlich [m2]":5634,"Anteil am Flurstueck [%]":0.1631104486830876,"Mast Nr.":47,"Arbeitsflaechen-ID":null,"Art / Typ":null,"Status":null,"Bemerkung":null,"Breite [m]":null,"Laenge [m]":null,"Hoehe [m]":null,"Quelle Oberflaeche":null,"Datum Oberflaeche":null,"source_excel":"Karben_Umwelt_Aufmass_Arbeitsflaechen_Flurstuecke.xlsx","source_sheet":"Zuwegung temporaer"},"geometry":{"type":"Polygon","coordinates":[[[8.836849749875284,50.16767890381967],[8.838360415436773,50.1677790032087],[8.839694880179573,50.16786742678721],[8.840098345785009,50.16767281745608],[8.838678750341353,50.16755595883786],[8.837203435310586,50.16743441795082],[8.836849749875284,50.16767890381967]]]}},{"type":"Feature","properties":{"Gemeinde":"Maintal","Gemarkung":"Wachenbuchen","Flur":"23","Flurstueck":"54/25","Flurstueckskennzeichen":"061016023000540025__","Betroffene Flaeche [m2]":71.23865982797889,"Flurstuecksflaeche amtlich [m2]":8375,"Anteil am Flurstueck [%]":0.8482048192926848,"Mast Nr.":47,"Arbeitsflaechen-ID":null,"Art / Typ":null,"Status":null,"Bemerkung":null,"Breite [m]":null,"Laenge [m]":null,"Hoehe [m]":null,"Quelle Oberflaeche":null,"Datum Oberflaeche":null,"source_excel":"Karben_Umwelt_Aufmass_Arbeitsflaechen_Flurstuecke.xlsx","source_sheet":"Zuwegung temporaer"},"geometry":{"type":"Polygon","coordinates":[[[8.837932262937992,50.16706475766219],[8.839431537055011,50.1672540187537],[8.840639503402858,50.16740709286243],[8.84117364419999,50.16714855118347],[8.840148873690598,50.166960955843656],[8.838743191969641,50.16670592739699],[8.837932262937992,50.16706475766219]]]}},{"type":"Feature","properties":{"Gemeinde":"Maintal","Gemarkung":"Wachenbuchen","Flur":"23","Flurstueck":"55/25","Flurstueckskennzeichen":"061016023000550025__","Betroffene Flaeche [m2]":101.5991334787754,"Flurstuecksflaeche amtlich [m2]":8540,"Anteil am Flurstueck [%]":1.18900818580731,"Mast Nr.":47,"Arbeitsflaechen-ID":null,"Art / Typ":null,"Status":null,"Bemerkung":null,"Breite [m]":null,"Laenge [m]":null,"Hoehe [m]":null,"Quelle Oberflaeche":null,"Datum Oberflaeche":null,"source_excel":"Karben_Umwelt_Aufmass_Arbeitsflaechen_Flurstuecke.xlsx","source_sheet":"Zuwegung temporaer"},"geometry":{"type":"Polygon","coordinates":[[[8.837203435310586,50.16743441795082],[8.838678750341353,50.16755595883786],[8.840098345785009,50.16767281745608],[8.840639503402858,50.16740709286243],[8.839431537055011,50.1672540187537],[8.837932262937992,50.16706475766219],[8.837879831548085,50.16708778956875],[8.837203435310586,50.16743441795082]]]}},{"type":"Feature","properties":{"Gemeinde":"Niederdorfelden","Gemarkung":"Niederdorfelden","Flur":"22","Flurstueck":"25","Flurstueckskennzeichen":"06096802200025______","Betroffene Flaeche [m2]":16.4034455814707,"Flurstuecksflaeche amtlich [m2]":36639,"Anteil am Flurstueck [%]":0.04480493001865965,"Mast Nr.":42,"Arbeitsflaechen-ID":null,"Art / Typ":null,"Status":null,"Bemerkung":null,"Breite [m]":null,"Laenge [m]":null,"Hoehe [m]":null,"Quelle Oberflaeche":null,"Datum Oberflaeche":null,"source_excel":"Karben_Umwelt_Aufmass_Arbeitsflaechen_Flurstuecke.xlsx","source_sheet":"Zuwegung temporaer"},"geometry":{"type":"Polygon","coordinates":[[[8.818682211068674,50.17645407512971],[8.818723329201951,50.17650213914114],[8.820382202634857,50.176940365960036],[8.82115775929044,50.174469628980674],[8.819502068742015,50.174002835692406],[8.819437888544002,50.17402134410335],[8.818682211068674,50.17645407512971]]]}},{"type":"Feature","properties":{"Gemeinde":"Niederdorfelden","Gemarkung":"Niederdorfelden","Flur":"22","Flurstueck":"25","Flurstueckskennzeichen":"06096802200025______","Betroffene Flaeche [m2]":197.2138037633319,"Flurstuecksflaeche amtlich [m2]":36639,"Anteil am Flurstueck [%]":0.5386765013754831,"Mast Nr.":42,"Arbeitsflaechen-ID":null,"Art / Typ":null,"Status":null,"Bemerkung":null,"Breite [m]":null,"Laenge [m]":null,"Hoehe [m]":null,"Quelle Oberflaeche":null,"Datum Oberflaeche":null,"source_excel":"Karben_Umwelt_Aufmass_Arbeitsflaechen_Flurstuecke.xlsx","source_sheet":"Zuwegung temporaer"},"geometry":{"type":"Polygon","coordinates":[[[8.818682211068674,50.17645407512971],[8.818723329201951,50.17650213914114],[8.820382202634857,50.176940365960036],[8.82115775929044,50.174469628980674],[8.819502068742015,50.174002835692406],[8.819437888544002,50.17402134410335],[8.818682211068674,50.17645407512971]]]}},{"type":"Feature","properties":{"Gemeinde":"Niederdorfelden","Gemarkung":"Niederdorfelden","Flur":"22","Flurstueck":"26","Flurstueckskennzeichen":"06096802200026______","Betroffene Flaeche [m2]":625.3517586518589,"Flurstuecksflaeche amtlich [m2]":1731,"Anteil am Flurstueck [%]":36.12879369963013,"Mast Nr.":42,"Arbeitsflaechen-ID":null,"Art / Typ":null,"Status":null,"Bemerkung":null,"Breite [m]":null,"Laenge [m]":null,"Hoehe [m]":null,"Quelle Oberflaeche":null,"Datum Oberflaeche":null,"source_excel":"Karben_Umwelt_Aufmass_Arbeitsflaechen_Flurstuecke.xlsx","source_sheet":"Zuwegung temporaer"},"geometry":{"type":"Polygon","coordinates":[[[8.818537255454094,50.17646688078327],[8.818723329201951,50.17650213914114],[8.818682211068674,50.17645407512971],[8.819437888544002,50.17402134410335],[8.819502068742015,50.174002835692406],[8.819321942071904,50.173952658119994],[8.819358990069096,50.17400270322504],[8.81924573889985,50.174366640657695],[8.819211716676342,50.1744759072297],[8.81914398253518,50.174693730311596],[8.81912215212368,50.17476363202856],[8.81908023220364,50.174898518556404],[8.819020165954258,50.17509179145539],[8.818932073217669,50.175374841601155],[8.81884427590948,50.1756572625623],[8.818785639517564,50.1758459597074],[8.81872727245733,50.17603367691443],[8.818697955201074,50.17612767020283],[8.818602896237277,50.176433454464494],[8.818537255454094,50.17646688078327]]]}},{"type":"Feature","properties":{"Gemeinde":"Niederdorfelden","Gemarkung":"Niederdorfelden","Flur":"23","Flurstueck":"17","Flurstueckskennzeichen":"06096802300017______","Betroffene Flaeche [m2]":8.83225924715827,"Flurstuecksflaeche amtlich [m2]":5263,"Anteil am Flurstueck [%]":0.1679529639112516,"Mast Nr.":42,"Arbeitsflaechen-ID":null,"Art / Typ":null,"Status":null,"Bemerkung":null,"Breite [m]":null,"Laenge [m]":null,"Hoehe [m]":null,"Quelle Oberflaeche":null,"Datum Oberflaeche":null,"source_excel":"Karben_Umwelt_Aufmass_Arbeitsflaechen_Flurstuecke.xlsx","source_sheet":"Zuwegung temporaer"},"geometry":{"type":"Polygon","coordinates":[[[8.813929893718829,50.175409027919095],[8.81908023220364,50.174898518556404],[8.81912215212368,50.17476363202856],[8.81410236818214,50.17526213868637],[8.813929893718829,50.175409027919095]]]}},{"type":"Feature","properties":{"Gemeinde":"Niederdorfelden","Gemarkung":"Niederdorfelden","Flur":"23","Flurstueck":"19","Flurstueckskennzeichen":"06096802300019______","Betroffene Flaeche [m2]":10.24976364628502,"Flurstuecksflaeche amtlich [m2]":8179,"Anteil am Flurstueck [%]":0.1254216217243219,"Mast Nr.":42,"Arbeitsflaechen-ID":null,"Art / Typ":null,"Status":null,"Bemerkung":null,"Breite [m]":null,"Laenge [m]":null,"Hoehe [m]":null,"Quelle Oberflaeche":null,"Datum Oberflaeche":null,"source_excel":"Karben_Umwelt_Aufmass_Arbeitsflaechen_Flurstuecke.xlsx","source_sheet":"Zuwegung temporaer"},"geometry":{"type":"Polygon","coordinates":[[[8.814190002786424,50.17518757648116],[8.81914398253518,50.174693730311596],[8.819211716676342,50.1744759072297],[8.81447441654494,50.17494555850093],[8.814190002786424,50.17518757648116]]]}},{"type":"Feature","properties":{"Gemeinde":"Maintal","Gemarkung":"Hochstadt","Flur":"1","Flurstueck":"15","Flurstueckskennzeichen":"06092100100015______","Betroffene Flaeche [m2]":41.02782622270873,"Flurstuecksflaeche amtlich [m2]":1544,"Anteil am Flurstueck [%]":2.669402537617452,"Mast Nr.":"45","Arbeitsflaechen-ID":null,"Art / Typ":null,"Status":null,"Bemerkung":null,"Breite [m]":null,"Laenge [m]":null,"Hoehe [m]":null,"Quelle Oberflaeche":null,"Datum Oberflaeche":null,"source_excel":"Karben_Umwelt_Aufmass_Arbeitsflaechen_Flurstuecke.xlsx","source_sheet":"Gerueste"},"geometry":{"type":"Polygon","coordinates":[[[8.829654914538457,50.16934835631397],[8.829659422319736,50.16941956681376],[8.831471833698679,50.16935547644925],[8.831468040207929,50.1692834576148],[8.831410202761555,50.16924948506063],[8.82970712560604,50.169310326149876],[8.829654914538457,50.16934835631397]]]}},{"type":"Feature","properties":{"Gemeinde":"Maintal","Gemarkung":"Hochstadt","Flur":"1","Flurstueck":"16","Flurstueckskennzeichen":"06092100100016______","Betroffene Flaeche [m2]":60.66191385415605,"Flurstuecksflaeche amtlich [m2]":1989,"Anteil am Flurstueck [%]":3.053016395632562,"Mast Nr.":"45","Arbeitsflaechen-ID":null,"Art / Typ":null,"Status":null,"Bemerkung":null,"Breite [m]":null,"Laenge [m]":null,"Hoehe [m]":null,"Quelle Oberflaeche":null,"Datum Oberflaeche":null,"source_excel":"Karben_Umwelt_Aufmass_Arbeitsflaechen_Flurstuecke.xlsx","source_sheet":"Gerueste"},"geometry":{"type":"Polygon","coordinates":[[[8.829659422319736,50.16941956681376],[8.829667909080744,50.16955713038465],[8.831479203574759,50.16949356890062],[8.831471833698679,50.16935547644925],[8.829659422319736,50.16941956681376]]]}},{"type":"Feature","properties":{"Gemeinde":"Maintal","Gemarkung":"Hochstadt","Flur":"1","Flurstueck":"17","Flurstueckskennzeichen":"06092100100017______","Betroffene Flaeche [m2]":41.25975601830699,"Flurstuecksflaeche amtlich [m2]":3473,"Anteil am Flurstueck [%]":1.190829519716145,"Mast Nr.":"45","Arbeitsflaechen-ID":null,"Art / Typ":null,"Status":null,"Bemerkung":null,"Breite [m]":null,"Laenge [m]":null,"Hoehe [m]":null,"Quelle Oberflaeche":null,"Datum Oberflaeche":null,"source_excel":"Karben_Umwelt_Aufmass_Arbeitsflaechen_Flurstuecke.xlsx","source_sheet":"Gerueste"},"geometry":{"type":"Polygon","coordinates":[[[8.829667909080744,50.16955713038465],[8.829682876438016,50.169797898271945],[8.831492095128434,50.16973390183975],[8.831479203574759,50.16949356890062],[8.829667909080744,50.16955713038465]]]}},{"type":"Feature","properties":{"Gemeinde":"Maintal","Gemarkung":"Hochstadt","Flur":"1","Flurstueck":"49","Flurstueckskennzeichen":"06092100100049______","Betroffene Flaeche [m2]":24.21494670449525,"Flurstuecksflaeche amtlich [m2]":489,"Anteil am Flurstueck [%]":4.984661475729513,"Mast Nr.":"45","Arbeitsflaechen-ID":null,"Art / Typ":null,"Status":null,"Bemerkung":null,"Breite [m]":null,"Laenge [m]":null,"Hoehe [m]":null,"Quelle Oberflaeche":null,"Datum Oberflaeche":null,"source_excel":"Karben_Umwelt_Aufmass_Arbeitsflaechen_Flurstuecke.xlsx","source_sheet":"Gerueste"},"geometry":{"type":"Polygon","coordinates":[[[8.829648562049915,50.169244612544055],[8.829654914538457,50.16934835631397],[8.82970712560604,50.169310326149876],[8.831410202761555,50.16924948506063],[8.831468040207929,50.1692834576148],[8.831466066278647,50.16924749755107],[8.831478877032538,50.16918027851114],[8.8314161805439,50.1692180244409],[8.829705417739522,50.16927867447463],[8.829648562049915,50.169244612544055]]]}},{"type":"Feature","properties":{"Gemeinde":"Niederdorfelden","Gemarkung":"Niederdorfelden","Flur":"22","Flurstueck":"32","Flurstueckskennzeichen":"06096802200032______","Betroffene Flaeche [m2]":289.1707603548697,"Flurstuecksflaeche amtlich [m2]":14380,"Anteil am Flurstueck [%]":2.012454505944756,"Mast Nr.":"42","Arbeitsflaechen-ID":null,"Art / Typ":null,"Status":null,"Bemerkung":null,"Breite [m]":null,"Laenge [m]":null,"Hoehe [m]":null,"Quelle Oberflaeche":null,"Datum Oberflaeche":null,"source_excel":"Karben_Umwelt_Aufmass_Arbeitsflaechen_Flurstuecke.xlsx","source_sheet":"Gerueste"},"geometry":{"type":"Polygon","coordinates":[[[8.819274989457538,50.17385908563432],[8.82060901510064,50.174235313072764],[8.821460808680857,50.17300415222271],[8.821375047209887,50.17298981918179],[8.820761484237432,50.17291211207246],[8.82009622723129,50.17285156277268],[8.819971119159396,50.172840135703005],[8.819274989457538,50.17385908563432]]]}},{"type":"Feature","properties":{"Gemeinde":"Niederdorfelden","Gemarkung":"Niederdorfelden","Flur":"22","Flurstueck":"33","Flurstueckskennzeichen":"06096802200033______","Betroffene Flaeche [m2]":16.2623970115767,"Flurstuecksflaeche amtlich [m2]":13008,"Anteil am Flurstueck [%]":0.1251132816080016,"Mast Nr.":"42","Arbeitsflaechen-ID":null,"Art / Typ":null,"Status":null,"Bemerkung":null,"Breite [m]":null,"Laenge [m]":null,"Hoehe [m]":null,"Quelle Oberflaeche":null,"Datum Oberflaeche":null,"source_excel":"Karben_Umwelt_Aufmass_Arbeitsflaechen_Flurstuecke.xlsx","source_sheet":"Gerueste"},"geometry":{"type":"Polygon","coordinates":[[[8.82060901510064,50.174235313072764],[8.821653981170098,50.174530290518945],[8.822632617656957,50.17310893524298],[8.822477269395524,50.17309124099292],[8.822246770213846,50.173098047571855],[8.821877335965008,50.173064393519404],[8.821762038893562,50.17304668776866],[8.82163359106924,50.17303309885578],[8.821460808680857,50.17300415222271],[8.82060901510064,50.174235313072764]]]}}]}