{"type":"FeatureCollection","name":"toitoi","source":"Masten 042, 048, 051","features":[{"type":"Feature","properties":{"name":"TOI TOI Mast 042","mast":"042","typ":"Sanitaer / TOI TOI","projekt":"Karben 042-051"},"geometry":{"type":"Point","coordinates":[8.81935132913939,50.174548393361185,0.0]}},{"type":"Feature","properties":{"name":"TOI TOI Mast 048","mast":"048","typ":"Sanitaer / TOI TOI","projekt":"Karben 042-051"},"geometry":{"type":"Point","coordinates":[8.84506325972439,50.1636141112997,0.0]}},{"type":"Feature","properties":{"name":"TOI TOI Mast 051","mast":"051","typ":"Sanitaer / TOI TOI","projekt":"Karben 042-051"},"geometry":{"type":"Point","coordinates":[8.85361328554177,50.1571049958605,0.0]}}]}