{"type":"FeatureCollection","name":"zuwegung_vorhanden","source":"G:\\Unidades compartidas\\DE\\02_Projekt Laufend\\11_Karben\\12 Engineering_Planung\\12.02 Bautechnik-Statik\\05. Zuwegungen\\01_Datos_Proyecto\\Zuwegung_temporär.gpkg","features":[{"type":"Feature","properties":{"fid":34,"kommentar":"Acceso desde camino forestal existente","mast_nr":34,"bauart":"temporär","breite":5,"status":null,"zugang_von":"Landkreis Strasse","zugang_bis":"Mast 034","dauer":"1 Monat","flurstuecke":"","area_calc":1806.76,"length_calc":834,"arbeits_id":null,"tipo":null,"anchura_m":null,"estado":null,"comentario":null},"geometry":{"type":"Polygon","coordinates":[[[8.814762548252915,50.200882269512356],[8.814824561502787,50.20090300790071],[8.815645836138838,50.19952148592113],[8.815564867525524,50.199488637962254],[8.815553397189513,50.19945887479464],[8.814883187409203,50.19921919969413],[8.814849797782788,50.19925188507171],[8.815391200123026,50.19945629516035],[8.815503551536986,50.19964934656642],[8.814762548252915,50.200882269512356]]]}},{"type":"Feature","properties":{"fid":39,"kommentar":"Acceso torre 39","mast_nr":39,"bauart":"vorhanden","breite":4,"status":"vorhanden","zugang_von":"Strasse","zugang_bis":"039","dauer":"1 Monat","flurstuecke":"array_to_string(\n  array_distinct(\n    overlay_intersects('ave:Flurstueck', \"flstnrn\")\n  ),\n  ', '\n)\n","area_calc":null,"length_calc":null,"arbeits_id":null,"tipo":null,"anchura_m":null,"estado":null,"comentario":null},"geometry":{"type":"Polygon","coordinates":[[[8.826743754126758,50.18174213147928],[8.826361471594597,50.18241379873066],[8.822433656270185,50.184799362572896],[8.822415390727873,50.18472794657588],[8.826241031042764,50.1824136186482],[8.826334044296411,50.1823126245847],[8.826660567126408,50.181688466300784],[8.826743754126758,50.18174213147928]]]}},{"type":"Feature","properties":{"fid":672,"kommentar":null,"mast_nr":61,"bauart":null,"breite":null,"status":null,"zugang_von":null,"zugang_bis":null,"dauer":null,"flurstuecke":null,"area_calc":null,"length_calc":null,"arbeits_id":null,"tipo":null,"anchura_m":null,"estado":null,"comentario":null},"geometry":{"type":"Polygon","coordinates":[[[8.86629653493956,50.13482423670804],[8.865790598392259,50.137018854253846],[8.865071519006392,50.13928460996081],[8.86975199873506,50.140479763419656],[8.869761449128282,50.1404083854213],[8.865145653364992,50.13925495080995],[8.865818399386939,50.13700698827089],[8.866336690277649,50.13484157237372],[8.86629653493956,50.13482423670804]]]}},{"type":"Feature","properties":{"fid":674,"kommentar":null,"mast_nr":66,"bauart":null,"breite":null,"status":null,"zugang_von":null,"zugang_bis":null,"dauer":null,"flurstuecke":null,"area_calc":null,"length_calc":null,"arbeits_id":null,"tipo":null,"anchura_m":null,"estado":null,"comentario":null},"geometry":{"type":"Polygon","coordinates":[[[8.872552093839584,50.12393853945048],[8.871443897361019,50.1239759868677],[8.871450801556913,50.123989379910405],[8.872549748900198,50.123950435010045],[8.872552093839584,50.12393853945048]]]}},{"type":"Feature","properties":{"fid":675,"kommentar":null,"mast_nr":58,"bauart":null,"breite":null,"status":null,"zugang_von":null,"zugang_bis":null,"dauer":null,"flurstuecke":null,"area_calc":null,"length_calc":null,"arbeits_id":null,"tipo":null,"anchura_m":null,"estado":null,"comentario":null},"geometry":{"type":"Polygon","coordinates":[[[8.869156271520092,50.14550901311802],[8.870138038499366,50.14533759270553],[8.870583980262241,50.14475210953973],[8.870810858670076,50.14472559142125],[8.87082926130942,50.14476725520613],[8.870708882998247,50.14477901935294],[8.870597673759235,50.14482351333962],[8.870184173095742,50.14539416020411],[8.869179334250951,50.145538784319974],[8.869156271520092,50.14550901311802]]]}},{"type":"Feature","properties":{"fid":676,"kommentar":null,"mast_nr":59,"bauart":null,"breite":null,"status":null,"zugang_von":null,"zugang_bis":null,"dauer":null,"flurstuecke":null,"area_calc":null,"length_calc":null,"arbeits_id":null,"tipo":null,"anchura_m":null,"estado":null,"comentario":null},"geometry":{"type":"Polygon","coordinates":[[[8.869726829034429,50.14045864357326],[8.869515455229227,50.14074335032703],[8.868357927569095,50.14113384210194],[8.868364834911246,50.141309565406665],[8.86923321683576,50.14262603775289],[8.869650106065373,50.14285921060723],[8.86979044133952,50.14288548788619],[8.869992843562159,50.14318728027927],[8.870026130056557,50.14317544487175],[8.869816370096155,50.14286177162525],[8.869657573294017,50.14283072459454],[8.869255437902927,50.14260706650715],[8.868395626915131,50.14130880879156],[8.868388684714152,50.14114574962776],[8.86953390738435,50.14075128616889],[8.869744059214925,50.14046301621084],[8.869726829034429,50.14045864357326]]]}},{"type":"Feature","properties":{"fid":677,"kommentar":null,"mast_nr":62,"bauart":null,"breite":null,"status":null,"zugang_von":null,"zugang_bis":null,"dauer":null,"flurstuecke":null,"area_calc":null,"length_calc":null,"arbeits_id":null,"tipo":null,"anchura_m":null,"estado":null,"comentario":null},"geometry":{"type":"Polygon","coordinates":[[[8.869556894128607,50.13501522740877],[8.871168886396509,50.13454053657022],[8.871157534465464,50.135099331457745],[8.871127971545308,50.135102464704396],[8.871149124165312,50.13456267698328],[8.86956917401934,50.13502790539275],[8.869556894128607,50.13501522740877]]]}},{"type":"Feature","properties":{"fid":678,"kommentar":null,"mast_nr":67,"bauart":null,"breite":null,"status":null,"zugang_von":null,"zugang_bis":null,"dauer":null,"flurstuecke":null,"area_calc":null,"length_calc":null,"arbeits_id":null,"tipo":null,"anchura_m":null,"estado":null,"comentario":null},"geometry":{"type":"Polygon","coordinates":[[[8.87152902098022,50.120686555840784],[8.871521076745028,50.12089497905385],[8.871533387441119,50.120894992673556],[8.871540506677167,50.12068815157493],[8.87152902098022,50.120686555840784]]]}},{"type":"Feature","properties":{"fid":679,"kommentar":null,"mast_nr":68,"bauart":null,"breite":null,"status":null,"zugang_von":null,"zugang_bis":null,"dauer":null,"flurstuecke":null,"area_calc":null,"length_calc":null,"arbeits_id":null,"tipo":null,"anchura_m":null,"estado":null,"comentario":null},"geometry":{"type":"Polygon","coordinates":[[[8.869483357230244,50.1176320201489],[8.869685333473138,50.117395848020635],[8.8696513886536,50.117001811625855],[8.870006067946646,50.116943109469595],[8.870150577664118,50.11691512841568],[8.871061090139337,50.11686267179461],[8.871249125157977,50.11692479445211],[8.871774292992807,50.11694226118837],[8.871752341454343,50.11696756540933],[8.871275310348802,50.116952966218506],[8.87106103723276,50.116882371651585],[8.8701592627121,50.11694046659011],[8.869699487418313,50.11701875124918],[8.869715917732918,50.11741558225291],[8.869518356641125,50.117637688028076],[8.869483357230244,50.1176320201489]]]}},{"type":"Feature","properties":{"fid":680,"kommentar":null,"mast_nr":67,"bauart":null,"breite":null,"status":null,"zugang_von":null,"zugang_bis":null,"dauer":null,"flurstuecke":null,"area_calc":null,"length_calc":null,"arbeits_id":null,"tipo":null,"anchura_m":null,"estado":null,"comentario":null},"geometry":{"type":"Polygon","coordinates":[[[8.870101829295187,50.119564711951625],[8.870081503210022,50.1206059699013],[8.870273730989883,50.1207412698517],[8.870474668561075,50.12089346482596],[8.871717715087357,50.1209173588345],[8.872242402477236,50.12113182191031],[8.87223349835122,50.121188097545236],[8.871682532479548,50.12097923394023],[8.870378249980801,50.12093838558864],[8.869950220413823,50.12059456586261],[8.870005504486086,50.119575861250794],[8.870101829295187,50.119564711951625]]]}},{"type":"Feature","properties":{"fid":681,"kommentar":null,"mast_nr":42,"bauart":null,"breite":4,"status":"Aprtobado","zugang_von":null,"zugang_bis":null,"dauer":null,"flurstuecke":null,"area_calc":null,"length_calc":null,"arbeits_id":null,"tipo":null,"anchura_m":null,"estado":null,"comentario":null},"geometry":{"type":"Polygon","coordinates":[[[8.826926422552788,50.17610191671598],[8.82697674937207,50.17602393970259],[8.81935653535518,50.17387738800116],[8.819341925863881,50.17396000859466],[8.826926422552788,50.17610191671598]]]}},{"type":"Feature","properties":{"fid":682,"kommentar":null,"mast_nr":44,"bauart":null,"breite":4,"status":null,"zugang_von":null,"zugang_bis":null,"dauer":null,"flurstuecke":null,"area_calc":null,"length_calc":null,"arbeits_id":null,"tipo":null,"anchura_m":null,"estado":null,"comentario":null},"geometry":{"type":"Polygon","coordinates":[[[8.831847937551382,50.16732943842339],[8.831848367133164,50.167207004381005],[8.831791011627857,50.16725589520557],[8.827473028033427,50.167420970680055],[8.827477930770035,50.16870654181154],[8.827380107965277,50.1694042738832],[8.827313214224617,50.16945314830687],[8.824378235449904,50.16928958303711],[8.824132546156259,50.171309382371376],[8.82419924359861,50.17131560505989],[8.824463723054667,50.16936929476155],[8.824521021310966,50.169338772676184],[8.82741785732062,50.1695083994035],[8.827503702949773,50.169490161720255],[8.827583034954062,50.16863323708119],[8.827539434118997,50.16750677355658],[8.827615789498097,50.16747627822896],[8.831840854021488,50.16731106296963],[8.831847937551382,50.16732943842339]]]}},{"type":"Feature","properties":{"fid":683,"kommentar":null,"mast_nr":49,"bauart":null,"breite":4,"status":null,"zugang_von":null,"zugang_bis":null,"dauer":null,"flurstuecke":null,"area_calc":null,"length_calc":null,"arbeits_id":null,"tipo":null,"anchura_m":null,"estado":null,"comentario":null},"geometry":{"type":"Polygon","coordinates":[[[8.85006081187903,50.16283806577478],[8.85010541163553,50.162797311757565],[8.848000706530811,50.161362090005376],[8.847949779245216,50.16139467262392],[8.85006081187903,50.16283806577478]]]}},{"type":"Feature","properties":{"fid":684,"kommentar":null,"mast_nr":50,"bauart":null,"breite":null,"status":null,"zugang_von":null,"zugang_bis":null,"dauer":null,"flurstuecke":null,"area_calc":null,"length_calc":null,"arbeits_id":null,"tipo":null,"anchura_m":null,"estado":null,"comentario":null},"geometry":{"type":"Polygon","coordinates":[[[8.849800120083287,50.15885043625971],[8.849787210210465,50.15891571813722],[8.850719517153253,50.159408699924356],[8.850674940146279,50.15944333248858],[8.849688782656376,50.15890334732411],[8.84976208102658,50.158825900099785],[8.849800120083287,50.15885043625971]]]}},{"type":"Feature","properties":{"fid":685,"kommentar":null,"mast_nr":51,"bauart":null,"breite":null,"status":null,"zugang_von":null,"zugang_bis":null,"dauer":null,"flurstuecke":null,"area_calc":null,"length_calc":null,"arbeits_id":null,"tipo":null,"anchura_m":null,"estado":null,"comentario":null},"geometry":{"type":"Polygon","coordinates":[[[8.860209551275734,50.154523331438504],[8.860262396802527,50.15448105295257],[8.860143846235685,50.15445550502134],[8.853882362096462,50.15613301125203],[8.85388220724174,50.156183821535386],[8.86015800162802,50.154497864140325],[8.860209551275734,50.154523331438504]]]}},{"type":"Feature","properties":{"fid":686,"kommentar":null,"mast_nr":43,"bauart":null,"breite":null,"status":null,"zugang_von":null,"zugang_bis":null,"dauer":null,"flurstuecke":null,"area_calc":null,"length_calc":null,"arbeits_id":null,"tipo":null,"anchura_m":null,"estado":null,"comentario":null},"geometry":{"type":"Polygon","coordinates":[[[8.824193539211723,50.17131805928707],[8.82419792389771,50.17132088872065],[8.824107380806783,50.172040565018264],[8.823449930270156,50.17273962135418],[8.823410477749833,50.17271133341599],[8.82405462913901,50.17204330792784],[8.824136424381601,50.171312327237224],[8.824193539211723,50.17131805928707]]]}},{"type":"Feature","properties":{"fid":687,"kommentar":null,"mast_nr":44,"bauart":null,"breite":null,"status":null,"zugang_von":null,"zugang_bis":null,"dauer":null,"flurstuecke":null,"area_calc":null,"length_calc":null,"arbeits_id":null,"tipo":null,"anchura_m":null,"estado":null,"comentario":null},"geometry":{"type":"Polygon","coordinates":[[[8.827461196494863,50.16950789963305],[8.82747877600313,50.169507925743225],[8.827443200241461,50.16962360763722],[8.827600723243595,50.17103806335921],[8.827534686225864,50.171069016108305],[8.827368466813377,50.16962914219416],[8.827386483585013,50.16950778863514],[8.827461196494863,50.16950789963305]]]}}]}