{"type":"FeatureCollection","name":"zuwegung_temporaer","source":"G:\\Unidades compartidas\\DE\\02_Projekt Laufend\\11_Karben\\12 Engineering_Planung\\12.02 Bautechnik-Statik\\05. Zuwegungen\\01_Datos_Proyecto\\Zuwegung_temporär_empty_metadata.gpkg","features":[{"type":"Feature","properties":{"fid":1,"arbeits_id":null,"mast_nr":42,"tipo":null,"anchura_m":null,"estado":null,"comentario":null},"geometry":{"type":"Polygon","coordinates":[[[8.819488306456346,50.17400614910314],[8.819436415927388,50.17402213799018],[8.819172182109096,50.17489522079772],[8.819072094794231,50.17489506495455],[8.819357833583735,50.17400709410806],[8.819325845044595,50.17395883576102],[8.819488306456346,50.17400614910314]]]}},{"type":"Feature","properties":{"fid":2,"arbeits_id":null,"mast_nr":42,"tipo":null,"anchura_m":null,"estado":null,"comentario":null},"geometry":{"type":"Polygon","coordinates":[[[8.819298823737014,50.174489088295616],[8.819602398356862,50.174558429546245],[8.819512611567536,50.17467077679597],[8.819401939578622,50.17463387443404],[8.819423629001403,50.17456963002704],[8.819280786635101,50.17453267753622],[8.819298823737014,50.174489088295616]]]}},{"type":"Feature","properties":{"fid":6,"arbeits_id":null,"mast_nr":47,"tipo":"Acceso Gruas","anchura_m":null,"estado":null,"comentario":null},"geometry":{"type":"Polygon","coordinates":[[[8.846346248829569,50.16680035825147],[8.846390270931929,50.166776775530536],[8.843661176218381,50.16514823611101],[8.84318865171812,50.16504970755094],[8.843159990660835,50.165079308258015],[8.843608622629027,50.16519030330847],[8.846346248829569,50.16680035825147]]]}},{"type":"Feature","properties":{"fid":9,"arbeits_id":null,"mast_nr":48,"tipo":"kran+Hubsteriger System 1","anchura_m":null,"estado":null,"comentario":null},"geometry":{"type":"Polygon","coordinates":[[[8.843707862369804,50.16451019389557],[8.842726467382768,50.164277752468244],[8.842619571802006,50.16437852280781],[8.842881905313853,50.16444980080823],[8.843571239124273,50.16463139040663],[8.843707862369804,50.16451019389557]]]}},{"type":"Feature","properties":{"fid":10,"arbeits_id":null,"mast_nr":47,"tipo":"Kran+Hubsteiger System 3","anchura_m":null,"estado":null,"comentario":null},"geometry":{"type":"Polygon","coordinates":[[[8.844068769796097,50.16433707670932],[8.843895363119806,50.16428391628561],[8.843189763034864,50.16504582770088],[8.8433522385393,50.16508274332789],[8.844068769796097,50.16433707670932]]]}},{"type":"Feature","properties":{"fid":12,"arbeits_id":"","mast_nr":50,"tipo":null,"anchura_m":null,"estado":null,"comentario":null},"geometry":{"type":"Polygon","coordinates":[[[8.850611514067179,50.159410828380345],[8.850505385312712,50.15949095465685],[8.850477924758533,50.159469153122444],[8.85058191050129,50.15939718643475],[8.850611514067179,50.159410828380345]]]}},{"type":"Feature","properties":{"fid":14,"arbeits_id":null,"mast_nr":50,"tipo":"rollenliene Acceso","anchura_m":null,"estado":null,"comentario":null},"geometry":{"type":"Polygon","coordinates":[[[8.850503175641391,50.15949533528139],[8.850442809160974,50.15953798379188],[8.850407730966054,50.15951939705296],[8.85047186454123,50.159475947255],[8.850503175641391,50.15949533528139]]]}},{"type":"Feature","properties":{"fid":16,"arbeits_id":null,"mast_nr":48,"tipo":"Acceso Superficie Tendido","anchura_m":null,"estado":null,"comentario":null},"geometry":{"type":"Polygon","coordinates":[[[8.845646251205691,50.16172968036733],[8.845593739419643,50.161661863331084],[8.845277013550117,50.16176870834298],[8.844752315250552,50.162321277371845],[8.844430758325014,50.16256078527843],[8.843660375427609,50.16298599394519],[8.844552620843706,50.163601150660035],[8.84499607483518,50.16371747810328],[8.84506871847559,50.16367523300574],[8.84459888953378,50.16356169335697],[8.843772365231112,50.163005904231376],[8.844221389570675,50.16275810077725],[8.844503116830332,50.16260604698917],[8.844842323701563,50.16234398004954],[8.845270148935612,50.16185338325228],[8.845496717570404,50.16177041218889],[8.845646251205691,50.16172968036733]]]}},{"type":"Feature","properties":{"fid":17,"arbeits_id":null,"mast_nr":51,"tipo":null,"anchura_m":null,"estado":null,"comentario":null},"geometry":{"type":"Polygon","coordinates":[[[8.853892101581904,50.15618101117766],[8.853856651134727,50.15627976472958],[8.853953277479128,50.15629117748305],[8.853966828210384,50.15616981393557],[8.853892101581904,50.15618101117766]]]}},{"type":"Feature","properties":{"fid":18,"arbeits_id":null,"mast_nr":51,"tipo":null,"anchura_m":null,"estado":null,"comentario":null},"geometry":{"type":"Polygon","coordinates":[[[8.853776773019103,50.15653936218683],[8.853656988684474,50.15691746707393],[8.853731621782252,50.15693732071],[8.853833873826078,50.15654507966523],[8.853776773019103,50.15653936218683]]]}},{"type":"Feature","properties":{"fid":19,"arbeits_id":null,"mast_nr":46,"tipo":null,"anchura_m":null,"estado":null,"comentario":null},"geometry":{"type":"Polygon","coordinates":[[[8.839207926951437,50.16812041129265],[8.839234409099857,50.16808657436066],[8.837037399372221,50.167976246568145],[8.835935972482789,50.16749199749222],[8.835874330759275,50.16752578400391],[8.837037293784897,50.16800729720862],[8.839207926951437,50.16812041129265]]]}},{"type":"Feature","properties":{"fid":20,"arbeits_id":null,"mast_nr":47,"tipo":null,"anchura_m":null,"estado":null,"comentario":null},"geometry":{"type":"Polygon","coordinates":[[[8.836662231280387,50.16780494029356],[8.836585453571672,50.1677667245202],[8.83713606457697,50.16739347692856],[8.83924483435161,50.16640599013891],[8.838985544103215,50.16624694539489],[8.839026785551157,50.16622693885566],[8.839331454373097,50.16640246203688],[8.83721503467869,50.167433106812524],[8.836662231280387,50.16780494029356]]]}},{"type":"Feature","properties":{"fid":21,"arbeits_id":null,"mast_nr":null,"tipo":null,"anchura_m":null,"estado":null,"comentario":null},"geometry":{"type":"Polygon","coordinates":[[[8.819073231784756,50.17489575722812],[8.81905619506793,50.174995663435915],[8.819491096240526,50.17518823821924],[8.81958180943932,50.175195663533415],[8.81916608826855,50.174898633461105],[8.819073231784756,50.17489575722812]]]}},{"type":"Feature","properties":{"fid":22,"arbeits_id":"047_atirantamiento","mast_nr":47,"tipo":null,"anchura_m":null,"estado":null,"comentario":null},"geometry":{"type":"Polygon","coordinates":[[[8.843753616321894,50.16300585111192],[8.843587435656627,50.1630976550411],[8.841243994297855,50.16491565298495],[8.840911722013363,50.165065348606085],[8.839391569241723,50.16641945207015],[8.839293671999702,50.16638056823505],[8.841093396743243,50.164852480838945],[8.841168767700575,50.164862271034906],[8.843497034361578,50.1630733154895],[8.843648182488424,50.16296696078443],[8.843753616321894,50.16300585111192]]]}}]}